{
"type": "FeatureCollection",
"name": "isea4d_0",
"features": [
{ "type": "Feature", "properties": { "global_id": "1" }, "geometry": { "type": "Polygon", "coordinates": [ [ [ -168.750000000670269, 60.238360121149022 ], [ -168.750000000682235, 62.211439399145043 ], [ -168.750000000699146, 64.20085323670294 ], [ -168.750000000722252, 66.205637718835234 ], [ -168.750000000753289, 68.224777086741938 ], [ -168.750000000794643, 70.257206026057247 ], [ -168.750000000849951, 72.301812355316329 ], [ -168.7500000009247, 74.357440105711873 ], [ -168.750000001027843, 76.422892977489965 ], [ -168.750000001174755, 78.496938152583112 ], [ -168.750000001394596, 80.578310437428982 ], [ -168.750000001749754, 82.665716704514267 ], [ -168.750000002402629, 84.757840596150942 ], [ -168.750000003948429, 86.853347449470618 ], [ -168.750000011744646, 88.950889397735239 ], [ 11.2500000117111, 88.95088940008425 ], [ 11.250000003914881, 86.853347451822984 ], [ 11.250000002369076, 84.757840598509944 ], [ 11.250000001716215, 82.665716706883217 ], [ 11.250000001361034, 80.578310439811048 ], [ 11.250000001141199, 78.496938154981422 ], [ 11.25000000099428, 76.422892979907488 ], [ 11.25000000089115, 74.357440108151465 ], [ 11.250000000816394, 72.30181235778069 ], [ 11.250000000761093, 70.257206028548921 ], [ 11.25000000071973, 68.22477708926327 ], [ 11.250000000688713, 66.205637721388399 ], [ 11.250000000665601, 64.20085323928987 ], [ 11.250000000648683, 62.211439401767507 ], [ 11.250000000636717, 60.238360123808548 ], [ 11.250000000628775, 58.282525589545017 ], [ 7.653732055071782, 58.837138332831017 ], [ 3.918497249353672, 59.292247011479915 ], [ 0.062433138902135, 59.640153688802236 ], [ -3.891366815142604, 59.874093754587001 ], [ -7.915427604068301, 59.988559937760108 ], [ -11.978928404304506, 59.979585299676849 ], [ -16.049127895800993, 59.84495124762217 ], [ -20.093027153342721, 59.584293835210502 ], [ -24.07906514907085, 59.19909501404576 ], [ -27.97863441704331, 58.69256205467655 ], [ -31.767245069008599, 58.069413887851994 ], [ -35.425239924047744, 57.335603885645703 ], [ -38.938047924808757, 56.498012647346435 ], [ -42.296034020020308, 55.564141944000717 ], [ -45.494047283197105, 54.541834060404639 ], [ -48.530782832508301, 53.439031939394461 ], [ -51.408063472469991, 52.263587034383697 ], [ -54.130123899260155, 51.023115018456956 ], [ -56.70295312820619, 49.724894994527716 ], [ -59.133725932565142, 48.375805460649815 ], [ -61.430334709233257, 46.982289529987021 ], [ -63.601020008337038, 45.550342227573815 ], [ -65.654090233452195, 44.085513597436083 ], [ -67.597717411669308, 42.592922495085347 ], [ -69.439795090488857, 41.07727708375441 ], [ -71.187845216588485, 39.542899074652226 ], [ -72.84896247206612, 37.993749601052912 ], [ -74.429786451425244, 36.433455286385716 ], [ -75.936493941588182, 34.86533357410967 ], [ -77.374805255000453, 33.29241675815328 ], [ -78.750000003251799, 31.717474410420717 ], [ -80.922323306279495, 31.094656313243885 ], [ -83.084309628673026, 30.429935375677005 ], [ -85.233789876465437, 29.724143369867921 ], [ -87.368778608220296, 28.978277273045517 ], [ -89.487484213011527, 28.1934909343546 ], [ -91.588315244874053, 27.371085446265901 ], [ -93.66988308278664, 26.512498442483952 ], [ -95.731001185198608, 25.619292545505061 ], [ -97.770681284752044, 24.693143181047478 ], [ -99.788126921400064, 23.735825964916884 ], [ -101.782724741480408, 22.749203851995532 ], [ -103.754033998674075, 21.735214218420413 ], [ -105.701774683262897, 20.695856027970429 ], [ -107.625814682289217, 19.633177213332367 ], [ -109.526156338837083, 18.549262383139748 ], [ -111.402922737267346, 17.446220947108628 ], [ -113.25634399605508, 16.326175734633559 ], [ -115.086743803614439, 15.191252167057668 ], [ -116.89452638732503, 14.043568030535063 ], [ -118.680164063516614, 12.885223884884422 ], [ -120.444185477538156, 11.718294133931622 ], [ -122.18716460889695, 10.544818774354948 ], [ -123.909710587100193, 9.366795832760728 ], [ -125.612458339269878, 8.186174494418728 ], [ -127.296060070624392, 7.004848921585624 ], [ -128.961177563172811, 5.824652754482175 ], [ -130.608475266007076, 4.647354283641163 ], [ -132.238614141916713, 3.474652278419177 ], [ -133.852246229195458, 2.308172452907878 ], [ -135.450009873980207, 1.14946454725835 ], [ -137.032525588740668, -0.000000001863523 ], [ -137.637124118702332, 1.860074663963236 ], [ -138.248350761543861, 3.73633897341635 ], [ -138.867294358909845, 5.627704608264148 ], [ -139.495111109648462, 7.533018351299231 ], [ -140.13303312435778, 9.451062482795626 ], [ -140.782378002540071, 11.380555395377609 ], [ -141.44455958330758, 13.320152394362388 ], [ -142.121100044248237, 15.268446639943569 ], [ -142.813643550555895, 17.223970175740856 ], [ -143.523971688415884, 19.185194975173978 ], [ -144.254020953513447, 21.150533922710988 ], [ -145.00590260800152, 23.11834163113296 ], [ -145.781925267888482, 25.086914978327577 ], [ -146.584620638009511, 27.054493227477533 ], [ -147.416772873680202, 29.019257572459978 ], [ -148.281452116434792, 30.97932992533141 ], [ -149.182052824690402, 32.932770734338447 ], [ -150.122337596068633, 34.877575588260491 ], [ -151.106487251447561, 36.811670325258369 ], [ -152.139158012948116, 38.732904320943604 ], [ -153.225546644640929, 40.639041580340141 ], [ -154.371464412756069, 42.527749201305973 ], [ -155.583420625356496, 44.396582712966719 ], [ -156.868716273831495, 46.242967723161904 ], [ -158.235547835045224, 48.064177237392272 ], [ -159.69312047606013, 49.857303945632388 ], [ -161.251768545435141, 51.619226726230053 ], [ -162.923079065875839, 53.346570611591595 ], [ -164.720010583918025, 55.03565953779141 ], [ -166.656994674169567, 56.682461422771411 ], [ -168.749999995427913, 58.282525583136795 ], [ -168.750000000670269, 60.238360121149022 ] ] ] } },
{ "type": "Feature", "properties": { "global_id": "2" }, "geometry": { "type": "Polygon", "coordinates": [ [ [ -77.374805257331346, 33.292416756655555 ], [ -75.936493943949614, 34.865333572632615 ], [ -74.429786453824008, 36.433455284932059 ], [ -72.848962474509534, 37.993749599625531 ], [ -71.187845219084451, 39.542899073254198 ], [ -69.439795093045845, 41.077277082389053 ], [ -67.597717414296312, 42.592922493756262 ], [ -65.654090236158808, 44.085513596147216 ], [ -63.601020011133301, 45.550342226329512 ], [ -61.430334712129564, 46.982289528792087 ], [ -59.133725935572102, 48.375805459509571 ], [ -56.70295313133434, 49.724894993448046 ], [ -54.130123902519628, 51.023115017444361 ], [ -51.408063475870058, 52.263587033445319 ], [ -48.53078283605678, 53.439031938538058 ], [ -45.494047286899686, 54.541834059638575 ], [ -42.296034023879706, 55.564141943333851 ], [ -38.938047928823877, 56.498012646787991 ], [ -35.425239928212811, 57.335603885205067 ], [ -31.76724507331242, 58.069413887538431 ], [ -27.978634421468804, 58.692562054498893 ], [ -24.079065153594954, 59.199095014012045 ], [ -20.093027157936781, 59.5842938353276 ], [ -16.049127900431735, 59.844951247895459 ], [ -11.978928408935472, 59.979585300109946 ], [ -7.915427608661676, 59.988559938354705 ], [ -3.891366819661169, 59.874093755342834 ], [ 0.062433134493148, 59.640153689717167 ], [ 3.918497245085053, 59.292247012550142 ], [ 7.653732050969292, 58.837138334051332 ], [ 11.250000001017378, 58.28252559017379 ], [ 9.156994679133621, 56.682461429904073 ], [ 7.220010588338342, 55.035659545004151 ], [ 5.423079069824258, 53.346570618871183 ], [ 3.751768548974521, 51.619226733565235 ], [ 2.193120479245378, 49.85730395301357 ], [ 0.735547837924156, 48.064177244811262 ], [ -0.631283723554137, 46.242967730611682 ], [ -1.916579372257308, 44.396582720441252 ], [ -3.128535585054116, 42.527749208800067 ], [ -4.2744533533378, 40.639041587849306 ], [ -5.360841985174719, 38.732904328463938 ], [ -6.393512746797872, 36.81167033278647 ], [ -7.377662402280468, 34.877575595793374 ], [ -8.317947173745557, 32.932770741873476 ], [ -9.218547882073132, 30.979329932866229 ], [ -10.083227124886379, 29.019257579992477 ], [ -10.915379360603803, 27.054493235005793 ], [ -11.718074730760902, 25.086914985849834 ], [ -12.494097390674268, 23.118341638647561 ], [ -13.245979045179979, 21.150533930216373 ], [ -13.976028310287177, 19.185194982668644 ], [ -14.686356448149516, 17.223970183223344 ], [ -15.378899954452786, 15.268446647412429 ], [ -16.055440415382837, 13.320152401816179 ], [ -16.717621996133921, 11.380555402814869 ], [ -17.36696687429437, 9.451062490214873 ], [ -18.004888888976737, 7.533018358698943 ], [ -18.632705639683589, 5.627704615642761 ], [ -19.251649237013176, 3.736338980772254 ], [ -19.862875879813906, 1.860074671294766 ], [ -20.467474413039799, -0.000000000363998 ], [ -22.049990125923131, -1.149464548086779 ], [ -23.647753770754285, -2.308172453736445 ], [ -25.26138585807773, -3.474652279248274 ], [ -26.891524734030259, -4.647354284471025 ], [ -28.538822436905431, -5.824652755312892 ], [ -30.203939929492638, -7.004848922417146 ], [ -31.887541660883709, -8.18617449525088 ], [ -33.590289413087589, -9.366795833593223 ], [ -35.312835391322544, -10.544818775187407 ], [ -37.055814522710421, -11.718294134763594 ], [ -38.819835936758295, -12.885223885715403 ], [ -40.605473612973341, -14.043568031364522 ], [ -42.413256196704417, -15.19125216788507 ], [ -44.243656004281178, -16.326175735458392 ], [ -46.097077263083129, -17.446220947930424 ], [ -47.973843661524349, -18.549262383958119 ], [ -49.874185318079832, -19.633177214147018 ], [ -51.798225317110379, -20.695856028781201 ], [ -53.74596600169999, -21.735214219227288 ], [ -55.717275258891007, -22.749203852798662 ], [ -57.711873078965269, -23.735825965716618 ], [ -59.729318715603796, -24.693143181844363 ], [ -61.768998815144407, -25.619292546299864 ], [ -63.83011691754033, -26.512498443277668 ], [ -65.91168475543374, -27.371085447059755 ], [ -68.012515787274168, -28.193490935150052 ], [ -70.131221392040544, -28.97827727384426 ], [ -72.266210123768062, -29.724143370671857 ], [ -74.4156903715309, -30.429935376488253 ], [ -76.57767669389294, -31.09465631406476 ], [ -78.749999999548024, -31.71747441198902 ], [ -78.749999999589733, -29.761639880091163 ], [ -78.74999999963174, -27.788560602118363 ], [ -78.749999999674117, -25.799146764582396 ], [ -78.749999999716891, -23.794362282470658 ], [ -78.749999999760149, -21.775222914583086 ], [ -78.749999999803947, -19.742793975285387 ], [ -78.749999999848328, -17.698187646042353 ], [ -78.749999999893376, -15.642559895661229 ], [ -78.749999999939149, -13.577107023895868 ], [ -78.749999999985732, -11.503061848813733 ], [ -78.750000000033168, -9.421689563977109 ], [ -78.75000000008157, -7.334283296899258 ], [ -78.75000000013101, -5.242159405268192 ], [ -78.750000000181572, -3.146652551952253 ], [ -78.750000000233356, -1.04911060368952 ], [ -78.750000000286448, 1.049110598491 ], [ -78.750000000340989, 3.146652546754146 ], [ -78.750000000397065, 5.24215940007092 ], [ -78.750000000454804, 7.334283291703262 ], [ -78.750000000514362, 9.421689558782859 ], [ -78.750000000575866, 11.503061843621735 ], [ -78.75000000063946, 13.577107018706675 ], [ -78.750000000705342, 15.642559890475441 ], [ -78.750000000773682, 17.698187640860628 ], [ -78.750000000844665, 19.742793970108448 ], [ -78.750000000918547, 21.775222909411713 ], [ -78.750000000995527, 23.794362277305709 ], [ -78.750000001075875, 25.79914675942479 ], [ -78.750000001159904, 27.788560596969088 ], [ -78.750000001247898, 29.761639874951271 ], [ -78.750000001340211, 31.717474406859662 ], [ -77.374805257331346, 33.292416756655555 ] ] ] } },
{ "type": "Feature", "properties": { "global_id": "3" }, "geometry": { "type": "Polygon", "coordinates": [ [ [ -19.862875881178876, 1.860074669250742 ], [ -19.251649238349181, 3.736338978733026 ], [ -18.632705640994448, 5.627704613609078 ], [ -18.004888890266361, 7.533018356671427 ], [ -17.366966875566774, 9.451062488194028 ], [ -16.717621997393255, 11.380555400801089 ], [ -16.055440416633402, 13.320152399809757 ], [ -15.378899955699076, 15.268446645413572 ], [ -14.686356449396232, 17.223970181232193 ], [ -13.976028311539279, 19.185194980685285 ], [ -13.245979046442715, 21.150533928240861 ], [ -12.494097391953218, 23.118341636679951 ], [ -11.718074732062028, 25.086914983890196 ], [ -10.915379361933512, 27.054493233054249 ], [ -10.083227126251575, 29.019257578049235 ], [ -9.218547883481291, 30.979329930931609 ], [ -8.317947175204806, 32.932770739947948 ], [ -7.377662403799675, 34.877575593877623 ], [ -6.393512748386743, 36.811670330881391 ], [ -5.360841986843916, 38.73290432657074 ], [ -4.274453355099064, 40.639041585969522 ], [ -3.128535586920409, 42.527749206935631 ], [ -1.91657937424297, 44.396582718594559 ], [ -0.631283725675047, 46.242967728785651 ], [ 0.735547835650396, 48.064177243009425 ], [ 2.193120476799261, 49.857303951240141 ], [ 3.751768546334457, 51.619226731825222 ], [ 5.42307906696641, 53.346570617170492 ], [ 7.220010585236512, 55.035659543349688 ], [ 9.156994675759211, 56.682461428303903 ], [ 11.25, 58.282525590562393 ], [ 13.343005321817783, 56.682461430259693 ], [ 15.279989412550487, 55.035659545330297 ], [ 17.076920931006079, 53.346570619171082 ], [ 18.748231451801786, 51.61922673384182 ], [ 20.306879521481541, 49.857303953269522 ], [ 21.76445216275804, 48.064177245049017 ], [ 23.131283724196209, 46.242967730833463 ], [ 24.416579372863726, 44.396582720649086 ], [ 25.628535585629177, 42.527749208995814 ], [ 26.774453353885619, 40.639041588034658 ], [ 27.86084198569921, 38.732904328640458 ], [ 28.893512747302758, 36.811670332955593 ], [ 29.877662402769285, 34.877575595956436 ], [ 30.817947174221658, 32.932770742031714 ], [ 31.718547882539706, 30.9793299330208 ], [ 32.583227125346468, 29.019257580144458 ], [ 33.415379361060296, 27.054493235156205 ], [ 34.218074731216575, 25.086914985999634 ], [ 34.994097391131781, 23.11834163879767 ], [ 35.745979045641896, 21.150533930367658 ], [ 36.476028310755964, 19.185194982821947 ], [ 37.186356448627578, 17.223970183379471 ], [ 37.878899954942469, 15.268446647572166 ], [ 38.555440415886416, 13.320152401980287 ], [ 39.217621996653641, 11.380555402984099 ], [ 39.866966874832436, 9.451062490389958 ], [ 40.50488888953533, 7.533018358880611 ], [ 41.132705640264888, 5.627704615831735 ], [ 41.751649237619333, 3.736338980969252 ], [ 42.362875880447078, 1.860074671500511 ], [ 42.967474411128194, -0.000000000985117 ], [ 42.362875881131352, -1.860074666826341 ], [ 41.751649238255318, -3.736338976293153 ], [ 41.132705640855427, -5.627704611153822 ], [ 40.504888890083357, -7.533018354200859 ], [ 39.866966875341006, -9.451062485708206 ], [ 39.217621997125953, -11.380555398300057 ], [ 38.555440416325844, -13.320152397293542 ], [ 37.878899955352608, -15.268446642882196 ], [ 37.18635644901228, -17.223970178685661 ], [ 36.476028311119357, -19.185194978123594 ], [ 35.74597904598847, -21.150533925664 ], [ 34.994097391466447, -23.118341634087905 ], [ 34.218074731544718, -25.086914981282945 ], [ 33.41537936138787, -27.054493230431774 ], [ 32.583227125680096, -29.019257575411523 ], [ 31.718547882886782, -30.979329928278649 ], [ 30.817947174590476, -32.932770737279753 ], [ 29.877662403169207, -34.877575591194216 ], [ 28.893512747744392, -36.811670328182849 ], [ 27.860841986194611, -38.73290432385717 ], [ 26.774453354448557, -40.639041583241095 ], [ 25.628535586275419, -42.527749204192588 ], [ 24.416579373611391, -44.396582715837255 ], [ 23.131283725066172, -46.242967726014577 ], [ 21.764452163774404, -48.064177240225227 ], [ 20.306879522672183, -49.8573039484437 ], [ 18.74823145319899, -51.619226729017697 ], [ 17.076920932647241, -53.346570614353382 ], [ 15.279989414478894, -55.035659540524946 ], [ 13.343005324083451, -56.682461425474045 ], [ 11.25, -58.282525587730653 ], [ 9.156994678339554, -56.682461427429836 ], [ 7.220010587734106, -55.035659542505549 ], [ 5.423079069380273, -53.346570616353965 ], [ 3.751768548664765, -51.619226731034288 ], [ 2.193120479047015, -49.857303950473081 ], [ 0.73554783781716, -48.064177242264819 ], [ -0.631283723587336, -46.242967728062382 ], [ -1.916579372232147, -44.396582717891789 ], [ -3.128535584984187, -42.527749206252771 ], [ -4.27445335323511, -40.639041585306231 ], [ -5.360841985049907, -38.732904325926881 ], [ -6.393512746660408, -36.811670330257051 ], [ -7.377662402138818, -34.877575593273036 ], [ -8.317947173607328, -32.932770739363519 ], [ -9.218547881945195, -30.97932993036784 ], [ -10.083227124774982, -29.019257577506746 ], [ -10.915379360514658, -27.05449323253373 ], [ -11.718074730699264, -25.086914983392383 ], [ -12.49409739064501, -23.118341636205624 ], [ -13.245979045187646, -21.1505339277908 ], [ -13.976028310336043, -19.18519498026026 ], [ -14.686356448243625, -17.223970180832939 ], [ -15.378899954595997, -15.26844664504079 ], [ -16.055440415578857, -13.320152399464074 ], [ -16.717621996386331, -11.380555400483066 ], [ -17.366966874606664, -9.451062487904137 ], [ -18.004888889352333, -7.533018356410044 ], [ -18.63270564012586, -5.627704613376479 ], [ -19.251649237525474, -3.73633897852938 ], [ -19.86287588039956, -1.86007466907611 ], [ -20.467474410392857, -0.000000003248273 ], [ -19.862875881178876, 1.860074669250742 ] ] ] } },
{ "type": "Feature", "properties": { "global_id": "4" }, "geometry": { "type": "Polygon", "coordinates": [ [ [ 42.362875880545715, 1.860074669045004 ], [ 41.751649237743038, 3.736338978536033 ], [ 41.132705640413164, 5.627704613420109 ], [ 40.504888889707779, 7.533018356489762 ], [ 39.866966875028723, 9.451062488018946 ], [ 39.217621996873547, 11.380555400631863 ], [ 38.555440416129834, 13.32015239964565 ], [ 37.878899955209405, 15.268446645253839 ], [ 37.186356448918175, 17.223970181076066 ], [ 36.476028311070493, 19.185194980531985 ], [ 35.745979045980803, 21.150533928089576 ], [ 34.994097391495707, 23.118341636529845 ], [ 34.218074731606357, 25.086914983740392 ], [ 33.415379361477022, 27.054493232903841 ], [ 32.583227125791488, 29.019257577897253 ], [ 31.718547883014715, 30.979329930777038 ], [ 30.817947174728705, 32.93277073978971 ], [ 29.877662403310854, 34.877575593714553 ], [ 28.89351274788185, 36.811670330712268 ], [ 27.860841986319418, 38.73290432639422 ], [ 26.774453354551238, 40.63904158578417 ], [ 25.62853558634534, 42.527749206739884 ], [ 24.416579373636541, 44.396582718386718 ], [ 23.131283725032961, 46.242967728563862 ], [ 21.764452163667393, 48.064177242771663 ], [ 20.306879522473803, 49.857303950984189 ], [ 18.748231452889215, 51.619226731548636 ], [ 17.076920932203233, 53.346570616870586 ], [ 15.279989413874635, 55.035659543023534 ], [ 13.343005323289358, 56.682461427948276 ], [ 11.249999998982622, 58.28252559017379 ], [ 14.846267944613476, 58.837138333441779 ], [ 18.581502750405594, 59.292247012072117 ], [ 22.43756686093031, 59.64015368937536 ], [ 26.391366815046307, 59.874093755140613 ], [ 30.415427604040232, 59.988559938293903 ], [ 34.478928404340593, 59.979585300190713 ], [ 38.549127895896291, 59.844951248116217 ], [ 42.593027153491647, 59.584293835685109 ], [ 46.579065149267514, 59.19909501450158 ], [ 50.478634417281789, 58.692562055114507 ], [ 54.267245069283248, 58.069413888273246 ], [ 57.92523992435342, 57.335603886051629 ], [ 61.438047925140978, 56.498012647738577 ], [ 64.79603402037533, 55.564141944380737 ], [ 67.994047283571959, 54.541834060774264 ], [ 71.030782832900741, 53.439031939755459 ], [ 73.908063472878439, 52.263587034737824 ], [ 76.630123899683639, 51.023115018805946 ], [ 79.202953128644239, 49.724894994873253 ], [ 81.633725933017672, 48.375805460993512 ], [ 83.930334709700503, 46.982289530330412 ], [ 86.101020008819532, 45.550342227918378 ], [ 88.15409023395064, 44.085513597783205 ], [ 90.097717412184537, 42.592922495436333 ], [ 91.93979509102185, 41.077277084110506 ], [ 93.68784521714025, 39.542899075014603 ], [ 95.348962472637751, 37.993749601422678 ], [ 96.929786452017851, 36.43345528676393 ], [ 98.436493942202915, 34.865333574497328 ], [ 99.874805255638435, 33.292416758551333 ], [ 101.250000001340197, 31.71747440923928 ], [ 101.250000001247884, 29.761639877316945 ], [ 101.25000000115989, 27.78856059932092 ], [ 101.250000001075875, 25.799146761763026 ], [ 101.250000000995513, 23.794362279630729 ], [ 101.250000000918533, 21.775222911724036 ], [ 101.250000000844665, 19.742793972408723 ], [ 101.250000000773667, 17.698187643149641 ], [ 101.250000000705342, 15.6425598927541 ], [ 101.25000000063946, 13.577107020975999 ], [ 101.250000000575852, 11.503061845882852 ], [ 101.250000000514362, 9.421689561036986 ], [ 101.250000000454804, 7.334283293951699 ], [ 101.250000000397065, 5.24215940231503 ], [ 101.250000000340989, 3.146652548995343 ], [ 101.250000000286448, 1.049110600730733 ], [ 101.250000000233356, -1.049110601449787 ], [ 101.250000000181572, -3.146652549711056 ], [ 101.25000000013101, -5.242159403024083 ], [ 101.25000000008157, -7.334283294650821 ], [ 101.250000000033182, -9.421689561722982 ], [ 101.249999999985732, -11.503061846552615 ], [ 101.249999999939163, -13.577107021626544 ], [ 101.24999999989339, -15.642559893382572 ], [ 101.249999999848342, -17.698187643753339 ], [ 101.249999999803947, -19.742793972985112 ], [ 101.249999999760163, -21.775222912270763 ], [ 101.249999999716906, -23.794362280145638 ], [ 101.249999999674117, -25.79914676224416 ], [ 101.249999999631754, -27.788560599766527 ], [ 101.249999999589747, -29.761639877725486 ], [ 101.249999999548024, -31.71747441198902 ], [ 99.077676696502976, -31.094656314840094 ], [ 96.915690374090062, -30.429935377301796 ], [ 94.766210126276391, -29.724143371521802 ], [ 92.631221394498453, -28.978277274728821 ], [ 90.512515789682425, -28.193490936067487 ], [ 88.411684757793481, -27.371085448008365 ], [ 86.330116919853026, -26.512498444255836 ], [ 84.268998817411799, -25.619292547306053 ], [ 82.229318717827866, -24.69314318287713 ], [ 80.211873081148241, -23.735825966774623 ], [ 78.217275261035283, -22.749203853880665 ], [ 76.245966003808107, -21.735214220332161 ], [ 74.298225319185022, -20.695856029907908 ], [ 72.374185320123743, -19.63317721529463 ], [ 70.47384366354035, -18.549262385125786 ], [ 68.597077265074063, -17.446220949117375 ], [ 66.743656006249921, -16.326175736663931 ], [ 64.913256198653798, -15.191252169108544 ], [ 63.105473614906181, -14.043568032605329 ], [ 61.31983593867735, -12.885223886972961 ], [ 59.555814524618405, -11.718294136037333 ], [ 57.81283539322208, -10.544818776476763 ], [ 56.090289414981221, -9.366795834897612 ], [ 54.387541662773877, -8.186174496569693 ], [ 52.70393993138169, -7.004848923749743 ], [ 51.038822438795599, -5.824652756658581 ], [ 49.39152473592366, -4.647354285829062 ], [ 47.761385859976372, -3.474652280617853 ], [ 46.147753772660046, -2.308172455116697 ], [ 44.549990127837766, -1.149464549476765 ], [ 42.967474414964947, -0.000000001762711 ], [ 42.362875880545715, 1.860074669045004 ] ] ] } },
{ "type": "Feature", "properties": { "global_id": "5" }, "geometry": { "type": "Polygon", "coordinates": [ [ [ 99.874805256693392, 33.292416756257509 ], [ 98.436493943334909, 34.865333572244964 ], [ 96.929786453231401, 36.433455284553858 ], [ 95.348962473937917, 37.993749599255771 ], [ 93.687845218532686, 39.542899072891828 ], [ 91.939795092512867, 41.077277082032964 ], [ 90.097717413781098, 42.592922493405283 ], [ 88.154090235660391, 44.085513595800109 ], [ 86.101020010650814, 45.550342225984956 ], [ 83.930334711662326, 46.982289528448696 ], [ 81.633725935119585, 48.375805459165882 ], [ 79.202953130896304, 49.724894993102517 ], [ 76.63012390209613, 51.023115017095371 ], [ 73.908063475461603, 52.263587033091191 ], [ 71.03078283566434, 53.439031938177067 ], [ 67.994047286524832, 54.541834059268943 ], [ 64.796034023524683, 55.564141942953832 ], [ 61.438047928491656, 56.498012646395843 ], [ 57.925239927907128, 57.335603884799134 ], [ 54.267245073037763, 58.069413887117172 ], [ 50.478634421230325, 58.692562054060929 ], [ 46.57906515339829, 59.19909501355621 ], [ 42.593027157787851, 59.584293834852986 ], [ 38.549127900336437, 59.844951247401404 ], [ 34.478928408899385, 59.979585299596074 ], [ 30.415427608689743, 59.988559937820895 ], [ 26.391366819757469, 59.874093754789207 ], [ 22.437566865674412, 59.640153689144022 ], [ 18.581502755155686, 59.292247011957926 ], [ 14.846267949345458, 58.837138333440549 ], [ 11.249999999371225, 58.282525589545017 ], [ 11.2499999993633, 60.238360121442874 ], [ 11.249999999351335, 62.211439399415667 ], [ 11.249999999334415, 64.20085323695163 ], [ 11.249999999311303, 66.205637719063375 ], [ 11.249999999280286, 68.224777086950951 ], [ 11.249999999238923, 70.257206026248653 ], [ 11.249999999183622, 72.301812355491677 ], [ 11.249999999108866, 74.357440105872797 ], [ 11.249999999005736, 76.42289297763817 ], [ 11.249999998858817, 78.496938152720304 ], [ 11.249999998638982, 80.578310437556922 ], [ 11.249999998283801, 82.665716704634775 ], [ 11.24999999763094, 84.757840596265837 ], [ 11.249999996085135, 86.853347449581776 ], [ 11.249999988288916, 88.950889397844506 ], [ -168.749999988255325, 88.950889399974969 ], [ -168.749999996051542, 86.853347451711826 ], [ -168.749999997597342, 84.757840598395049 ], [ -168.749999998250217, 82.665716706762709 ], [ -168.749999998605404, 80.578310439683108 ], [ -168.749999998825245, 78.49693815484423 ], [ -168.749999998972157, 76.422892979759297 ], [ -168.749999999075271, 74.357440107990527 ], [ -168.749999999150049, 72.301812357605343 ], [ -168.749999999205329, 70.257206028357515 ], [ -168.749999999246711, 68.224777089054257 ], [ -168.749999999277719, 66.205637721160258 ], [ -168.749999999300826, 64.20085323904118 ], [ -168.749999999317765, 62.211439401496882 ], [ -168.749999999329731, 60.238360123514695 ], [ -168.750000001911616, 58.282525585061954 ], [ -170.843005323407453, 56.682461424727208 ], [ -172.779989413869004, 55.035659539772027 ], [ -174.57692093209667, 53.346570613592192 ], [ -176.248231452701134, 51.619226728246652 ], [ -177.806879522220669, 49.857303947661769 ], [ -179.264452163363245, 48.064177239431871 ], [ 179.368716275310334, 46.242967725209724 ], [ 178.083420626735744, 44.396582715021253 ], [ 176.871464414047296, 42.527749203366156 ], [ 175.725546645854365, 40.639041582405277 ], [ 174.6391580140928, 38.732904323013322 ], [ 173.606487252531537, 36.811670327332571 ], [ 172.622337597099005, 34.877575590339312 ], [ 171.682052825673537, 32.932770736422214 ], [ 170.781452117376375, 30.979329927420601 ], [ 169.916772874585291, 29.019257574555201 ], [ 169.08462063888274, 27.054493229579485 ], [ 168.281925268733943, 25.086914980437015 ], [ 167.505902608822936, 23.118341633250679 ], [ 166.754020954314257, 21.150533924837784 ], [ 166.023971689199215, 19.18519497731064 ], [ 165.31364355132456, 17.223970177888134 ], [ 164.621100045004852, 15.268446642102159 ], [ 163.944559584054559, 13.320152396532917 ], [ 163.282378003279717, 11.380555397560615 ], [ 162.63303312509214, 9.451062484991553 ], [ 161.995111110379526, 7.533018353508411 ], [ 161.36729435963943, 5.6277046104868 ], [ 160.748350762273731, 3.736338975652571 ], [ 160.137124119434134, 1.860074666212998 ], [ 159.532525588740668, -0.000000001863523 ], [ 157.950009875894835, 1.149464545868379 ], [ 156.352246231101219, 2.30817245152764 ], [ 154.738614143815369, 3.474652277049611 ], [ 153.108475267900474, 4.647354282283137 ], [ 151.461177565062968, 5.824652753136496 ], [ 149.796060072513455, 7.004848920253036 ], [ 148.11245834116005, 8.186174493099921 ], [ 146.409710588993846, 9.366795831456347 ], [ 144.687164610796486, 10.544818773065598 ], [ 142.944185479446134, 11.718294132657887 ], [ 141.180164065435662, 12.885223883626869 ], [ 139.394526389257862, 14.04356802929426 ], [ 137.586743805563827, 15.191252165834195 ], [ 135.756343998023823, 16.326175733428023 ], [ 133.902922739258287, 17.446220945921677 ], [ 132.026156340853078, 18.549262381972081 ], [ 130.125814684333136, 19.633177212184755 ], [ 128.20177468533754, 20.695856026843718 ], [ 126.254034000782198, 21.735214217315541 ], [ 124.282724743624684, 22.749203850913521 ], [ 122.288126923583036, 23.735825963858876 ], [ 120.270681286976114, 24.693143180014705 ], [ 118.231001187465992, 25.619292544498865 ], [ 116.169883085099329, 26.512498441505777 ], [ 114.088315247233808, 27.371085445317281 ], [ 111.987484215419769, 28.193490933437154 ], [ 109.868778610678191, 28.978277272160941 ], [ 107.733789878973752, 29.724143369017959 ], [ 105.584309631232202, 30.429935374863447 ], [ 103.422323308889517, 31.094656312468533 ], [ 101.250000005912298, 31.717474409685366 ], [ 99.874805256693392, 33.292416756257509 ] ] ] } },
{ "type": "Feature", "properties": { "global_id": "6" }, "geometry": { "type": "Polygon", "coordinates": [ [ [ -135.450009874076869, 1.149464548086776 ], [ -133.852246229245708, 2.308172453736442 ], [ -132.238614141922284, 3.47465227924827 ], [ -130.608475265969759, 4.647354284471022 ], [ -128.961177563094566, 5.824652755312888 ], [ -127.296060070507366, 7.004848922417142 ], [ -125.612458339116301, 8.186174495250874 ], [ -123.909710586912411, 9.366795833593219 ], [ -122.187164608677463, 10.544818775187403 ], [ -120.444185477289594, 11.718294134763591 ], [ -118.680164063241705, 12.8852238857154 ], [ -116.894526387026659, 14.043568031364519 ], [ -115.08674380329559, 15.191252167885066 ], [ -113.256343995718822, 16.326175735458389 ], [ -111.402922736916878, 17.446220947930421 ], [ -109.526156338475658, 18.549262383958116 ], [ -107.625814681920176, 19.633177214147015 ], [ -105.701774682889635, 20.695856028781197 ], [ -103.754033998300017, 21.735214219227284 ], [ -101.782724741108993, 22.749203852798658 ], [ -99.788126921034731, 23.735825965716614 ], [ -97.770681284396204, 24.693143181844359 ], [ -95.7310011848556, 25.61929254629986 ], [ -93.669883082459677, 26.512498443277664 ], [ -91.588315244566274, 27.371085447059752 ], [ -89.487484212725846, 28.193490935150049 ], [ -87.368778607959456, 28.978277273844256 ], [ -85.233789876231938, 29.72414337067185 ], [ -83.084309628469114, 30.429935376488249 ], [ -80.92232330610706, 31.094656314064753 ], [ -78.750000000451976, 31.717474411989013 ], [ -78.750000000410267, 29.761639880091156 ], [ -78.75000000036826, 27.788560602118359 ], [ -78.750000000325898, 25.799146764582392 ], [ -78.750000000283109, 23.794362282470654 ], [ -78.750000000239851, 21.775222914583082 ], [ -78.750000000196067, 19.74279397528538 ], [ -78.750000000151672, 17.698187646042346 ], [ -78.750000000106624, 15.642559895661226 ], [ -78.750000000060851, 13.577107023895865 ], [ -78.750000000014282, 11.503061848813728 ], [ -78.749999999966832, 9.421689563977106 ], [ -78.74999999991843, 7.334283296899254 ], [ -78.749999999869004, 5.242159405268189 ], [ -78.749999999818442, 3.146652551952249 ], [ -78.749999999766658, 1.049110603689516 ], [ -78.749999999713552, -1.049110598491004 ], [ -78.749999999659025, -3.14665254675415 ], [ -78.749999999602949, -5.242159400070925 ], [ -78.749999999545196, -7.334283291703266 ], [ -78.749999999485652, -9.421689558782864 ], [ -78.749999999424148, -11.50306184362174 ], [ -78.74999999936054, -13.577107018706679 ], [ -78.749999999294658, -15.642559890475447 ], [ -78.749999999226333, -17.698187640860631 ], [ -78.749999999155335, -19.742793970108451 ], [ -78.749999999081467, -21.77522290941172 ], [ -78.749999999004487, -23.794362277305712 ], [ -78.749999998924125, -25.799146759424794 ], [ -78.74999999884011, -27.788560596969091 ], [ -78.749999998752116, -29.761639874951275 ], [ -78.750000000250594, -31.717474413404016 ], [ -80.125194742668654, -33.292416756655555 ], [ -81.563506056050386, -34.865333572632615 ], [ -83.070213546175992, -36.433455284932059 ], [ -84.651037525490466, -37.993749599625531 ], [ -86.312154780915549, -39.542899073254205 ], [ -88.060204906954169, -41.077277082389053 ], [ -89.902282585703688, -42.592922493756269 ], [ -91.845909763841192, -44.085513596147223 ], [ -93.898979988866699, -45.550342226329512 ], [ -96.069665287870436, -46.982289528792087 ], [ -98.366274064427898, -48.375805459509571 ], [ -100.79704686866566, -49.724894993448054 ], [ -103.369876097480372, -51.023115017444368 ], [ -106.091936524129949, -52.263587033445326 ], [ -108.969217163943227, -53.439031938538065 ], [ -112.005952713100328, -54.541834059638575 ], [ -115.203965976120301, -55.564141943333851 ], [ -118.561952071176137, -56.498012646787991 ], [ -122.074760071787196, -57.335603885205067 ], [ -125.732754926687591, -58.069413887538431 ], [ -129.521365578531203, -58.692562054498893 ], [ -133.420934846405061, -59.199095014012045 ], [ -137.406972842063226, -59.584293835327607 ], [ -141.450872099568272, -59.844951247895466 ], [ -145.521071591064526, -59.979585300109946 ], [ -149.584572391338327, -59.988559938354705 ], [ -153.608633180338842, -59.874093755342834 ], [ -157.562433134493148, -59.640153689717167 ], [ -161.418497245085064, -59.292247012550142 ], [ -165.153732050969296, -58.837138334051332 ], [ -168.750000001017384, -58.28252559017379 ], [ -166.656994679133618, -56.682461429904073 ], [ -164.72001058833834, -55.035659545004151 ], [ -162.923079069824269, -53.346570618871183 ], [ -161.251768548974525, -51.619226733565235 ], [ -159.69312047924538, -49.85730395301357 ], [ -158.235547837924173, -48.064177244811262 ], [ -156.868716276445866, -46.242967730611682 ], [ -155.583420627742697, -44.396582720441252 ], [ -154.371464414945905, -42.527749208800067 ], [ -153.225546646662195, -40.639041587849313 ], [ -152.139158014825284, -38.732904328463938 ], [ -151.106487253202147, -36.81167033278647 ], [ -150.122337597719536, -34.877575595793374 ], [ -149.182052826254449, -32.932770741873476 ], [ -148.281452117926875, -30.979329932866229 ], [ -147.416772875113622, -29.01925757999248 ], [ -146.584620639396206, -27.054493235005793 ], [ -145.78192526923911, -25.086914985849834 ], [ -145.005902609325744, -23.118341638647564 ], [ -144.254020954820021, -21.150533930216373 ], [ -143.523971689712823, -19.185194982668648 ], [ -142.813643551850504, -17.223970183223347 ], [ -142.121100045547223, -15.26844664741243 ], [ -141.444559584617167, -13.320152401816181 ], [ -140.782378003866086, -11.380555402814871 ], [ -140.133033125705623, -9.451062490214875 ], [ -139.495111111023277, -7.533018358698945 ], [ -138.867294360316407, -5.627704615642764 ], [ -138.248350762986831, -3.736338980772256 ], [ -137.637124120186087, -1.860074671294769 ], [ -137.032525590269501, -0.000000005441887 ], [ -135.450009874076869, 1.149464548086776 ] ] ] } },
{ "type": "Feature", "properties": { "global_id": "7" }, "geometry": { "type": "Polygon", "coordinates": [ [ [ -76.57767669372052, -31.094656313243888 ], [ -74.415690371326974, -30.429935375677008 ], [ -72.266210123534577, -29.724143369867924 ], [ -70.131221391779718, -28.978277273045524 ], [ -68.012515786988487, -28.193490934354603 ], [ -65.911684755125947, -27.371085446265905 ], [ -63.830116917213374, -26.512498442483956 ], [ -61.768998814801392, -25.619292545505065 ], [ -59.729318715247956, -24.693143181047482 ], [ -57.711873078599943, -23.735825964916891 ], [ -55.717275258519592, -22.749203851995535 ], [ -53.745966001325925, -21.73521421842042 ], [ -51.79822531673711, -20.695856027970436 ], [ -49.874185317710783, -19.63317721333237 ], [ -47.973843661162917, -18.549262383139755 ], [ -46.097077262732654, -17.446220947108632 ], [ -44.243656003944928, -16.326175734633566 ], [ -42.413256196385568, -15.191252167057673 ], [ -40.605473612674984, -14.043568030535068 ], [ -38.8198359364834, -12.885223884884427 ], [ -37.055814522461851, -11.718294133931627 ], [ -35.312835391103057, -10.544818774354955 ], [ -33.590289412899807, -9.366795832760735 ], [ -31.887541660730122, -8.186174494418733 ], [ -30.203939929375618, -7.00484892158563 ], [ -28.538822436827211, -5.82465275448218 ], [ -26.891524733992942, -4.647354283641168 ], [ -25.261385858083287, -3.474652278419183 ], [ -23.647753770804549, -2.308172452907884 ], [ -22.049990126019807, -1.149464547258356 ], [ -20.467474411259328, 0.000000001863518 ], [ -19.862875881297679, -1.860074663963241 ], [ -19.251649238456146, -3.736338973416355 ], [ -18.632705641090165, -5.627704608264153 ], [ -18.004888890351531, -7.533018351299236 ], [ -17.366966875642216, -9.451062482795633 ], [ -16.717621997459929, -11.380555395377614 ], [ -16.055440416692434, -13.320152394362394 ], [ -15.378899955751768, -15.268446639943575 ], [ -14.686356449444109, -17.223970175740863 ], [ -13.976028311584113, -19.185194975173985 ], [ -13.245979046486569, -21.150533922710995 ], [ -12.494097391998496, -23.118341631132967 ], [ -11.718074732111523, -25.086914978327584 ], [ -10.91537936199048, -27.054493227477536 ], [ -10.083227126319811, -29.019257572459985 ], [ -9.21854788356522, -30.979329925331417 ], [ -8.3179471753096, -32.932770734338455 ], [ -7.377662403931379, -34.877575588260498 ], [ -6.393512748552436, -36.811670325258369 ], [ -5.3608419870519, -38.732904320943604 ], [ -4.274453355359086, -40.639041580340148 ], [ -3.128535587243935, -42.527749201305973 ], [ -1.9165793746435, -44.396582712966726 ], [ -0.631283726168504, -46.242967723161911 ], [ 0.735547835045213, -48.064177237392279 ], [ 2.193120476060139, -49.857303945632395 ], [ 3.751768545435133, -51.61922672623006 ], [ 5.423079065875839, -53.346570611591602 ], [ 7.220010583918024, -55.03565953779141 ], [ 9.156994674169567, -56.682461422771418 ], [ 11.25000000066234, -58.282525589226687 ], [ 11.250000000670266, -60.238360121149029 ], [ 11.250000000682231, -62.21143939914505 ], [ 11.250000000699151, -64.20085323670294 ], [ 11.250000000722263, -66.205637718835249 ], [ 11.250000000753282, -68.224777086741938 ], [ 11.250000000794644, -70.257206026057247 ], [ 11.250000000849948, -72.301812355316329 ], [ 11.250000000924704, -74.357440105711873 ], [ 11.250000001027836, -76.422892977489965 ], [ 11.250000001174756, -78.496938152583112 ], [ 11.250000001394593, -80.578310437428982 ], [ 11.250000001749777, -82.665716704514267 ], [ 11.250000002402643, -84.757840596150942 ], [ 11.250000003948461, -86.853347449470633 ], [ 11.25000001174474, -88.950889397735239 ], [ -168.750000011711194, -88.950889400084236 ], [ -168.75000000391492, -86.85334745182297 ], [ -168.750000002369092, -84.757840598509944 ], [ -168.750000001716217, -82.665716706883202 ], [ -168.750000001361059, -80.578310439811048 ], [ -168.750000001141217, -78.496938154981407 ], [ -168.750000000994277, -76.422892979907488 ], [ -168.750000000891163, -74.357440108151451 ], [ -168.750000000816414, -72.30181235778069 ], [ -168.750000000761105, -70.257206028548921 ], [ -168.750000000719751, -68.22477708926327 ], [ -168.750000000688715, -66.205637721388385 ], [ -168.750000000665608, -64.20085323928987 ], [ -168.750000000648697, -62.2114394017675 ], [ -168.750000000636732, -60.23836012380854 ], [ -168.750000000628773, -58.28252558954501 ], [ -165.153732055071799, -58.83713833283101 ], [ -161.418497249353692, -59.292247011479915 ], [ -157.562433138902151, -59.640153688802229 ], [ -153.60863318485741, -59.874093754587001 ], [ -149.584572395931701, -59.988559937760108 ], [ -145.521071595695503, -59.979585299676849 ], [ -141.450872104199021, -59.84495124762217 ], [ -137.406972846657283, -59.584293835210502 ], [ -133.420934850929171, -59.19909501404576 ], [ -129.52136558295669, -58.69256205467655 ], [ -125.732754930991405, -58.069413887851994 ], [ -122.07476007595227, -57.335603885645703 ], [ -118.561952075191257, -56.498012647346428 ], [ -115.203965979979699, -55.564141944000717 ], [ -112.005952716802909, -54.541834060404632 ], [ -108.969217167491706, -53.439031939394461 ], [ -106.091936527530024, -52.263587034383697 ], [ -103.369876100739859, -51.023115018456956 ], [ -100.797046871793825, -49.724894994527716 ], [ -98.366274067434858, -48.375805460649815 ], [ -96.06966529076675, -46.982289529987021 ], [ -93.898979991662969, -45.550342227573815 ], [ -91.845909766547805, -44.085513597436083 ], [ -89.902282588330706, -42.592922495085347 ], [ -88.060204909511143, -41.07727708375441 ], [ -86.312154783411529, -39.542899074652226 ], [ -84.651037527933894, -37.993749601052912 ], [ -83.07021354857477, -36.433455286385723 ], [ -81.563506058411818, -34.86533357410967 ], [ -80.125194744999547, -33.29241675815328 ], [ -78.750000002557229, -31.717474414919813 ], [ -76.57767669372052, -31.094656313243888 ] ] ] } },
{ "type": "Feature", "properties": { "global_id": "8" }, "geometry": { "type": "Polygon", "coordinates": [ [ [ 13.343005323407453, -56.682461424727215 ], [ 15.279989413869, -55.035659539772027 ], [ 17.076920932096673, -53.346570613592199 ], [ 18.74823145270113, -51.619226728246659 ], [ 20.306879522220679, -49.857303947661777 ], [ 21.764452163363238, -48.064177239431878 ], [ 23.131283724689681, -46.242967725209724 ], [ 24.416579373264266, -44.39658271502126 ], [ 25.628535585952712, -42.527749203366156 ], [ 26.774453354145649, -40.639041582405284 ], [ 27.8608419859072, -38.732904323013322 ], [ 28.893512747468456, -36.811670327332571 ], [ 29.877662402900992, -34.877575590339319 ], [ 30.817947174326452, -32.932770736422221 ], [ 31.718547882623636, -30.979329927420608 ], [ 32.583227125414702, -29.019257574555208 ], [ 33.41537936111726, -27.054493229579489 ], [ 34.218074731266064, -25.086914980437022 ], [ 34.994097391177057, -23.118341633250683 ], [ 35.745979045685743, -21.150533924837791 ], [ 36.476028310800793, -19.185194977310648 ], [ 37.186356448675447, -17.223970177888141 ], [ 37.878899954995148, -15.268446642102164 ], [ 38.555440415945434, -13.320152396532922 ], [ 39.217621996720304, -11.38055539756062 ], [ 39.866966874907867, -9.451062484991558 ], [ 40.504888889620489, -7.533018353508417 ], [ 41.132705640360584, -5.627704610486806 ], [ 41.751649237726284, -3.736338975652577 ], [ 42.362875880565866, -1.860074666213004 ], [ 42.967474411259325, 0.000000001863518 ], [ 44.549990124105157, -1.149464545868385 ], [ 46.147753768898781, -2.308172451527646 ], [ 47.761385856184631, -3.474652277049616 ], [ 49.391524732099526, -4.647354282283144 ], [ 51.038822434937032, -5.824652753136502 ], [ 52.703939927486559, -7.004848920253042 ], [ 54.387541658839943, -8.186174493099927 ], [ 56.090289411006175, -9.366795831456352 ], [ 57.812835389203521, -10.544818773065606 ], [ 59.555814520553866, -11.718294132657892 ], [ 61.319835934564338, -12.885223883626876 ], [ 63.105473610742145, -14.043568029294265 ], [ 64.913256194436187, -15.191252165834202 ], [ 66.743656001976191, -16.32617573342803 ], [ 68.597077260741713, -17.446220945921681 ], [ 70.473843659146922, -18.549262381972088 ], [ 72.374185315666878, -19.633177212184759 ], [ 74.298225314662474, -20.695856026843721 ], [ 76.245965999217802, -21.735214217315544 ], [ 78.217275256375316, -22.749203850913528 ], [ 80.211873076416978, -23.735825963858883 ], [ 82.229318713023886, -24.693143180014712 ], [ 84.268998812534008, -25.619292544498872 ], [ 86.330116914900685, -26.51249844150578 ], [ 88.411684752766206, -27.371085445317284 ], [ 90.512515784580231, -28.193490933437158 ], [ 92.631221389321823, -28.978277272160948 ], [ 94.766210121026248, -29.724143369017966 ], [ 96.915690368767812, -30.429935374863451 ], [ 99.077676691110483, -31.094656312468537 ], [ 101.250000000912934, -31.717474412994665 ], [ 102.625194743306622, -33.292416756257509 ], [ 104.063506056665091, -34.865333572244964 ], [ 105.570213546768599, -36.433455284553858 ], [ 107.151037526062083, -37.993749599255771 ], [ 108.812154781467314, -39.542899072891828 ], [ 110.560204907487133, -41.077277082032964 ], [ 112.402282586218917, -42.592922493405283 ], [ 114.345909764339623, -44.085513595800109 ], [ 116.398979989349186, -45.550342225984956 ], [ 118.569665288337688, -46.982289528448696 ], [ 120.866274064880415, -48.375805459165882 ], [ 123.29704686910371, -49.724894993102517 ], [ 125.86987609790387, -51.023115017095371 ], [ 128.591936524538397, -52.263587033091191 ], [ 131.469217164335674, -53.439031938177067 ], [ 134.505952713475182, -54.541834059268943 ], [ 137.703965976475331, -55.564141942953832 ], [ 141.061952071508358, -56.498012646395843 ], [ 144.574760072092886, -57.335603884799134 ], [ 148.23275492696223, -58.069413887117172 ], [ 152.021365578769689, -58.692562054060929 ], [ 155.92093484660171, -59.19909501355621 ], [ 159.906972842212156, -59.584293834852978 ], [ 163.95087209966357, -59.844951247401397 ], [ 168.021071591100622, -59.979585299596067 ], [ 172.084572391310274, -59.988559937820895 ], [ 176.108633180242549, -59.874093754789207 ], [ -179.937566865674398, -59.640153689144022 ], [ -176.081502755155668, -59.292247011957919 ], [ -172.346267949345446, -58.837138333440549 ], [ -168.749999999371227, -58.28252558954501 ], [ -168.749999999363297, -60.238360121442867 ], [ -168.749999999351331, -62.211439399415667 ], [ -168.74999999933442, -64.20085323695163 ], [ -168.749999999311285, -66.205637719063375 ], [ -168.749999999280277, -68.224777086950937 ], [ -168.749999999238923, -70.257206026248639 ], [ -168.749999999183615, -72.301812355491677 ], [ -168.749999999108866, -74.357440105872797 ], [ -168.749999999005723, -76.422892977638156 ], [ -168.749999998858812, -78.49693815272029 ], [ -168.74999999863897, -80.578310437556922 ], [ -168.749999998283783, -82.665716704634775 ], [ -168.749999997630908, -84.757840596265837 ], [ -168.749999996085108, -86.853347449581776 ], [ -168.749999988288835, -88.950889397844506 ], [ 11.249999988255244, -88.950889399974969 ], [ 11.249999996051523, -86.853347451711826 ], [ 11.249999997597341, -84.757840598395049 ], [ 11.249999998250207, -82.665716706762709 ], [ 11.249999998605389, -80.578310439683108 ], [ 11.249999998825228, -78.49693815484423 ], [ 11.249999998972148, -76.422892979759297 ], [ 11.24999999907528, -74.357440107990527 ], [ 11.249999999150036, -72.301812357605343 ], [ 11.249999999205338, -70.25720602835753 ], [ 11.2499999992467, -68.224777089054257 ], [ 11.249999999277719, -66.205637721160258 ], [ 11.249999999300831, -64.20085323904118 ], [ 11.249999999317751, -62.211439401496882 ], [ 11.249999999329717, -60.238360123514703 ], [ 11.249999999337641, -58.282525591606309 ], [ 13.343005323407453, -56.682461424727215 ] ] ] } },
{ "type": "Feature", "properties": { "global_id": "9" }, "geometry": { "type": "Polygon", "coordinates": [ [ [ 101.249999998752131, -29.761639877316949 ], [ 101.24999999884011, -27.788560599320927 ], [ 101.249999998924139, -25.79914676176303 ], [ 101.249999999004487, -23.794362279630732 ], [ 101.249999999081467, -21.77522291172404 ], [ 101.249999999155335, -19.742793972408727 ], [ 101.249999999226333, -17.698187643149645 ], [ 101.249999999294673, -15.642559892754104 ], [ 101.24999999936054, -13.577107020976003 ], [ 101.249999999424148, -11.503061845882856 ], [ 101.249999999485652, -9.421689561036992 ], [ 101.249999999545196, -7.334283293951703 ], [ 101.249999999602949, -5.242159402315035 ], [ 101.249999999659025, -3.146652548995348 ], [ 101.249999999713552, -1.049110600730737 ], [ 101.249999999766658, 1.049110601449783 ], [ 101.249999999818442, 3.146652549711051 ], [ 101.24999999986899, 5.242159403024078 ], [ 101.24999999991843, 7.334283294650817 ], [ 101.249999999966832, 9.421689561722978 ], [ 101.250000000014282, 11.503061846552612 ], [ 101.250000000060851, 13.577107021626539 ], [ 101.250000000106624, 15.642559893382566 ], [ 101.250000000151672, 17.698187643753332 ], [ 101.250000000196053, 19.742793972985108 ], [ 101.250000000239851, 21.77522291227076 ], [ 101.250000000283109, 23.794362280145634 ], [ 101.250000000325883, 25.799146762244156 ], [ 101.25000000036826, 27.788560599766523 ], [ 101.250000000410267, 29.761639877725482 ], [ 101.250000000451976, 31.717474411989013 ], [ 103.422323303497024, 31.094656314840091 ], [ 105.584309625909938, 30.429935377301792 ], [ 107.733789873723609, 29.724143371521798 ], [ 109.868778605501561, 28.978277274728818 ], [ 111.987484210317589, 28.19349093606748 ], [ 114.088315242206519, 27.371085448008362 ], [ 116.169883080146988, 26.512498444255829 ], [ 118.231001182588216, 25.619292547306046 ], [ 120.270681282172134, 24.693143182877122 ], [ 122.288126918851759, 23.73582596677462 ], [ 124.282724738964731, 22.749203853880662 ], [ 126.254033996191893, 21.735214220332157 ], [ 128.201774680814992, 20.695856029907905 ], [ 130.125814679876271, 19.633177215294626 ], [ 132.02615633645965, 18.549262385125779 ], [ 133.902922734925937, 17.446220949117372 ], [ 135.756343993750079, 16.326175736663924 ], [ 137.586743801346216, 15.191252169108541 ], [ 139.394526385093826, 14.043568032605323 ], [ 141.180164061322643, 12.885223886972955 ], [ 142.944185475381602, 11.718294136037329 ], [ 144.687164606777912, 10.54481877647676 ], [ 146.409710585018786, 9.366795834897609 ], [ 148.112458337226116, 8.18617449656969 ], [ 149.796060068618317, 7.004848923749739 ], [ 151.461177561204408, 5.824652756658577 ], [ 153.108475264076333, 4.647354285829058 ], [ 154.738614140023628, 3.474652280617849 ], [ 156.352246227339947, 2.308172455116693 ], [ 157.950009872162241, 1.149464549476762 ], [ 159.532525589534146, -0.000000003178736 ], [ 160.137124119454285, -1.860074669045006 ], [ 160.748350762256962, -3.736338978536035 ], [ 161.36729435958685, -5.627704613420112 ], [ 161.995111110292243, -7.533018356489765 ], [ 162.633033124971291, -9.451062488018948 ], [ 163.282378003126468, -11.380555400631865 ], [ 163.944559583870159, -13.320152399645652 ], [ 164.621100044790609, -15.268446645253841 ], [ 165.313643551081839, -17.223970181076069 ], [ 166.023971688929521, -19.185194980531985 ], [ 166.754020954019211, -21.150533928089576 ], [ 167.5059026085043, -23.118341636529845 ], [ 168.28192526839365, -25.086914983740396 ], [ 169.084620638522978, -27.054493232903841 ], [ 169.916772874208505, -29.019257577897257 ], [ 170.781452116985292, -30.979329930777038 ], [ 171.682052825271313, -32.93277073978971 ], [ 172.622337596689164, -34.877575593714553 ], [ 173.606487252118143, -36.811670330712268 ], [ 174.6391580136806, -38.73290432639422 ], [ 175.725546645448759, -40.63904158578417 ], [ 176.871464413654678, -42.527749206739884 ], [ 178.083420626363477, -44.396582718386718 ], [ 179.368716274967056, -46.242967728563869 ], [ -179.264452163667386, -48.064177242771663 ], [ -177.806879522473793, -49.857303950984189 ], [ -176.2482314528892, -51.619226731548636 ], [ -174.576920932203222, -53.346570616870594 ], [ -172.779989413874631, -55.035659543023534 ], [ -170.843005323289361, -56.682461427948276 ], [ -168.749999998982616, -58.28252559017379 ], [ -172.346267944613459, -58.837138333441779 ], [ -176.081502750405576, -59.292247012072124 ], [ -179.937566860930303, -59.64015368937536 ], [ 176.108633184953703, -59.874093755140613 ], [ 172.084572395959782, -59.988559938293903 ], [ 168.021071595659407, -59.979585300190713 ], [ 163.950872104103723, -59.844951248116217 ], [ 159.906972846508353, -59.584293835685116 ], [ 155.920934850732493, -59.199095014501587 ], [ 152.021365582718232, -58.692562055114507 ], [ 148.232754930716766, -58.069413888273253 ], [ 144.574760075646594, -57.335603886051636 ], [ 141.061952074859022, -56.498012647738577 ], [ 137.703965979624684, -55.564141944380737 ], [ 134.505952716428055, -54.541834060774264 ], [ 131.469217167099259, -53.439031939755459 ], [ 128.591936527121561, -52.263587034737832 ], [ 125.869876100316361, -51.023115018805946 ], [ 123.297046871355775, -49.724894994873253 ], [ 120.866274066982342, -48.375805460993512 ], [ 118.569665290299497, -46.982289530330419 ], [ 116.398979991180468, -45.550342227918378 ], [ 114.345909766049374, -44.085513597783205 ], [ 112.402282587815463, -42.592922495436341 ], [ 110.56020490897815, -41.077277084110513 ], [ 108.81215478285975, -39.54289907501461 ], [ 107.151037527362249, -37.993749601422685 ], [ 105.570213547982149, -36.433455286763937 ], [ 104.063506057797099, -34.865333574497328 ], [ 102.625194744361579, -33.292416758551333 ], [ 101.250000001894861, -31.717474415329175 ], [ 101.249999998752131, -29.761639877316949 ] ] ] } },
{ "type": "Feature", "properties": { "global_id": "10" }, "geometry": { "type": "Polygon", "coordinates": [ [ [ 160.137124118868655, 1.860074666826335 ], [ 160.748350761744689, 3.736338976293147 ], [ 161.36729435914458, 5.627704611153816 ], [ 161.99511110991665, 7.533018354200853 ], [ 162.633033124658994, 9.451062485708201 ], [ 163.282378002874054, 11.38055539830005 ], [ 163.944559583674163, 13.320152397293537 ], [ 164.621100044647392, 15.268446642882191 ], [ 165.313643550987734, 17.223970178685654 ], [ 166.023971688880636, 19.185194978123587 ], [ 166.754020954011537, 21.150533925663993 ], [ 167.505902608533546, 23.118341634087898 ], [ 168.281925268455296, 25.086914981282938 ], [ 169.084620638612137, 27.05449323043177 ], [ 169.916772874319918, 29.019257575411515 ], [ 170.781452117113218, 30.979329928278641 ], [ 171.682052825409528, 32.932770737279746 ], [ 172.622337596830789, 34.877575591194208 ], [ 173.606487252255619, 36.811670328182849 ], [ 174.6391580138054, 38.732904323857163 ], [ 175.725546645551447, 40.639041583241088 ], [ 176.871464413724595, 42.527749204192581 ], [ 178.083420626388602, 44.396582715837248 ], [ 179.368716274933831, 46.24296772601457 ], [ -179.264452163774394, 48.06417724022522 ], [ -177.806879522672176, 49.857303948443693 ], [ -176.248231453198997, 51.61922672901769 ], [ -174.576920932647226, 53.346570614353368 ], [ -172.779989414478905, 55.035659540524939 ], [ -170.843005324083464, 56.682461425474038 ], [ -168.75, 58.282525587730646 ], [ -166.656994678339544, 56.682461427429828 ], [ -164.720010587734095, 55.035659542505542 ], [ -162.923079069380265, 53.346570616353958 ], [ -161.251768548664757, 51.619226731034281 ], [ -159.693120479047025, 49.857303950473074 ], [ -158.235547837817165, 48.064177242264812 ], [ -156.86871627641267, 46.242967728062375 ], [ -155.58342062776785, 44.396582717891782 ], [ -154.371464415015822, 42.527749206252764 ], [ -153.225546646764883, 40.639041585306224 ], [ -152.139158014950084, 38.732904325926874 ], [ -151.106487253339594, 36.811670330257044 ], [ -150.12233759786119, 34.877575593273029 ], [ -149.182052826392663, 32.932770739363512 ], [ -148.281452118054801, 30.979329930367832 ], [ -147.416772875225007, 29.019257577506739 ], [ -146.584620639485337, 27.054493232533723 ], [ -145.781925269300729, 25.086914983392379 ], [ -145.00590260935499, 23.118341636205617 ], [ -144.254020954812347, 21.150533927790793 ], [ -143.523971689663966, 19.185194980260253 ], [ -142.813643551756371, 17.223970180832932 ], [ -142.121100045404006, 15.268446645040784 ], [ -141.444559584421143, 13.320152399464067 ], [ -140.782378003613672, 11.380555400483059 ], [ -140.133033125393325, 9.45106248790413 ], [ -139.495111110647656, 7.533018356410038 ], [ -138.867294359874137, 5.627704613376473 ], [ -138.24835076247453, 3.736338978529374 ], [ -137.637124119600429, 1.860074669076104 ], [ -137.032525588871806, -0.000000003393945 ], [ -137.637124118821134, -1.860074669250745 ], [ -138.248350761650812, -3.736338978733028 ], [ -138.867294359005541, -5.62770461360908 ], [ -139.495111109733642, -7.533018356671429 ], [ -140.133033124433211, -9.451062488194031 ], [ -140.782378002606748, -11.380555400801091 ], [ -141.444559583366583, -13.320152399809759 ], [ -142.121100044300931, -15.268446645413576 ], [ -142.813643550603757, -17.223970181232193 ], [ -143.523971688460733, -19.185194980685289 ], [ -144.254020953557273, -21.150533928240861 ], [ -145.005902608046796, -23.118341636679954 ], [ -145.781925267937964, -25.0869149838902 ], [ -146.584620638066497, -27.054493233054252 ], [ -147.416772873748414, -29.019257578049238 ], [ -148.281452116518722, -30.979329930931609 ], [ -149.182052824795193, -32.932770739947955 ], [ -150.12233759620031, -34.877575593877623 ], [ -151.10648725161326, -36.811670330881398 ], [ -152.139158013156077, -38.73290432657074 ], [ -153.22554664490093, -40.63904158596953 ], [ -154.371464413079593, -42.527749206935631 ], [ -155.583420625757043, -44.396582718594566 ], [ -156.868716274324953, -46.242967728785658 ], [ -158.235547835650408, -48.064177243009425 ], [ -159.693120476799265, -49.857303951240148 ], [ -161.251768546334461, -51.619226731825229 ], [ -162.923079066966409, -53.346570617170492 ], [ -164.720010585236508, -55.035659543349688 ], [ -166.656994675759222, -56.682461428303903 ], [ -168.75, -58.2825255905624 ], [ -170.84300532181777, -56.682461430259693 ], [ -172.779989412550492, -55.035659545330297 ], [ -174.576920931006072, -53.346570619171082 ], [ -176.248231451801786, -51.61922673384182 ], [ -177.806879521481534, -49.857303953269522 ], [ -179.264452162758033, -48.064177245049017 ], [ 179.368716275803791, -46.242967730833463 ], [ 178.083420627136263, -44.396582720649093 ], [ 176.87146441437082, -42.527749208995814 ], [ 175.725546646114367, -40.639041588034665 ], [ 174.63915801430079, -38.732904328640458 ], [ 173.606487252697235, -36.8116703329556 ], [ 172.622337597230711, -34.877575595956444 ], [ 171.682052825778328, -32.932770742031714 ], [ 170.781452117460304, -30.9793299330208 ], [ 169.916772874653532, -29.019257580144462 ], [ 169.084620638939697, -27.054493235156205 ], [ 168.281925268783425, -25.086914985999638 ], [ 167.505902608868212, -23.118341638797673 ], [ 166.754020954358111, -21.150533930367661 ], [ 166.023971689244036, -19.185194982821951 ], [ 165.313643551372422, -17.223970183379475 ], [ 164.621100045057545, -15.268446647572169 ], [ 163.944559584113591, -13.320152401980291 ], [ 163.282378003346366, -11.380555402984102 ], [ 162.633033125167572, -9.451062490389962 ], [ 161.995111110464677, -7.533018358880613 ], [ 161.367294359735126, -5.627704615831737 ], [ 160.748350762380653, -3.736338980969255 ], [ 160.137124119552908, -1.860074671500513 ], [ 159.532525589607133, -0.000000005657102 ], [ 160.137124118868655, 1.860074666826335 ] ] ] } }
]
}
