{
"type": "FeatureCollection",
"name": "fuller4d_0",
"crs": { "type": "name", "properties": { "name": "urn:ogc:def:crs:OGC:1.3:CRS84" } },
"features": [
{ "type": "Feature", "properties": { "global_id": "1" }, "geometry": { "type": "Polygon", "coordinates": [ [ [ -168.749999999962029, 60.328814258746014 ], [ -168.749999999949466, 62.375102930458212 ], [ -168.749999999943185, 64.421391602165585 ], [ -168.749999999935881, 66.467680273872944 ], [ -168.749999999927269, 68.513968945580316 ], [ -168.749999999916952, 70.560257617287675 ], [ -168.749999999904304, 72.606546288995034 ], [ -168.749999999888416, 74.652834960702378 ], [ -168.749999999867754, 76.699123632409723 ], [ -168.74999999983973, 78.745412304117053 ], [ -168.749999999799456, 80.791700975824384 ], [ -168.749999999736389, 82.8379896475317 ], [ -168.749999999623242, 84.884278319239016 ], [ -168.749999999359744, 86.930566990946303 ], [ -168.749999998044018, 88.976855662653591 ], [ 11.249999998010436, 88.976855665639135 ], [ 11.249999999326182, 86.930566993931876 ], [ 11.249999999589667, 84.884278322224631 ], [ 11.249999999702828, 82.8379896505174 ], [ 11.249999999765885, 80.791700978810184 ], [ 11.249999999806166, 78.745412307102981 ], [ 11.249999999834182, 76.699123635395793 ], [ 11.249999999854843, 74.652834963688619 ], [ 11.249999999870743, 72.606546291981459 ], [ 11.249999999883389, 70.560257620274328 ], [ 11.249999999893708, 68.513968948567197 ], [ 11.249999999902311, 66.467680276860079 ], [ 11.249999999909608, 64.421391605152976 ], [ 11.249999999915893, 62.375102933445895 ], [ 11.24999999992845, 60.328814261744974 ], [ 11.249999999932728, 58.282525590037864 ], [ 7.484720930435721, 58.860334657040006 ], [ 3.604387753814208, 59.325134238824297 ], [ -0.369627621687457, 59.671681710662945 ], [ -4.411833700451592, 59.895858733278835 ], [ -8.493529621186504, 59.994900425135356 ], [ -12.58407288996113, 59.967559112032397 ], [ -16.652377545243276, 59.814180852283506 ], [ -20.668466412095214, 59.536684046683419 ], [ -24.604889130778005, 59.138443152834121 ], [ -28.437847074479627, 58.624093490799822 ], [ -32.147927109688261, 57.999282281644497 ], [ -35.720419071086852, 57.270394703513098 ], [ -39.145256687317101, 56.444281964770958 ], [ -42.416664967589838, 55.52801268368934 ], [ -45.532614749924655, 54.528661343762771 ], [ -48.494181168836114, 53.453140184603086 ], [ -51.304885186170011, 52.308074860923639 ], [ -53.9700742230361, 51.099720077973679 ], [ -56.496375460248046, 49.833909139134079 ], [ -58.891236971429166, 48.51603054613399 ], [ -61.162558675004817, 47.151025001289625 ], [ -63.318406836190178, 45.743396941420372 ], [ -65.366801524919595, 44.297235757301429 ], [ -67.315564881990426, 42.816242902137844 ], [ -69.17221824046176, 41.303762047610164 ], [ -70.943917303815454, 39.762810250471318 ], [ -72.637416155903381, 38.196108735094967 ], [ -74.259052532266594, 36.606112389270571 ], [ -75.814748328290435, 34.995037433548006 ], [ -77.310020670372595, 33.364886984530912 ], [ -78.750000000938542, 31.717474411444847 ], [ -81.02208943857147, 31.06497178454665 ], [ -83.262298063474333, 30.373199963449515 ], [ -85.470181663288486, 29.643767364590087 ], [ -87.645530014526415, 28.878298079294947 ], [ -89.788350547738716, 28.078421963571476 ], [ -91.89885088338157, 27.245765862828016 ], [ -93.977420797544113, 26.381945982248883 ], [ -96.024614100054052, 25.488561384057085 ], [ -98.041130826946031, 24.567188569424591 ], [ -100.027800069605632, 23.619377085108983 ], [ -101.985563687603957, 22.646646082514515 ], [ -103.915461083719933, 21.650481749151783 ], [ -105.818615159343594, 20.632335528684752 ], [ -107.696219516990723, 19.593623045175026 ], [ -109.549526934046682, 18.535723649061417 ], [ -111.37983909765461, 17.459980506210119 ], [ -113.188497564133996, 16.367701156478244 ], [ -114.976875886555959, 15.260158474178757 ], [ -116.746372840132949, 14.138591969230644 ], [ -118.498406665928684, 13.004209374318066 ], [ -120.234410248132363, 11.858188469831793 ], [ -121.955827137926519, 10.701679104552708 ], [ -123.664108337063226, 9.535805375839884 ], [ -125.360709756006386, 8.361667938425756 ], [ -127.047090264355148, 7.180346415751664 ], [ -128.724710254789528, 5.992901892076946 ], [ -130.395030645608074, 4.80037946735942 ], [ -132.059512250772826, 3.603810860142591 ], [ -133.719615450010934, 2.404217046410014 ], [ -135.376800094763354, 1.202610924599586 ], [ -137.032525588557036, -0.000000001277786 ], [ -137.66510685062309, 1.9460966490558 ], [ -138.299150391793574, 3.891955715995503 ], [ -138.936131321547691, 5.837337443783799 ], [ -139.577550634529445, 7.781997691441646 ], [ -140.224948720293384, 9.725685637693406 ], [ -140.879919571080563, 11.668141359449248 ], [ -141.544125950701329, 13.609093235607517 ], [ -142.219315813850415, 15.548255122594032 ], [ -142.907340301840549, 17.485323240578658 ], [ -143.610173685954038, 19.419972699914194 ], [ -144.329935687236343, 21.351853585217118 ], [ -145.068916672852083, 23.280586499220622 ], [ -145.829606316744332, 25.205757449346933 ], [ -146.614726420353918, 27.126911935658395 ], [ -147.42726871932291, 29.043548068772658 ], [ -148.270538661955356, 30.955108508022377 ], [ -149.1482063366403, 32.860970962387704 ], [ -150.064365955833097, 34.760436936348981 ], [ -151.023605577773651, 36.652718326683569 ], [ -152.031089068028024, 38.536921380047318 ], [ -153.092652671615269, 40.412027399701572 ], [ -154.214918977941096, 42.276869435977481 ], [ -155.405431494024867, 44.130104001880603 ], [ -156.672813457943448, 45.970176611984115 ], [ -158.026954837560254, 47.795279640567713 ], [ -159.479231517758166, 49.603300623330504 ], [ -161.042760207867673, 51.391758680272133 ], [ -162.732691127059638, 53.157726219464216 ], [ -164.566537254301124, 54.897732517920836 ], [ -166.564532551110176, 56.607645238742236 ], [ -168.749999999973028, 58.282525587054067 ], [ -168.749999999962029, 60.328814258746014 ] ] ] } },
{ "type": "Feature", "properties": { "global_id": "10" }, "geometry": { "type": "MultiPolygon", "coordinates": [ [ [ [ 179.17281345732323, -45.970176614820019 ], [ 177.905431493382224, -44.130104004703419 ], [ 176.714918977285208, -42.27686943878664 ], [ 175.592652670953811, -40.412027402496619 ], [ 174.531089067367503, -38.536921382827892 ], [ 173.523605577118531, -36.652718329447318 ], [ 172.564365955189515, -34.760436939098312 ], [ 171.648206336012294, -32.860970965122426 ], [ 170.770538661346478, -30.955108510742306 ], [ 169.927268718736201, -29.043548071477627 ], [ 169.114726419792078, -27.126911938348236 ], [ 168.329606316209833, -25.205757452021484 ], [ 167.568916672347086, -23.280586501879711 ], [ 166.829935686763889, -21.351853587863285 ], [ 166.110173685515178, -19.419972702545145 ], [ 165.407340301437017, -17.485323243194188 ], [ 164.719315813483831, -15.54825512519391 ], [ 164.044125950373314, -13.609093238191495 ], [ 163.379919570792651, -11.668141362017048 ], [ 162.724948720047109, -9.725685640244723 ], [ 162.077550634328787, -7.781997693983521 ], [ 161.436131321391969, -5.837337446309216 ], [ 160.799150391684407, -3.891955718504077 ], [ 160.165106850562097, -1.946096651547103 ], [ 159.532525588545099, -0.000000001193158 ], [ 160.165106850619708, 1.946096649123787 ], [ 160.799150391798008, 3.891955716066831 ], [ 161.436131321555052, 5.837337443854885 ], [ 162.077550634539733, 7.781997691512409 ], [ 162.724948720281276, 9.725685637768288 ], [ 163.379919571071639, 11.668141359523917 ], [ 164.044125950695587, 13.609093235681886 ], [ 164.719315813847828, 15.548255122668008 ], [ 165.407340301841174, 17.485323240652143 ], [ 166.110173685957932, 19.419972699987074 ], [ 166.829935687243562, 21.351853585289284 ], [ 167.568916672838242, 23.28058649929881 ], [ 168.329606316733987, 25.205757449424553 ], [ 169.114726420347154, 27.126911935735318 ], [ 169.927268719319898, 29.043548068848757 ], [ 170.770538661956266, 30.955108508097513 ], [ 171.64820633664533, 32.860970962461714 ], [ 172.564365955842504, 34.760436936421712 ], [ 173.523605577787748, 36.652718326754837 ], [ 174.531089068020094, 38.536921380127588 ], [ 175.592652671612143, 40.412027399780577 ], [ 176.714918977943171, 42.276869436055016 ], [ 177.905431494032598, 44.130104001956447 ], [ 179.172813457957318, 45.970176612058026 ], [ 179.995, 47.078314337203189 ], [ 179.995, -47.078314340806891 ], [ 179.17281345732323, -45.970176614820019 ] ] ], [ [ [ -179.47304516241914, 47.795279640639414 ], [ -178.020768482213839, 49.603300623399676 ], [ -176.457239792128547, 51.391758680354414 ], [ -174.76730887292851, 53.157726219544244 ], [ -172.933462745678042, 54.897732517998243 ], [ -170.93546744887044, 56.607645238813475 ], [ -168.749999999987921, 58.28252558711683 ], [ -166.564532551123904, 56.607645238808949 ], [ -164.566537254311015, 54.897732517988999 ], [ -162.732691127066118, 53.157726219533558 ], [ -161.042760207871112, 51.391758680342427 ], [ -159.47923151775376, 49.603300623395349 ], [ -158.026954837554314, 47.795279640633652 ], [ -156.672813457936115, 45.970176612050942 ], [ -155.405431494016284, 44.130104001948126 ], [ -154.214918977931347, 42.276869436045516 ], [ -153.092652671604498, 40.41202739976994 ], [ -152.031089068016342, 38.536921380115842 ], [ -151.023605577760065, 36.652718326750012 ], [ -150.064365955819113, 34.760436936415822 ], [ -149.148206336625975, 32.860970962454779 ], [ -148.270538661940719, 30.955108508089527 ], [ -147.427268719307989, 29.043548068839712 ], [ -146.614726420338712, 27.12691193572519 ], [ -145.829606316728928, 25.205757449413305 ], [ -145.068916672836451, 23.2805864992864 ], [ -144.329935687221564, 21.351853585284864 ], [ -143.610173685939287, 19.419972699981631 ], [ -142.907340301825855, 17.485323240645624 ], [ -142.219315813835749, 15.548255122660352 ], [ -141.544125950686748, 13.609093235673019 ], [ -140.879919571066011, 11.668141359513749 ], [ -140.224948720278888, 9.725685637756721 ], [ -139.577550634517422, 7.781997691510956 ], [ -138.936131321535925, 5.837337443852258 ], [ -138.299150391782035, 3.891955716062923 ], [ -137.665106850611778, 1.946096649121979 ], [ -137.032525588543706, -0.000000001200014 ], [ -137.665106850570027, -1.946096651548911 ], [ -138.29915039170038, -3.891955718507986 ], [ -138.936131321411125, -5.837337446311843 ], [ -139.57755063435107, -7.781997693984973 ], [ -140.224948720049497, -9.725685640256291 ], [ -140.879919570798279, -11.668141362027216 ], [ -141.544125950382153, -13.609093238200362 ], [ -142.219315813495882, -15.548255125201566 ], [ -142.907340301452336, -17.485323243200703 ], [ -143.610173685533795, -19.419972702550588 ], [ -144.329935686785916, -21.351853587867705 ], [ -145.068916672348877, -23.280586501892117 ], [ -145.829606316214921, -25.205757452032731 ], [ -146.614726419800519, -27.126911938358365 ], [ -147.42726871874811, -29.043548071486672 ], [ -148.270538661362025, -30.955108510750293 ], [ -149.148206336031677, -32.860970965129361 ], [ -150.064365955212907, -34.760436939104203 ], [ -151.023605577146185, -36.652718329452149 ], [ -152.031089067371255, -38.536921382839637 ], [ -153.092652670961428, -40.412027402507249 ], [ -154.214918977297003, -42.276869438796133 ], [ -155.405431493398538, -44.13010400471174 ], [ -156.672813457344432, -45.970176614827103 ], [ -158.026954836999892, -47.795279643421715 ], [ -159.479231517250071, -49.603300626194439 ], [ -161.042760207395872, -51.391758683160589 ], [ -162.732691126675292, -53.157726222360395 ], [ -164.566537254028049, -54.897732520822451 ], [ -166.564532550965737, -56.607645241643169 ], [ -168.750000000012079, -58.282525589948584 ], [ -170.935467449039919, -56.607645241638643 ], [ -172.933462745982894, -54.897732520813207 ], [ -174.76730887333008, -53.157726222349709 ], [ -176.457239792604469, -51.391758683148602 ], [ -178.02076848278233, -49.603300626190112 ], [ -179.473045163026654, -47.795279643415959 ], [ -179.995, -47.091792276390443 ], [ -179.995, 47.091792272786897 ], [ -179.47304516241914, 47.795279640639414 ] ] ] ] } },
{ "type": "Feature", "properties": { "global_id": "2" }, "geometry": { "type": "Polygon", "coordinates": [ [ [ -77.310020670340236, 33.36488698451592 ], [ -75.814748328252165, 34.995037433534769 ], [ -74.259052532229106, 36.606112389257369 ], [ -72.637416155866589, 38.196108735081843 ], [ -70.943917303751519, 39.762810250444666 ], [ -69.172218240398763, 41.30376204758322 ], [ -67.315564881928324, 42.816242902110638 ], [ -65.366801524858388, 44.297235757274002 ], [ -63.318406836129874, 45.743396941392774 ], [ -61.162558674945451, 47.151025001261914 ], [ -58.891236971370802, 48.516030546106236 ], [ -56.496375460166391, 49.833909139088824 ], [ -53.970074222956434, 51.099720077927898 ], [ -51.304885186092598, 52.308074860877419 ], [ -48.494181168761259, 53.453140184556531 ], [ -45.532614749852677, 54.52866134371601 ], [ -42.416664967521093, 55.52801268364253 ], [ -39.145256687251923, 56.444281964724269 ], [ -35.720419071025567, 57.270394703466735 ], [ -32.147927109618927, 57.999282281575908 ], [ -28.437847074417363, 58.624093490731489 ], [ -24.604889130723176, 59.138443152766371 ], [ -20.668466412048009, 59.536684046616614 ], [ -16.65237754520367, 59.814180852218016 ], [ -12.58407288992885, 59.967559111968612 ], [ -8.493529621161032, 59.994900425073652 ], [ -4.411833700443898, 59.895858733194501 ], [ -0.369627621688618, 59.671681710581424 ], [ 3.604387753805453, 59.32513423874596 ], [ 7.48472093041104, 58.860334656970139 ], [ 11.249999999910713, 58.282525589978064 ], [ 9.064532550853665, 56.607645241678377 ], [ 7.066537253903711, 54.897732520854753 ], [ 5.232691126550508, 53.157726222392768 ], [ 3.542760207270905, 51.391758683192926 ], [ 1.979231517156537, 49.603300626211599 ], [ 0.526954836905605, 47.795279643439528 ], [ -0.827186542750455, 45.970176614845435 ], [ -2.094568506696809, 44.130104004730477 ], [ -3.285081022798737, 42.276869438815183 ], [ -4.407347329134625, 40.412027402526512 ], [ -5.468910932725091, 38.536921382859035 ], [ -6.476394422923878, 36.652718329461514 ], [ -7.435634044857864, 34.760436939114108 ], [ -8.351793664039743, 32.860970965139714 ], [ -9.22946133871001, 30.955108510761011 ], [ -10.072731281324526, 29.043548071497678 ], [ -10.885273580272729, 27.126911938369588 ], [ -11.670393683858977, 25.205757452044104 ], [ -12.43108332772568, 23.280586501903581 ], [ -13.170064313264904, 21.351853587872718 ], [ -13.88982631451781, 19.419972702555931 ], [ -14.592659698600109, 17.485323243206306 ], [ -15.280684186557426, 15.548255125207362 ], [ -15.955874049672097, 13.60909323820629 ], [ -16.620080429256998, 11.668141362033211 ], [ -17.275051280006906, 9.725685640262295 ], [ -17.922449365680929, 7.781997693986678 ], [ -18.563868678621862, 5.83733744631371 ], [ -19.200849608333694, 3.89195571850995 ], [ -19.834893149460413, 1.946096651554413 ], [ -20.467474411484805, 0.000000001218082 ], [ -22.123199905278351, -1.202610924659782 ], [ -23.780384550043909, -2.404217046471389 ], [ -25.440487749282198, -3.603810860204306 ], [ -27.104969354447238, -4.800379467421414 ], [ -28.775289745266093, -5.992901892139155 ], [ -30.452909735700871, -7.180346415814023 ], [ -32.139290244050095, -8.361667938488198 ], [ -33.835891662993767, -9.535805375902342 ], [ -35.544172862131063, -10.701679104615112 ], [ -37.265589751925859, -11.85818846989407 ], [ -39.001593334130249, -13.004209374380142 ], [ -40.753627159926751, -14.138591969292447 ], [ -42.523124113504572, -15.260158474240209 ], [ -44.311502435927423, -16.367701156539265 ], [ -46.120160902407761, -17.459980506270632 ], [ -47.950473066016691, -18.535723649121341 ], [ -49.803780483073716, -19.593623045234278 ], [ -51.681384840721961, -20.632335528743248 ], [ -53.584538916346801, -21.650481749209437 ], [ -55.514436312463992, -22.646646082571237 ], [ -57.472199930463574, -23.61937708516469 ], [ -59.458869173124484, -24.567188569479196 ], [ -61.475385900017805, -25.488561384110497 ], [ -63.522579202529123, -26.381945982301012 ], [ -65.601149116693065, -27.24576586287877 ], [ -67.711649452337312, -28.078421963620769 ], [ -69.854469985551049, -28.878298079342688 ], [ -72.029818336790399, -29.64376736463619 ], [ -74.237701936605973, -30.373199963493892 ], [ -76.477910561495449, -31.064971784592228 ], [ -78.74999999912994, -31.717474411488695 ], [ -78.749999999187935, -29.671185739783567 ], [ -78.7499999992515, -27.624897068076951 ], [ -78.749999999312848, -25.578608396370239 ], [ -78.749999999372221, -23.532319724663427 ], [ -78.749999999456804, -21.48603105295302 ], [ -78.74999999951217, -19.439742381246393 ], [ -78.749999999566256, -17.393453709539671 ], [ -78.74999999961922, -15.347165037832857 ], [ -78.749999999671218, -13.300876366125957 ], [ -78.749999999722391, -11.254587694418971 ], [ -78.749999999772868, -9.2082990227119 ], [ -78.74999999984648, -7.162010351003627 ], [ -78.749999999895749, -5.115721679296714 ], [ -78.749999999944748, -3.069433007589717 ], [ -78.749999999993577, -1.023144335882637 ], [ -78.750000000042348, 1.023144335824524 ], [ -78.750000000091177, 3.069433007531768 ], [ -78.750000000140176, 5.115721679239095 ], [ -78.750000000189445, 7.162010350946504 ], [ -78.750000000263057, 9.208299022652554 ], [ -78.750000000313534, 11.254587694359808 ], [ -78.750000000364707, 13.300876366067143 ], [ -78.750000000416705, 15.347165037774566 ], [ -78.750000000469683, 17.393453709482078 ], [ -78.750000000523769, 19.439742381189678 ], [ -78.750000000579121, 21.486031052897374 ], [ -78.750000000663704, 23.532319724601287 ], [ -78.750000000723077, 25.578608396308802 ], [ -78.750000000784439, 27.624897068016409 ], [ -78.750000000848004, 29.67118573972412 ], [ -78.750000000905999, 31.717474411433315 ], [ -77.310020670340236, 33.36488698451592 ] ] ] } },
{ "type": "Feature", "properties": { "global_id": "3" }, "geometry": { "type": "Polygon", "coordinates": [ [ [ -19.83489314942998, 1.946096651548908 ], [ -19.200849608299631, 3.891955718507983 ], [ -18.563868678588875, 5.837337446311841 ], [ -17.922449365648916, 7.78199769398497 ], [ -17.27505127995051, 9.725685640256289 ], [ -16.620080429201725, 11.668141362027212 ], [ -15.955874049617846, 13.60909323820036 ], [ -15.280684186504113, 15.548255125201562 ], [ -14.592659698547667, 17.485323243200703 ], [ -13.889826314466195, 19.419972702550584 ], [ -13.170064313214088, 21.351853587867705 ], [ -12.431083327651123, 23.280586501892117 ], [ -11.67039368378509, 25.205757452032728 ], [ -10.885273580199474, 27.126911938358361 ], [ -10.072731281251883, 29.043548071486669 ], [ -9.229461338637977, 30.955108510750289 ], [ -8.35179366396833, 32.860970965129361 ], [ -7.435634044787103, 34.760436939104203 ], [ -6.476394422853815, 36.652718329452142 ], [ -5.468910932628757, 38.536921382839637 ], [ -4.407347329038562, 40.412027402507249 ], [ -3.285081022702991, 42.276869438796133 ], [ -2.094568506601448, 44.13010400471174 ], [ -0.827186542655572, 45.970176614827096 ], [ 0.52695483699989, 47.795279643421715 ], [ 1.979231517250075, 49.603300626194439 ], [ 3.542760207395873, 51.391758683160589 ], [ 5.232691126675284, 53.157726222360388 ], [ 7.066537254028055, 54.897732520822451 ], [ 9.064532550965732, 56.607645241643169 ], [ 11.25000000001209, 58.282525589948577 ], [ 13.435467449039916, 56.607645241638643 ], [ 15.433462745982892, 54.8977325208132 ], [ 17.267308873330077, 53.157726222349709 ], [ 18.957239792604469, 51.391758683148595 ], [ 20.52076848278233, 49.603300626190112 ], [ 21.973045163026658, 47.795279643415952 ], [ 23.327186542676781, 45.970176614820019 ], [ 24.594568506617765, 44.130104004703419 ], [ 25.785081022714802, 42.276869438786633 ], [ 26.907347329046196, 40.412027402496612 ], [ 27.96891093263249, 38.536921382827892 ], [ 28.976394422881476, 36.652718329447318 ], [ 29.935634044810488, 34.760436939098312 ], [ 30.851793663987696, 32.860970965122419 ], [ 31.729461338653532, 30.955108510742303 ], [ 32.572731281263806, 29.043548071477623 ], [ 33.385273580207915, 27.126911938348233 ], [ 34.170393683790159, 25.20575745202148 ], [ 34.931083327652921, 23.280586501879707 ], [ 35.670064313236104, 21.351853587863282 ], [ 36.389826314484829, 19.419972702545142 ], [ 37.09265969856299, 17.485323243194184 ], [ 37.780684186516183, 15.548255125193906 ], [ 38.455874049626686, 13.609093238191491 ], [ 39.120080429207349, 11.668141362017044 ], [ 39.775051279952898, 9.725685640244722 ], [ 40.422449365671206, 7.781997693983518 ], [ 41.063868678608024, 5.837337446309213 ], [ 41.700849608315607, 3.891955718504074 ], [ 42.334893149437903, 1.9460966515471 ], [ 42.967474411456287, 0.000000001208814 ], [ 42.334893149380299, -1.946096649123794 ], [ 41.700849608201999, -3.891955716066838 ], [ 41.06386867844494, -5.837337443854891 ], [ 40.422449365460281, -7.781997691512415 ], [ 39.775051279718738, -9.725685637768294 ], [ 39.120080428928354, -11.668141359523924 ], [ 38.45587404930442, -13.609093235681893 ], [ 37.780684186152186, -15.548255122668014 ], [ 37.092659698158819, -17.485323240652146 ], [ 36.389826314042075, -19.419972699987081 ], [ 35.670064312756423, -21.351853585289291 ], [ 34.931083327161758, -23.280586499298817 ], [ 34.170393683265999, -25.205757449424556 ], [ 33.385273579652839, -27.126911935735325 ], [ 32.572731280680095, -29.043548068848764 ], [ 31.72946133804373, -30.955108508097521 ], [ 30.851793663354666, -32.860970962461721 ], [ 29.935634044157496, -34.760436936421719 ], [ 28.976394422212266, -36.652718326754844 ], [ 27.968910931979917, -38.536921380127595 ], [ 26.907347328387864, -40.412027399780584 ], [ 25.785081022056836, -42.276869436055023 ], [ 24.594568505967413, -44.130104001956454 ], [ 23.327186542042675, -45.970176612058033 ], [ 21.97304516241914, -47.795279640639421 ], [ 20.520768482213835, -49.603300623399683 ], [ 18.95723979212854, -51.391758680354421 ], [ 17.26730887292852, -53.157726219544251 ], [ 15.433462745678041, -54.89773251799825 ], [ 13.435467448870451, -56.607645238813483 ], [ 11.24999999998791, -58.282525587116837 ], [ 9.064532551123904, -56.607645238808956 ], [ 7.066537254311012, -54.897732517989006 ], [ 5.232691127066118, -53.157726219533565 ], [ 3.542760207871119, -51.391758680342434 ], [ 1.97923151775376, -49.603300623395356 ], [ 0.526954837554314, -47.795279640633659 ], [ -0.827186542063884, -45.970176612050949 ], [ -2.094568505983731, -44.130104001948133 ], [ -3.285081022068648, -42.276869436045523 ], [ -4.407347328395497, -40.412027399769947 ], [ -5.468910931983649, -38.536921380115849 ], [ -6.476394422239927, -36.652718326750019 ], [ -7.435634044180882, -34.760436936415829 ], [ -8.351793663374032, -32.860970962454786 ], [ -9.229461338059288, -30.955108508089534 ], [ -10.072731280692022, -29.043548068839719 ], [ -10.885273579661277, -27.126911935725197 ], [ -11.670393683271074, -25.205757449413312 ], [ -12.431083327163551, -23.280586499286407 ], [ -13.17006431277844, -21.351853585284868 ], [ -13.889826314060709, -19.419972699981638 ], [ -14.592659698174145, -17.485323240645631 ], [ -15.280684186164253, -15.548255122660359 ], [ -15.955874049313264, -13.609093235673026 ], [ -16.620080428933981, -11.668141359513754 ], [ -17.275051279721122, -9.725685637756726 ], [ -17.922449365482574, -7.781997691510962 ], [ -18.563868678464086, -5.837337443852265 ], [ -19.200849608217972, -3.891955716062929 ], [ -19.834893149388225, -1.946096649121985 ], [ -20.467474411454909, 0.00000000121567 ], [ -19.83489314942998, 1.946096651548908 ] ] ] } },
{ "type": "Feature", "properties": { "global_id": "4" }, "geometry": { "type": "Polygon", "coordinates": [ [ [ 42.334893149465756, 1.946096651560533 ], [ 41.700849608344292, 3.891955718522497 ], [ 41.063868678635757, 5.83733744632708 ], [ 40.422449365698014, 7.781997694000938 ], [ 39.775051280001833, 9.725685640272989 ], [ 39.120080429255282, 11.668141362044652 ], [ 38.455874049673653, 13.609093238218547 ], [ 37.780684186562183, 15.548255125220507 ], [ 37.092659698608024, 17.485323243220414 ], [ 36.389826314528868, 19.41997270257108 ], [ 35.670064313279099, 21.351853587888996 ], [ 34.931083327718511, 23.280586501914225 ], [ 34.17039368385489, 25.205757452055675 ], [ 33.385273580271722, 27.126911938382168 ], [ 32.572731281326625, 29.043548071511356 ], [ 31.729461338715264, 30.955108510775894 ], [ 30.851793664048216, 32.860970965155907 ], [ 29.935634044869637, 34.760436939131729 ], [ 28.976394422939052, 36.652718329480685 ], [ 27.968910932716756, 38.536921382869238 ], [ 26.907347329129383, 40.412027402537952 ], [ 25.785081022796685, 42.276869438827994 ], [ 24.594568506698071, 44.130104004744815 ], [ 23.327186542755165, 45.970176614861451 ], [ 21.973045163102704, 47.79527964345742 ], [ 20.520768482855534, 49.603300626231565 ], [ 18.957239792712734, 51.391758683199214 ], [ 17.267308873436271, 53.157726222400612 ], [ 15.433462746086336, 54.897732520864366 ], [ 13.435467449140777, 56.607645241682938 ], [ 11.25000000009676, 58.282525589990158 ], [ 15.015279069599213, 58.860334656971567 ], [ 18.895612246215897, 59.325134238748518 ], [ 22.869627621710578, 59.671681710580216 ], [ 26.911833700465717, 59.895858733189606 ], [ 30.993529621188085, 59.994900425090286 ], [ 35.084072889956602, 59.967559111981195 ], [ 39.152377545231282, 59.814180852226656 ], [ 43.1684664120747, 59.536684046621431 ], [ 47.104889130748241, 59.138443152767501 ], [ 50.937847074440171, 58.624093490729081 ], [ 54.647927109638964, 57.999282281570103 ], [ 58.22041907106091, 57.270394703479006 ], [ 61.6452566872847, 56.444281964732959 ], [ 64.916664967550915, 55.528012683647802 ], [ 68.032614749879244, 54.528661343718035 ], [ 70.994181168784365, 53.453140184555437 ], [ 73.804885186112102, 52.30807486087334 ], [ 76.470074222972272, 51.099720077920928 ], [ 78.996375460178527, 49.833909139079061 ], [ 81.391236971401, 48.516030546112532 ], [ 83.662558674972004, 47.151025001265424 ], [ 85.818406836152775, 45.743396941393563 ], [ 87.866801524877658, 44.297235757272126 ], [ 89.815564881943999, 42.816242902106119 ], [ 91.672218240410857, 41.303762047576065 ], [ 93.44391730376006, 39.762810250434853 ], [ 95.137416155893433, 38.196108735088522 ], [ 96.759052532252497, 36.606112389261554 ], [ 98.314748328272088, 34.995037433536424 ], [ 99.810020670349914, 33.364886984516751 ], [ 101.250000000910021, 31.717474411427219 ], [ 101.250000000839975, 29.671185739719952 ], [ 101.250000000768694, 27.624897068007758 ], [ 101.25000000070392, 25.578608396300385 ], [ 101.250000000641307, 23.53231972459302 ], [ 101.250000000580627, 21.486031052885654 ], [ 101.250000000521624, 19.439742381178291 ], [ 101.250000000464098, 17.393453709470936 ], [ 101.250000000407837, 15.347165037763586 ], [ 101.250000000352671, 13.300876366056242 ], [ 101.250000000298428, 11.254587694348908 ], [ 101.250000000244953, 9.208299022641581 ], [ 101.250000000192088, 7.162010350934264 ], [ 101.250000000139707, 5.115721679226957 ], [ 101.250000000087653, 3.069433007519661 ], [ 101.250000000035797, 1.023144335812378 ], [ 101.249999999984013, -1.023144335894894 ], [ 101.249999999932157, -3.069433007602152 ], [ 101.249999999880103, -5.115721679309398 ], [ 101.249999999827722, -7.162010351016629 ], [ 101.249999999774857, -9.208299022723846 ], [ 101.249999999721382, -11.254587694431049 ], [ 101.249999999667139, -13.300876366138235 ], [ 101.249999999611973, -15.347165037845409 ], [ 101.249999999555712, -17.393453709552567 ], [ 101.249999999498186, -19.439742381259709 ], [ 101.249999999439183, -21.486031052966837 ], [ 101.249999999378502, -23.53231972467395 ], [ 101.249999999315889, -25.57860839638105 ], [ 101.249999999251116, -27.624897068088135 ], [ 101.249999999187892, -29.671185739789056 ], [ 101.249999999117847, -31.71747441149617 ], [ 98.977910561489381, -31.064971784590451 ], [ 96.73770193659368, -30.373199963490325 ], [ 94.529818336779968, -29.643767364629682 ], [ 92.354469985542451, -28.878298079333348 ], [ 90.211649452315541, -28.078421963630287 ], [ 88.101149116673284, -27.245765862885246 ], [ 86.022579202511295, -26.381945982304554 ], [ 83.97538590000191, -25.488561384111193 ], [ 81.958869173110486, -24.567188569477121 ], [ 79.972199930451424, -23.619377085159901 ], [ 78.014436312453668, -22.646646082563773 ], [ 76.08453891632476, -21.650481749219242 ], [ 74.181384840701867, -20.632335528750346 ], [ 72.303780483055547, -19.593623045238701 ], [ 70.450473066000399, -18.535723649123113 ], [ 68.620160902393323, -17.459980506269758 ], [ 66.811502435914804, -16.36770115653573 ], [ 65.023124113493751, -15.260158474233993 ], [ 63.253627159917713, -14.13859196928351 ], [ 61.501593334110673, -13.00420937438887 ], [ 59.765589751908131, -11.858188469900186 ], [ 58.044172862115161, -10.70167910461857 ], [ 56.33589166297967, -9.535805375903083 ], [ 54.639290244037788, -8.361667938486143 ], [ 52.952909735690334, -7.180346415809077 ], [ 51.275289745257318, -5.992901892131203 ], [ 49.604969354428469, -4.800379467433255 ], [ 47.940487749265216, -3.603810860213395 ], [ 46.280384550028707, -2.404217046477602 ], [ 44.62319990527088, -1.202610924662974 ], [ 42.967474411481888, 0.000000001224436 ], [ 42.334893149465756, 1.946096651560533 ] ] ] } },
{ "type": "Feature", "properties": { "global_id": "5" }, "geometry": { "type": "MultiPolygon", "coordinates": [ [ [ [ 179.172813457929465, 45.970176611976505 ], [ 177.90543149400753, 44.130104001874379 ], [ 176.714918977920547, 42.276869435972472 ], [ 175.592652671591679, 40.412027399697628 ], [ 174.531089068001506, 38.536921380044298 ], [ 173.52360557777078, 36.65271832667127 ], [ 172.564365955827014, 34.760436936337911 ], [ 171.648206336631091, 32.860970962377742 ], [ 170.770538661943135, 30.95510850801341 ], [ 169.927268719307733, 29.043548068764576 ], [ 169.114726420335813, 27.126911935651098 ], [ 168.329606316723357, 25.205757449340336 ], [ 167.568916672828209, 23.280586499214643 ], [ 166.82993568723407, 21.351853585205198 ], [ 166.110173685948837, 19.419972699903109 ], [ 165.407340301832448, 17.485323240568331 ], [ 164.719315813839358, 15.548255122584386 ], [ 164.044125950687317, 13.609093235598488 ], [ 163.37991957106351, 11.668141359440771 ], [ 162.724948720273204, 9.725685637685425 ], [ 162.077550634531661, 7.781997691429854 ], [ 161.436131321546952, 5.837337443772668 ], [ 160.799150391789766, 3.891955715984976 ], [ 160.165106850621356, 1.946096649050586 ], [ 159.532525588544956, -0.000000001281715 ], [ 157.876800094758892, 1.202610924602789 ], [ 156.219615450001669, 2.404217046416301 ], [ 154.559512250765664, 3.60381086015115 ], [ 152.895030645602873, 4.800379467370233 ], [ 151.224710254768638, 5.992901892071646 ], [ 149.547090264336504, 7.180346415748621 ], [ 147.860709755989859, 8.361667938424956 ], [ 146.164108337048731, 9.535805375841328 ], [ 144.455827137913928, 10.701679104556405 ], [ 142.734410248121577, 11.858188469837767 ], [ 140.998406665919617, 13.004209374326351 ], [ 139.246372840111178, 14.138591969222279 ], [ 137.476875886536135, 15.260158474172595 ], [ 135.688497564116005, 16.367701156474329 ], [ 133.879839097638381, 17.459980506208503 ], [ 132.049526934032144, 18.53572364906216 ], [ 130.196219516977777, 19.593623045178202 ], [ 128.318615159332126, 20.632335528690447 ], [ 126.415461083709857, 21.650481749160093 ], [ 124.485563687584218, 22.646646082504127 ], [ 122.527800069587542, 23.619377085101018 ], [ 120.541130826929489, 24.567188569419152 ], [ 118.524614100038946, 25.488561384054286 ], [ 116.477420797530328, 26.381945982248858 ], [ 114.398850883368979, 27.245765862830901 ], [ 112.288350547727177, 28.078421963577433 ], [ 110.145530014508722, 28.878298079279141 ], [ 107.970181663272214, 29.643767364577066 ], [ 105.762298063459312, 30.373199963439447 ], [ 103.522089438564194, 31.064971784541438 ], [ 101.250000000932971, 31.717474411449988 ], [ 99.810020670376289, 33.364886984538423 ], [ 98.314748328297469, 34.995037433563375 ], [ 96.759052532276925, 36.606112389287929 ], [ 95.137416155916839, 38.196108735114414 ], [ 93.443917303804156, 39.762810250479312 ], [ 91.672218240453674, 41.303762047620005 ], [ 89.815564881985381, 42.816242902149632 ], [ 87.866801524917435, 44.297235757315264 ], [ 85.818406836190704, 45.743396941436373 ], [ 83.662558675007801, 47.151025001307907 ], [ 81.391236971434353, 48.516030546154681 ], [ 78.996375460230766, 49.833909139139777 ], [ 76.470074223021157, 51.099720077981395 ], [ 73.804885186157136, 52.308074860933495 ], [ 70.994181168824966, 53.453140184615187 ], [ 68.032614749914814, 54.52866134377723 ], [ 64.916664967580843, 55.528012683706272 ], [ 61.645256687308361, 56.444281964790463 ], [ 58.220419071077714, 57.27039470353526 ], [ 54.647927109665765, 57.999282281646607 ], [ 50.937847074457885, 58.62409349080415 ], [ 47.104889130756405, 59.138443152840743 ], [ 43.16846641207308, 59.536684046692386 ], [ 39.152377545219885, 59.814180852294861 ], [ 35.084072889935712, 59.96755911204616 ], [ 30.993529621158299, 59.994900425151506 ], [ 26.91183370043159, 59.89585873327227 ], [ 22.869627621667018, 59.67168171065871 ], [ 18.895612246164177, 59.325134238822407 ], [ 15.015279069553998, 58.860334657038628 ], [ 11.250000000047709, 58.282525590045339 ], [ 11.250000000071491, 60.328814261750466 ], [ 11.250000000083377, 62.375102933457079 ], [ 11.25000000009676, 64.421391605163791 ], [ 11.250000000112095, 66.46768027687061 ], [ 11.250000000061528, 68.513968948581009 ], [ 11.250000000076993, 70.560257620287643 ], [ 11.250000000095618, 72.606546291994363 ], [ 11.250000000118746, 74.652834963701181 ], [ 11.250000000148543, 76.699123635408071 ], [ 11.250000000188733, 78.74541230711506 ], [ 11.250000000246358, 80.791700978822135 ], [ 11.250000000147827, 82.837989650530403 ], [ 11.250000000235532, 84.884278322237321 ], [ 11.250000000439016, 86.930566993944311 ], [ 11.250000001453847, 88.976855665651399 ], [ 179.995, 88.976855662829649 ], [ 179.995, 47.078314337162226 ], [ 179.172813457929465, 45.970176611976505 ] ] ], [ [ [ -168.750000001588916, 88.976855662641441 ], [ -168.750000000574374, 86.930566990934196 ], [ -168.750000000371472, 84.88427831922688 ], [ -168.750000000284643, 82.837989647519464 ], [ -168.750000000088846, 80.791700975813413 ], [ -168.750000000084356, 78.745412304106154 ], [ -168.750000000081315, 76.699123632398823 ], [ -168.75000000007924, 74.652834960691408 ], [ -168.750000000077847, 72.606546288983893 ], [ -168.750000000076966, 70.560257617276292 ], [ -168.75000000007654, 68.513968945568593 ], [ -168.750000000012676, 66.467680273864673 ], [ -168.750000000016769, 64.421391602157172 ], [ -168.750000000020464, 62.375102930449557 ], [ -168.750000000023903, 60.328814258741843 ], [ -168.750000000028507, 58.282525587047118 ], [ -170.935467448904546, 56.607645238742705 ], [ -172.933462745727411, 54.897732517921035 ], [ -174.767308872972308, 53.157726219465914 ], [ -176.457239792167485, 51.391758680275117 ], [ -178.02076848224857, 49.603300623319534 ], [ -179.473045162450205, 47.795279640558533 ], [ -179.995, 47.09179227274597 ], [ -179.995, 88.976855662829479 ], [ -168.750000001588916, 88.976855662641441 ] ] ] ] } },
{ "type": "Feature", "properties": { "global_id": "6" }, "geometry": { "type": "Polygon", "coordinates": [ [ [ -135.376800094721659, 1.202610924659778 ], [ -133.719615449956109, 2.404217046471385 ], [ -132.059512250717802, 3.603810860204302 ], [ -130.395030645552765, 4.80037946742141 ], [ -128.724710254733907, 5.992901892139151 ], [ -127.047090264299143, 7.18034641581402 ], [ -125.360709755949912, 8.361667938488194 ], [ -123.66410833700624, 9.535805375902338 ], [ -121.955827137868937, 10.701679104615108 ], [ -120.234410248074141, 11.858188469894065 ], [ -118.498406665869751, 13.004209374380139 ], [ -116.746372840073249, 14.138591969292444 ], [ -114.976875886495435, 15.260158474240205 ], [ -113.188497564072577, 16.367701156539262 ], [ -111.379839097592239, 17.459980506270629 ], [ -109.549526933983316, 18.535723649121337 ], [ -107.696219516926291, 19.593623045234271 ], [ -105.818615159278039, 20.632335528743244 ], [ -103.915461083653213, 21.65048174920943 ], [ -101.985563687536015, 22.646646082571234 ], [ -100.027800069536426, 23.619377085164686 ], [ -98.041130826875516, 24.567188569479189 ], [ -96.024614099982202, 25.48856138411049 ], [ -93.977420797470884, 26.381945982301005 ], [ -91.898850883306949, 27.245765862878766 ], [ -89.788350547662688, 28.078421963620766 ], [ -87.645530014448966, 28.878298079342684 ], [ -85.470181663209615, 29.643767364636187 ], [ -83.262298063394041, 30.373199963493889 ], [ -81.022089438504565, 31.064971784592224 ], [ -78.750000000870074, 31.717474411488691 ], [ -78.750000000812079, 29.67118573978356 ], [ -78.750000000748514, 27.624897068076947 ], [ -78.750000000687166, 25.578608396370235 ], [ -78.750000000627779, 23.532319724663424 ], [ -78.75000000054321, 21.486031052953013 ], [ -78.750000000487844, 19.439742381246386 ], [ -78.750000000433758, 17.393453709539667 ], [ -78.75000000038078, 15.347165037832854 ], [ -78.750000000328782, 13.300876366125953 ], [ -78.750000000277609, 11.254587694418966 ], [ -78.750000000227132, 9.208299022711897 ], [ -78.75000000015352, 7.162010351003622 ], [ -78.750000000104251, 5.115721679296709 ], [ -78.750000000055266, 3.069433007589712 ], [ -78.750000000006423, 1.023144335882633 ], [ -78.749999999957652, -1.023144335824528 ], [ -78.749999999908823, -3.069433007531772 ], [ -78.749999999859824, -5.115721679239098 ], [ -78.749999999810555, -7.162010350946509 ], [ -78.749999999736943, -9.208299022652559 ], [ -78.749999999686466, -11.254587694359811 ], [ -78.749999999635293, -13.300876366067149 ], [ -78.749999999583295, -15.34716503777457 ], [ -78.749999999530331, -17.393453709482081 ], [ -78.749999999476245, -19.439742381189681 ], [ -78.749999999420879, -21.486031052897378 ], [ -78.749999999336296, -23.53231972460129 ], [ -78.749999999276923, -25.578608396308805 ], [ -78.749999999215575, -27.624897068016416 ], [ -78.74999999915201, -29.671185739724127 ], [ -78.749999999086782, -31.717474411418848 ], [ -80.189979329659764, -33.36488698451592 ], [ -81.685251671747849, -34.995037433534769 ], [ -83.240947467770894, -36.606112389257369 ], [ -84.862583844133411, -38.196108735081843 ], [ -86.556082696248481, -39.762810250444666 ], [ -88.327781759601237, -41.30376204758322 ], [ -90.184435118071676, -42.816242902110645 ], [ -92.133198475141612, -44.297235757274009 ], [ -94.181593163870133, -45.743396941392781 ], [ -96.337441325054556, -47.151025001261921 ], [ -98.608763028629198, -48.516030546106236 ], [ -101.003624539833609, -49.833909139088824 ], [ -103.529925777043573, -51.099720077927898 ], [ -106.195114813907409, -52.308074860877426 ], [ -109.005818831238756, -53.453140184556531 ], [ -111.967385250147331, -54.52866134371601 ], [ -115.083335032478914, -55.52801268364253 ], [ -118.354743312748084, -56.444281964724269 ], [ -121.77958092897444, -57.270394703466735 ], [ -125.352072890381081, -57.999282281575908 ], [ -129.062152925582637, -58.624093490731489 ], [ -132.895110869276834, -59.138443152766371 ], [ -136.831533587952009, -59.536684046616614 ], [ -140.847622454796351, -59.814180852218023 ], [ -144.915927110071152, -59.967559111968619 ], [ -149.006470378838969, -59.994900425073652 ], [ -153.088166299556121, -59.895858733194508 ], [ -157.130372378311392, -59.671681710581431 ], [ -161.104387753805469, -59.32513423874596 ], [ -164.984720930411044, -58.860334656970139 ], [ -168.749999999910727, -58.282525589978064 ], [ -166.56453255085367, -56.607645241678384 ], [ -164.566537253903732, -54.897732520854753 ], [ -162.73269112655052, -53.157726222392768 ], [ -161.042760207270902, -51.391758683192926 ], [ -159.479231517156535, -49.603300626211599 ], [ -158.026954836905617, -47.795279643439528 ], [ -156.672813457249561, -45.970176614845435 ], [ -155.405431493303212, -44.130104004730484 ], [ -154.214918977201279, -42.276869438815183 ], [ -153.092652670865391, -40.412027402526512 ], [ -152.031089067274905, -38.536921382859035 ], [ -151.023605577076125, -36.652718329461514 ], [ -150.064365955142136, -34.760436939114115 ], [ -149.148206335960253, -32.860970965139721 ], [ -148.270538661290004, -30.955108510761015 ], [ -147.427268718675492, -29.043548071497682 ], [ -146.614726419727276, -27.126911938369592 ], [ -145.829606316141025, -25.205757452044107 ], [ -145.068916672274327, -23.280586501903585 ], [ -144.329935686735098, -21.351853587872718 ], [ -143.610173685482209, -19.419972702555931 ], [ -142.907340301399898, -17.485323243206309 ], [ -142.219315813442591, -15.548255125207364 ], [ -141.544125950327896, -13.609093238206292 ], [ -140.879919570742999, -11.668141362033214 ], [ -140.224948719993108, -9.725685640262299 ], [ -139.577550634319067, -7.78199769398668 ], [ -138.936131321378156, -5.837337446313713 ], [ -138.299150391666302, -3.891955718509952 ], [ -137.665106850539587, -1.946096651554415 ], [ -137.032525588504882, -0.000000001206223 ], [ -135.376800094721659, 1.202610924659778 ] ] ] } },
{ "type": "Feature", "properties": { "global_id": "7" }, "geometry": { "type": "Polygon", "coordinates": [ [ [ -76.477910561428544, -31.064971784546657 ], [ -74.237701936525667, -30.373199963449519 ], [ -72.029818336711514, -29.643767364590094 ], [ -69.854469985473585, -28.878298079294954 ], [ -67.711649452261284, -28.078421963571483 ], [ -65.601149116618444, -27.245765862828019 ], [ -63.522579202455901, -26.38194598224889 ], [ -61.475385899945948, -25.488561384057093 ], [ -59.458869173053976, -24.567188569424598 ], [ -57.472199930394368, -23.61937708510899 ], [ -55.51443631239605, -22.646646082514522 ], [ -53.584538916280074, -21.65048174915179 ], [ -51.681384840656406, -20.632335528684759 ], [ -49.803780483009284, -19.593623045175033 ], [ -47.950473065953325, -18.535723649061424 ], [ -46.120160902345404, -17.459980506210126 ], [ -44.311502435866018, -16.367701156478248 ], [ -42.523124113444055, -15.260158474178763 ], [ -40.753627159867065, -14.138591969230649 ], [ -39.00159333407133, -13.004209374318071 ], [ -37.265589751867644, -11.858188469831799 ], [ -35.544172862073495, -10.701679104552714 ], [ -33.835891662936781, -9.535805375839889 ], [ -32.139290243993628, -8.361667938425761 ], [ -30.452909735644855, -7.180346415751671 ], [ -28.775289745210468, -5.992901892076952 ], [ -27.104969354391944, -4.800379467359425 ], [ -25.440487749227167, -3.603810860142596 ], [ -23.780384549989076, -2.404217046410019 ], [ -22.12319990523665, -1.202610924599591 ], [ -20.467474411442961, 0.000000001277781 ], [ -19.834893149376921, -1.946096649055805 ], [ -19.20084960820644, -3.891955715995509 ], [ -18.563868678452316, -5.837337443783804 ], [ -17.922449365470555, -7.781997691441651 ], [ -17.27505127970662, -9.725685637693411 ], [ -16.620080428919433, -11.668141359449253 ], [ -15.955874049298666, -13.609093235607524 ], [ -15.280684186149605, -15.548255122594037 ], [ -14.59265969815945, -17.485323240578666 ], [ -13.889826314045971, -19.419972699914201 ], [ -13.170064312763666, -21.351853585217121 ], [ -12.431083327147933, -23.280586499220629 ], [ -11.670393683255659, -25.20575744934694 ], [ -10.885273579646087, -27.126911935658402 ], [ -10.072731280677088, -29.043548068772665 ], [ -9.229461338044638, -30.955108508022384 ], [ -8.351793663359702, -32.860970962387704 ], [ -7.43563404416691, -34.760436936348981 ], [ -6.476394422226354, -36.652718326683576 ], [ -5.468910931971977, -38.536921380047325 ], [ -4.407347328384744, -40.412027399701579 ], [ -3.285081022058916, -42.276869435977488 ], [ -2.094568505975134, -44.130104001880611 ], [ -0.827186542056548, -45.970176611984122 ], [ 0.526954837560254, -47.79527964056772 ], [ 1.979231517758158, -49.603300623330504 ], [ 3.542760207867657, -51.39175868027214 ], [ 5.232691127059624, -53.157726219464216 ], [ 7.066537254301113, -54.897732517920844 ], [ 9.06453255111019, -56.607645238742244 ], [ 11.249999999966304, -58.282525587038748 ], [ 11.249999999962025, -60.328814258746021 ], [ 11.249999999949468, -62.375102930458212 ], [ 11.249999999943183, -64.421391602165585 ], [ 11.249999999935886, -66.467680273872958 ], [ 11.249999999927285, -68.513968945580316 ], [ 11.249999999916964, -70.560257617287675 ], [ 11.24999999990432, -72.606546288995034 ], [ 11.24999999988842, -74.652834960702378 ], [ 11.249999999867761, -76.699123632409723 ], [ 11.249999999839741, -78.745412304117067 ], [ 11.249999999799464, -80.791700975824384 ], [ 11.24999999973641, -82.837989647531714 ], [ 11.249999999623252, -84.884278319239016 ], [ 11.24999999935978, -86.930566990946303 ], [ 11.249999998044098, -88.976855662653591 ], [ -168.749999998010537, -88.976855665639135 ], [ -168.749999999326207, -86.930566993931876 ], [ -168.749999999589676, -84.884278322224631 ], [ -168.749999999702851, -82.8379896505174 ], [ -168.74999999976589, -80.791700978810184 ], [ -168.749999999806164, -78.745412307102981 ], [ -168.749999999834188, -76.699123635395793 ], [ -168.74999999985485, -74.652834963688619 ], [ -168.749999999870738, -72.606546291981459 ], [ -168.749999999883386, -70.560257620274314 ], [ -168.749999999893703, -68.513968948567197 ], [ -168.749999999902315, -66.467680276860079 ], [ -168.749999999909619, -64.421391605152976 ], [ -168.7499999999159, -62.375102933445895 ], [ -168.749999999928463, -60.328814261744974 ], [ -168.749999999932726, -58.282525590037864 ], [ -164.984720930435714, -58.860334657039999 ], [ -161.104387753814223, -59.32513423882429 ], [ -157.130372378312558, -59.671681710662945 ], [ -153.088166299548419, -59.895858733278828 ], [ -149.006470378813503, -59.994900425135349 ], [ -144.915927110038865, -59.96755911203239 ], [ -140.847622454756731, -59.814180852283499 ], [ -136.831533587904801, -59.536684046683419 ], [ -132.895110869222009, -59.138443152834121 ], [ -129.062152925520394, -58.624093490799822 ], [ -125.352072890311746, -57.999282281644497 ], [ -121.779580928913163, -57.270394703513091 ], [ -118.354743312682913, -56.444281964770951 ], [ -115.083335032410176, -55.52801268368934 ], [ -111.967385250075353, -54.528661343762764 ], [ -109.005818831163893, -53.453140184603086 ], [ -106.195114813830003, -52.308074860923639 ], [ -103.529925776963907, -51.099720077973679 ], [ -101.003624539751968, -49.833909139134079 ], [ -98.608763028570849, -48.51603054613399 ], [ -96.337441324995183, -47.151025001289632 ], [ -94.181593163809822, -45.743396941420372 ], [ -92.133198475080405, -44.297235757301436 ], [ -90.184435118009588, -42.816242902137851 ], [ -88.327781759538254, -41.303762047610171 ], [ -86.556082696184561, -39.762810250471318 ], [ -84.862583844096619, -38.196108735094974 ], [ -83.240947467733406, -36.606112389270578 ], [ -81.685251671709565, -34.995037433548006 ], [ -80.189979329627405, -33.364886984530912 ], [ -78.749999999045627, -31.717474411436754 ], [ -76.477910561428544, -31.064971784546657 ] ] ] } },
{ "type": "Feature", "properties": { "global_id": "8" }, "geometry": { "type": "MultiPolygon", "coordinates": [ [ [ [ -176.395612246164177, -59.3251342388224 ], [ -172.515279069553998, -58.860334657038628 ], [ -168.750000000047692, -58.282525590045331 ], [ -168.750000000071481, -60.328814261750466 ], [ -168.750000000083361, -62.375102933457079 ], [ -168.750000000096747, -64.421391605163791 ], [ -168.750000000112095, -66.467680276870595 ], [ -168.750000000061533, -68.513968948581009 ], [ -168.750000000076994, -70.560257620287643 ], [ -168.750000000095611, -72.606546291994363 ], [ -168.750000000118746, -74.652834963701167 ], [ -168.750000000148532, -76.699123635408071 ], [ -168.75000000018872, -78.74541230711506 ], [ -168.750000000246331, -80.791700978822135 ], [ -168.750000000147821, -82.837989650530403 ], [ -168.750000000235502, -84.884278322237321 ], [ -168.750000000438973, -86.930566993944311 ], [ -168.750000001453742, -88.976855665651385 ], [ -179.995, -88.976855665463347 ], [ -179.995, -59.639012925336679 ], [ -176.395612246164177, -59.3251342388224 ] ] ], [ [ [ 11.250000001588829, -88.976855662641441 ], [ 11.250000000574348, -86.93056699093421 ], [ 11.250000000371452, -84.88427831922688 ], [ 11.250000000284624, -82.837989647519464 ], [ 11.250000000088841, -80.791700975813413 ], [ 11.25000000008434, -78.745412304106168 ], [ 11.250000000081318, -76.699123632398823 ], [ 11.250000000079249, -74.652834960691408 ], [ 11.250000000077854, -72.606546288983893 ], [ 11.250000000076977, -70.560257617276292 ], [ 11.250000000076524, -68.513968945568593 ], [ 11.250000000012689, -66.467680273864687 ], [ 11.250000000016769, -64.421391602157172 ], [ 11.25000000002046, -62.375102930449557 ], [ 11.250000000023892, -60.328814258741851 ], [ 11.250000000040211, -58.282525587032659 ], [ 13.435467448904545, -56.607645238742705 ], [ 15.433462745727423, -54.897732517921042 ], [ 17.267308872972318, -53.157726219465921 ], [ 18.957239792167492, -51.391758680275125 ], [ 20.520768482248574, -49.603300623319541 ], [ 21.973045162450209, -47.79527964055854 ], [ 23.327186542070542, -45.970176611976513 ], [ 24.594568505992481, -44.130104001874379 ], [ 25.785081022079456, -42.276869435972472 ], [ 26.907347328408338, -40.412027399697635 ], [ 27.968910931998511, -38.536921380044305 ], [ 28.976394422229216, -36.65271832667127 ], [ 29.935634044173, -34.760436936337918 ], [ 30.851793663368909, -32.860970962377749 ], [ 31.729461338056872, -30.955108508013414 ], [ 32.572731280692281, -29.043548068764579 ], [ 33.385273579664187, -27.126911935651105 ], [ 34.170393683276636, -25.205757449340343 ], [ 34.931083327171784, -23.280586499214646 ], [ 35.670064312765938, -21.351853585205202 ], [ 36.389826314051163, -19.419972699903116 ], [ 37.092659698167566, -17.485323240568338 ], [ 37.780684186160656, -15.548255122584393 ], [ 38.455874049312698, -13.609093235598493 ], [ 39.120080428936504, -11.668141359440776 ], [ 39.775051279726817, -9.72568563768543 ], [ 40.422449365468353, -7.781997691429861 ], [ 41.063868678453062, -5.837337443772673 ], [ 41.700849608210234, -3.891955715984981 ], [ 42.334893149378644, -1.946096649050592 ], [ 42.967474411455051, 0.000000001281709 ], [ 44.623199905241115, -1.202610924602794 ], [ 46.280384549998338, -2.404217046416307 ], [ 47.940487749234336, -3.603810860151156 ], [ 49.604969354397142, -4.800379467370239 ], [ 51.275289745231362, -5.992901892071651 ], [ 52.952909735663496, -7.180346415748628 ], [ 54.639290244010134, -8.361667938424961 ], [ 56.335891662951269, -9.535805375841333 ], [ 58.044172862086079, -10.70167910455641 ], [ 59.765589751878423, -11.858188469837772 ], [ 61.50159333408039, -13.004209374326356 ], [ 63.253627159888836, -14.138591969222285 ], [ 65.023124113463879, -15.260158474172602 ], [ 66.811502435883995, -16.367701156474332 ], [ 68.620160902361619, -17.459980506208506 ], [ 70.450473065967856, -18.535723649062163 ], [ 72.303780483022237, -19.593623045178205 ], [ 74.181384840667874, -20.632335528690451 ], [ 76.084538916290143, -21.650481749160097 ], [ 78.014436312415796, -22.646646082504134 ], [ 79.972199930412458, -23.619377085101021 ], [ 81.958869173070525, -24.567188569419155 ], [ 83.975385899961054, -25.488561384054293 ], [ 86.022579202469686, -26.381945982248862 ], [ 88.101149116631035, -27.245765862830908 ], [ 90.211649452272837, -28.078421963577437 ], [ 92.354469985491292, -28.878298079279144 ], [ 94.5298183367278, -29.643767364577073 ], [ 96.737701936540688, -30.37319996343945 ], [ 98.97791056143582, -31.064971784541441 ], [ 101.249999999053088, -31.717474411439671 ], [ 102.689979329623711, -33.36488698453843 ], [ 104.185251671702531, -34.995037433563375 ], [ 105.740947467723089, -36.606112389287929 ], [ 107.362583844083161, -38.196108735114414 ], [ 109.056082696195858, -39.762810250479312 ], [ 110.82778175954634, -41.303762047620005 ], [ 112.684435118014619, -42.816242902149632 ], [ 114.633198475082565, -44.297235757315271 ], [ 116.68159316380931, -45.743396941436373 ], [ 118.837441324992199, -47.151025001307907 ], [ 121.108763028565647, -48.516030546154681 ], [ 123.503624539769248, -49.833909139139777 ], [ 126.029925776978843, -51.099720077981395 ], [ 128.695114813842878, -52.308074860933488 ], [ 131.505818831175048, -53.453140184615187 ], [ 134.467385250085186, -54.52866134377723 ], [ 137.583335032419171, -55.528012683706272 ], [ 140.854743312691653, -56.444281964790463 ], [ 144.279580928922286, -57.27039470353526 ], [ 147.852072890334227, -57.999282281646607 ], [ 151.562152925542136, -58.62409349080415 ], [ 155.395110869243609, -59.138443152840736 ], [ 159.331533587926941, -59.536684046692386 ], [ 163.347622454780122, -59.814180852294861 ], [ 167.415927110064302, -59.967559112046153 ], [ 171.506470378841698, -59.994900425151499 ], [ 175.588166299568428, -59.895858733272263 ], [ 179.630372378332993, -59.67168171065871 ], [ 179.995, -59.639884958882327 ], [ 179.995, -88.976855665463177 ], [ 11.250000001588829, -88.976855662641441 ] ] ] ] } },
{ "type": "Feature", "properties": { "global_id": "9" }, "geometry": { "type": "MultiPolygon", "coordinates": [ [ [ [ -179.473045163102711, -47.79527964345742 ], [ -178.020768482855516, -49.603300626231565 ], [ -176.457239792712727, -51.391758683199214 ], [ -174.767308873436264, -53.157726222400619 ], [ -172.93346274608632, -54.897732520864366 ], [ -170.935467449140759, -56.607645241682938 ], [ -168.750000000096747, -58.282525589990158 ], [ -172.515279069599217, -58.860334656971574 ], [ -176.395612246215876, -59.325134238748518 ], [ -179.995, -59.639012925254754 ], [ -179.995, -47.091792276535614 ], [ -179.473045163102711, -47.79527964345742 ] ] ], [ [ [ 179.630372378289422, -59.671681710580216 ], [ 175.588166299534294, -59.895858733189606 ], [ 171.506470378811912, -59.994900425090293 ], [ 167.415927110043413, -59.967559111981203 ], [ 163.347622454768725, -59.814180852226656 ], [ 159.331533587925293, -59.536684046621431 ], [ 155.395110869251766, -59.138443152767508 ], [ 151.562152925559843, -58.624093490729081 ], [ 147.852072890361029, -57.999282281570103 ], [ 144.279580928939112, -57.270394703479006 ], [ 140.8547433127153, -56.444281964732966 ], [ 137.583335032449099, -55.528012683647809 ], [ 134.46738525012077, -54.528661343718035 ], [ 131.505818831215635, -53.453140184555437 ], [ 128.695114813887898, -52.30807486087334 ], [ 126.029925777027728, -51.099720077920935 ], [ 123.503624539821473, -49.833909139079061 ], [ 121.108763028599, -48.516030546112532 ], [ 118.837441325027996, -47.151025001265424 ], [ 116.681593163847225, -45.74339694139357 ], [ 114.633198475122342, -44.297235757272126 ], [ 112.684435118056015, -42.816242902106119 ], [ 110.827781759589158, -41.303762047576065 ], [ 109.05608269623994, -39.762810250434853 ], [ 107.362583844106567, -38.196108735088522 ], [ 105.740947467747517, -36.606112389261561 ], [ 104.185251671727912, -34.995037433536432 ], [ 102.6899793296501, -33.364886984516751 ], [ 101.24999999908583, -31.717474411411903 ], [ 101.249999999160025, -29.671185739719956 ], [ 101.249999999231306, -27.624897068007762 ], [ 101.249999999296094, -25.578608396300393 ], [ 101.249999999358693, -23.532319724593023 ], [ 101.249999999419373, -21.486031052885657 ], [ 101.249999999478376, -19.439742381178299 ], [ 101.249999999535916, -17.39345370947094 ], [ 101.249999999592177, -15.34716503776359 ], [ 101.249999999647343, -13.300876366056247 ], [ 101.249999999701572, -11.254587694348913 ], [ 101.249999999755062, -9.208299022641587 ], [ 101.249999999807912, -7.162010350934269 ], [ 101.249999999860307, -5.115721679226962 ], [ 101.249999999912347, -3.069433007519666 ], [ 101.249999999964203, -1.023144335812382 ], [ 101.250000000016001, 1.02314433589489 ], [ 101.250000000067857, 3.069433007602148 ], [ 101.250000000119897, 5.115721679309393 ], [ 101.250000000172292, 7.162010351016624 ], [ 101.250000000225157, 9.208299022723841 ], [ 101.250000000278632, 11.254587694431043 ], [ 101.250000000332861, 13.300876366138231 ], [ 101.250000000388027, 15.347165037845404 ], [ 101.250000000444288, 17.393453709552563 ], [ 101.250000000501828, 19.439742381259705 ], [ 101.250000000560817, 21.486031052966833 ], [ 101.250000000621512, 23.532319724673947 ], [ 101.250000000684111, 25.578608396381046 ], [ 101.250000000748898, 27.624897068088131 ], [ 101.250000000812108, 29.671185739789053 ], [ 101.250000000882153, 31.717474411496163 ], [ 103.522089438510619, 31.064971784590448 ], [ 105.762298063406334, 30.373199963490322 ], [ 107.970181663220032, 29.643767364629674 ], [ 110.145530014457549, 28.878298079333344 ], [ 112.288350547684459, 28.078421963630284 ], [ 114.39885088332673, 27.245765862885243 ], [ 116.477420797488705, 26.381945982304547 ], [ 118.524614099998104, 25.48856138411119 ], [ 120.541130826889528, 24.567188569477118 ], [ 122.527800069548576, 23.619377085159897 ], [ 124.485563687546332, 22.646646082563766 ], [ 126.41546108367524, 21.650481749219235 ], [ 128.318615159298133, 20.632335528750339 ], [ 130.196219516944467, 19.593623045238697 ], [ 132.049526933999601, 18.53572364912311 ], [ 133.879839097606691, 17.459980506269751 ], [ 135.688497564085196, 16.367701156535727 ], [ 137.476875886506235, 15.260158474233988 ], [ 139.246372840082302, 14.138591969283507 ], [ 140.99840666588932, 13.004209374388864 ], [ 142.734410248091876, 11.858188469900181 ], [ 144.455827137884853, 10.701679104618567 ], [ 146.164108337020338, 9.535805375903079 ], [ 147.860709755962205, 8.361667938486139 ], [ 149.547090264309674, 7.180346415809073 ], [ 151.224710254742689, 5.992901892131199 ], [ 152.895030645571524, 4.800379467433252 ], [ 154.559512250734798, 3.603810860213391 ], [ 156.219615449971315, 2.404217046477598 ], [ 157.876800094729134, 1.202610924662971 ], [ 159.532525588510026, -0.000000001210961 ], [ 160.165106850534244, -1.946096651560535 ], [ 160.799150391655701, -3.8919557185225 ], [ 161.436131321364257, -5.837337446327082 ], [ 162.077550634301986, -7.78199769400094 ], [ 162.724948719998167, -9.725685640272991 ], [ 163.379919570744732, -11.668141362044654 ], [ 164.044125950326361, -13.609093238218549 ], [ 164.719315813437817, -15.548255125220509 ], [ 165.407340301391969, -17.485323243220417 ], [ 166.110173685471125, -19.419972702571084 ], [ 166.829935686720916, -21.351853587889 ], [ 167.568916672281489, -23.280586501914229 ], [ 168.329606316145117, -25.205757452055675 ], [ 169.114726419728271, -27.126911938382168 ], [ 169.927268718673389, -29.04354807151136 ], [ 170.770538661284746, -30.955108510775894 ], [ 171.648206335951784, -32.860970965155907 ], [ 172.56436595513037, -34.760436939131729 ], [ 173.523605577060948, -36.652718329480685 ], [ 174.531089067283261, -38.536921382869238 ], [ 175.592652670870621, -40.412027402537959 ], [ 176.714918977203325, -42.276869438828001 ], [ 177.905431493301933, -44.130104004744815 ], [ 179.172813457244843, -45.970176614861458 ], [ 179.995, -47.07831434095209 ], [ 179.995, -59.639884958800394 ], [ 179.630372378289422, -59.671681710580216 ] ] ] ] } }
]
}
