{
"type": "FeatureCollection",
"name": "dggrid_fuller4t_0",
"crs": { "type": "name", "properties": { "name": "urn:ogc:def:crs:OGC:1.3:CRS84" } },
"features": [
{ "type": "Feature", "properties": { "global_id": "1" }, "geometry": { "type": "MultiPolygon", "coordinates": [ [ [ [ -166.564532551110204, 56.607645238742236 ], [ -164.566537254301124, 54.897732517920836 ], [ -162.732691127059638, 53.157726219464209 ], [ -161.042760207867673, 51.391758680272133 ], [ -159.479231517758166, 49.603300623330497 ], [ -158.026954837560254, 47.795279640567713 ], [ -156.672813457943448, 45.970176611984115 ], [ -155.405431494024867, 44.130104001880596 ], [ -154.214918977941096, 42.276869435977481 ], [ -153.092652671615269, 40.412027399701572 ], [ -152.031089068028024, 38.536921380047318 ], [ -151.023605577773651, 36.652718326683569 ], [ -150.064365955833097, 34.760436936348974 ], [ -149.1482063366403, 32.860970962387697 ], [ -148.270538661955356, 30.955108508022377 ], [ -147.42726871932291, 29.043548068772658 ], [ -146.614726420353918, 27.126911935658391 ], [ -145.829606316744361, 25.205757449346933 ], [ -145.068916672852083, 23.280586499220618 ], [ -144.329935687236343, 21.351853585217114 ], [ -143.610173685954038, 19.419972699914194 ], [ -142.907340301840549, 17.485323240578658 ], [ -142.219315813850415, 15.54825512259403 ], [ -141.544125950701329, 13.609093235607515 ], [ -140.879919571080563, 11.668141359449246 ], [ -140.224948720293384, 9.725685637693404 ], [ -139.577550634529445, 7.781997691441643 ], [ -138.936131321547691, 5.837337443783796 ], [ -138.299150391793574, 3.891955715995501 ], [ -137.66510685062309, 1.946096649055797 ], [ -137.032525588557036, -0.000000001277786 ], [ -135.376800094763354, 1.202610924599587 ], [ -133.719615450010934, 2.404217046410015 ], [ -132.059512250772826, 3.603810860142592 ], [ -130.395030645608074, 4.800379467359421 ], [ -128.724710254789528, 5.992901892076947 ], [ -127.047090264355148, 7.180346415751665 ], [ -125.360709756006372, 8.361667938425756 ], [ -123.664108337063226, 9.535805375839885 ], [ -121.955827137926505, 10.701679104552708 ], [ -120.234410248132363, 11.858188469831795 ], [ -118.49840666592867, 13.004209374318068 ], [ -116.746372840132935, 14.138591969230646 ], [ -114.976875886555945, 15.260158474178757 ], [ -113.188497564133996, 16.367701156478244 ], [ -111.379839097654596, 17.459980506210123 ], [ -109.549526934046682, 18.535723649061421 ], [ -107.696219516990723, 19.593623045175026 ], [ -105.818615159343594, 20.632335528684756 ], [ -103.915461083719933, 21.650481749151783 ], [ -101.985563687603957, 22.646646082514515 ], [ -100.027800069605632, 23.619377085108987 ], [ -98.041130826946031, 24.567188569424594 ], [ -96.024614100054052, 25.488561384057089 ], [ -93.977420797544113, 26.381945982248887 ], [ -91.89885088338157, 27.245765862828016 ], [ -89.788350547738716, 28.078421963571476 ], [ -87.645530014526415, 28.878298079294947 ], [ -85.470181663288486, 29.643767364590087 ], [ -83.262298063474333, 30.373199963449515 ], [ -81.022089438571456, 31.064971784546653 ], [ -78.750000000938542, 31.717474411444847 ], [ -80.189979331619739, 33.364886984465493 ], [ -81.685251673816964, 34.995037433405251 ], [ -83.24094746995722, 36.606112389047595 ], [ -84.862583846437815, 38.196108734788695 ], [ -86.556082698703861, 39.762810250070991 ], [ -88.327781762176215, 41.303762047119037 ], [ -90.184435120765144, 42.816242901552222 ], [ -92.13319847795141, 44.297235756617475 ], [ -94.181593166792737, 45.743396940634121 ], [ -96.337441328084765, 47.151025000397034 ], [ -98.608763031759835, 48.516030545130981 ], [ -101.003624543098923, 49.833909138001538 ], [ -103.529925780388893, 51.099720076721361 ], [ -106.195114817316906, 52.308074859547879 ], [ -109.005818834692832, 53.453140183100665 ], [ -111.967385253622268, 54.52866134213113 ], [ -115.083335035946618, 55.528012681926796 ], [ -118.354743316176098, 56.444281962876957 ], [ -121.779580932326255, 57.270394701488485 ], [ -125.352072893671419, 57.999282279462257 ], [ -129.062152928714966, 58.624093488491766 ], [ -132.895110872207937, 59.138443150406623 ], [ -136.831533590640021, 59.536684044144948 ], [ -140.847622457203016, 59.814180849644558 ], [ -144.915927112164098, 59.967559109305284 ], [ -149.006470380593584, 59.994900422333842 ], [ -153.088166301004605, 59.895858730375906 ], [ -157.130372379398352, 59.671681707714527 ], [ -161.104387754535139, 59.325134235845795 ], [ -164.984720930806446, 58.860334654046284 ], [ -168.749999999973028, 58.282525587054067 ], [ -166.564532551110204, 56.607645238742236 ] ] ] ] } },
{ "type": "Feature", "properties": { "global_id": "10" }, "geometry": { "type": "MultiPolygon", "coordinates": [ [ [ [ 179.630372379397841, 59.671681707725938 ], [ 175.588166301002389, 59.895858730391303 ], [ 171.506470380596198, 59.99490042232317 ], [ 167.415927112166429, 59.967559109298463 ], [ 163.347622457204324, 59.81418084964163 ], [ 159.331533590639509, 59.536684044145922 ], [ 155.395110872204896, 59.138443150411454 ], [ 151.56215292870877, 58.624093488500392 ], [ 147.852072893661614, 57.999282279474585 ], [ 144.279580932337581, 57.270394701475375 ], [ 140.854743316184681, 56.444281962867734 ], [ 137.58333503595199, 55.528012681921346 ], [ 134.467385253624116, 54.52866134212934 ], [ 131.505818834690956, 53.45314018310242 ], [ 128.695114817311207, 52.308074859553045 ], [ 126.029925780379358, 51.099720076729824 ], [ 123.503624543085593, 49.833909138013169 ], [ 121.108763031772128, 48.516030545120366 ], [ 118.837441328093192, 47.151025000389815 ], [ 116.681593166797342, 45.743396940630184 ], [ 114.63319847795232, 44.297235756616701 ], [ 112.684435120762501, 42.816242901554496 ], [ 110.827781762170176, 41.303762047124252 ], [ 109.05608269869461, 39.762810250079042 ], [ 107.362583846450917, 38.196108734777177 ], [ 105.74094746996677, 36.606112389039119 ], [ 104.185251673823132, 34.995037433399709 ], [ 102.689979331622723, 33.364886984462771 ], [ 101.250000000932971, 31.717474411449988 ], [ 99.810020670376289, 33.364886984538423 ], [ 98.314748328297469, 34.995037433563368 ], [ 96.759052532276925, 36.606112389287922 ], [ 95.137416155916853, 38.196108735114414 ], [ 93.443917303804156, 39.762810250479312 ], [ 91.672218240453674, 41.303762047620005 ], [ 89.815564881985381, 42.816242902149632 ], [ 87.866801524917435, 44.297235757315264 ], [ 85.818406836190704, 45.743396941436373 ], [ 83.662558675007801, 47.151025001307907 ], [ 81.391236971434367, 48.516030546154681 ], [ 78.996375460230766, 49.833909139139777 ], [ 76.470074223021172, 51.099720077981395 ], [ 73.804885186157136, 52.308074860933488 ], [ 70.994181168824966, 53.453140184615187 ], [ 68.032614749914828, 54.52866134377723 ], [ 64.916664967580843, 55.528012683706272 ], [ 61.645256687308368, 56.444281964790463 ], [ 58.220419071077714, 57.27039470353526 ], [ 54.647927109665773, 57.999282281646607 ], [ 50.937847074457885, 58.62409349080415 ], [ 47.104889130756412, 59.138443152840743 ], [ 43.16846641207308, 59.536684046692386 ], [ 39.152377545219885, 59.814180852294861 ], [ 35.084072889935719, 59.96755911204616 ], [ 30.993529621158302, 59.994900425151506 ], [ 26.911833700431593, 59.89585873327227 ], [ 22.869627621667021, 59.67168171065871 ], [ 18.89561224616418, 59.325134238822407 ], [ 15.015279069554001, 58.860334657038635 ], [ 11.250000000047709, 58.282525590045339 ], [ 11.250000000071484, 60.328814261750466 ], [ 11.25000000008337, 62.375102933457079 ], [ 11.250000000096753, 64.421391605163791 ], [ 11.250000000112088, 66.467680276870595 ], [ 11.250000000061519, 68.513968948581009 ], [ 11.250000000076982, 70.560257620287643 ], [ 11.250000000095607, 72.606546291994363 ], [ 11.250000000118735, 74.652834963701167 ], [ 11.25000000014853, 76.699123635408071 ], [ 11.250000000188718, 78.74541230711506 ], [ 11.250000000246338, 80.791700978822135 ], [ 11.250000000147804, 82.837989650530403 ], [ 11.250000000235501, 84.884278322237321 ], [ 11.250000000438963, 86.930566993944311 ], [ 11.250000001453687, 88.976855665651399 ], [ 179.995, 88.976855662829649 ], [ 179.995, 59.639884956036155 ], [ 179.630372379397841, 59.671681707725938 ] ] ], [ [ [ -168.750000001588774, 88.976855662641441 ], [ -168.750000000574317, 86.930566990934196 ], [ -168.750000000371443, 84.88427831922688 ], [ -168.750000000284615, 82.837989647519464 ], [ -168.750000000088818, 80.791700975813413 ], [ -168.750000000084327, 78.745412304106168 ], [ -168.750000000081315, 76.699123632398823 ], [ -168.75000000007924, 74.652834960691408 ], [ -168.750000000077847, 72.606546288983893 ], [ -168.750000000076966, 70.560257617276292 ], [ -168.750000000076511, 68.513968945568593 ], [ -168.750000000012676, 66.467680273864687 ], [ -168.750000000016769, 64.421391602157172 ], [ -168.750000000020464, 62.375102930449557 ], [ -168.750000000023874, 60.328814258741851 ], [ -168.750000000028507, 58.282525587047118 ], [ -172.515279069193042, 58.860334654049957 ], [ -176.395612245464491, 59.325134235853284 ], [ -179.995, 59.639012922490338 ], [ -179.995, 88.976855662829479 ], [ -168.750000001588774, 88.976855662641441 ] ] ] ] } },
{ "type": "Feature", "properties": { "global_id": "11" }, "geometry": { "type": "MultiPolygon", "coordinates": [ [ [ [ -137.665106850539587, -1.946096651554416 ], [ -138.299150391666302, -3.891955718509954 ], [ -138.936131321378156, -5.837337446313714 ], [ -139.577550634319067, -7.781997693986681 ], [ -140.224948719993108, -9.725685640262299 ], [ -140.879919570742999, -11.668141362033214 ], [ -141.544125950327924, -13.609093238206293 ], [ -142.219315813442591, -15.548255125207366 ], [ -142.907340301399898, -17.485323243206309 ], [ -143.610173685482209, -19.419972702555931 ], [ -144.329935686735098, -21.351853587872718 ], [ -145.068916672274327, -23.280586501903585 ], [ -145.829606316141025, -25.205757452044107 ], [ -146.614726419727276, -27.126911938369592 ], [ -147.427268718675492, -29.043548071497682 ], [ -148.270538661290004, -30.955108510761015 ], [ -149.148206335960253, -32.860970965139721 ], [ -150.064365955142136, -34.760436939114115 ], [ -151.023605577076125, -36.652718329461514 ], [ -152.031089067274905, -38.536921382859035 ], [ -153.092652670865391, -40.412027402526512 ], [ -154.214918977201279, -42.276869438815183 ], [ -155.405431493303212, -44.130104004730484 ], [ -156.672813457249561, -45.970176614845435 ], [ -158.026954836905617, -47.795279643439528 ], [ -159.479231517156563, -49.603300626211599 ], [ -161.042760207270931, -51.391758683192926 ], [ -162.73269112655052, -53.157726222392768 ], [ -164.566537253903732, -54.897732520854753 ], [ -166.56453255085367, -56.607645241678384 ], [ -168.749999999910727, -58.282525589978064 ], [ -164.984720930411044, -58.860334656970139 ], [ -161.104387753805469, -59.32513423874596 ], [ -157.130372378311392, -59.671681710581431 ], [ -153.088166299556093, -59.895858733194508 ], [ -149.006470378838969, -59.994900425073652 ], [ -144.915927110071152, -59.967559111968619 ], [ -140.847622454796323, -59.814180852218023 ], [ -136.831533587952009, -59.536684046616614 ], [ -132.895110869276834, -59.138443152766371 ], [ -129.062152925582637, -58.624093490731489 ], [ -125.352072890381081, -57.999282281575908 ], [ -121.77958092897444, -57.270394703466735 ], [ -118.354743312748084, -56.444281964724269 ], [ -115.083335032478914, -55.52801268364253 ], [ -111.967385250147331, -54.52866134371601 ], [ -109.005818831238741, -53.453140184556531 ], [ -106.195114813907409, -52.308074860877419 ], [ -103.529925777043573, -51.099720077927898 ], [ -101.003624539833609, -49.833909139088824 ], [ -98.608763028629198, -48.516030546106236 ], [ -96.337441325054542, -47.151025001261921 ], [ -94.181593163870133, -45.743396941392774 ], [ -92.133198475141612, -44.297235757274009 ], [ -90.184435118071676, -42.816242902110638 ], [ -88.327781759601237, -41.30376204758322 ], [ -86.556082696248481, -39.762810250444666 ], [ -84.862583844133411, -38.196108735081843 ], [ -83.240947467770894, -36.606112389257369 ], [ -81.685251671747849, -34.995037433534769 ], [ -80.189979329659764, -33.36488698451592 ], [ -78.749999999086782, -31.717474411418848 ], [ -81.022089436756232, -31.064971784634391 ], [ -83.262298061699894, -30.373199963649483 ], [ -85.470181661565533, -29.643767364902157 ], [ -87.645530012858444, -28.878298079717108 ], [ -89.788350546157261, -28.078421964106994 ], [ -91.898850881860952, -27.245765863468829 ], [ -93.977420796086292, -26.381945982992654 ], [ -96.024614098660592, -25.488561384901409 ], [ -98.041130825618012, -24.567188570367012 ], [ -100.02780006834378, -23.619377086147015 ], [ -101.985563686408625, -22.646646083645656 ], [ -103.915461082621604, -21.650481750375899 ], [ -105.818615158311658, -20.632335529996531 ], [ -107.69621951602457, -19.593623046571974 ], [ -109.549526933145501, -18.535723650541069 ], [ -111.379839096817321, -17.45998050777003 ], [ -113.188497563359334, -16.367701158115995 ], [ -114.976875885842475, -15.260158475891965 ], [ -116.746372839479037, -14.138591971016952 ], [ -118.498406665363092, -13.004209376174378 ], [ -120.234410247622563, -11.858188471756272 ], [ -121.95582713747045, -10.701679106543112 ], [ -123.664108336658771, -9.535805377894009 ], [ -125.360709755651257, -8.361667940541421 ], [ -127.047090264047029, -7.180346417926721 ], [ -128.724710254525974, -5.992901894309263 ], [ -130.395030645415659, -4.800379469644263 ], [ -132.059512250619605, -3.60381086248031 ], [ -133.719615449894178, -2.404217048798548 ], [ -135.376800094687354, -1.202610927036105 ], [ -137.032525588504882, -0.000000001206223 ], [ -137.665106850539587, -1.946096651554416 ] ] ] ] } },
{ "type": "Feature", "properties": { "global_id": "12" }, "geometry": { "type": "MultiPolygon", "coordinates": [ [ [ [ -81.022089438504565, 31.064971784592224 ], [ -83.262298063394041, 30.373199963493889 ], [ -85.470181663209615, 29.643767364636187 ], [ -87.645530014448966, 28.878298079342684 ], [ -89.788350547662688, 28.078421963620762 ], [ -91.898850883306949, 27.245765862878766 ], [ -93.977420797470884, 26.381945982301005 ], [ -96.024614099982202, 25.48856138411049 ], [ -98.041130826875516, 24.567188569479189 ], [ -100.027800069536426, 23.619377085164686 ], [ -101.985563687536015, 22.64664608257123 ], [ -103.915461083653213, 21.65048174920943 ], [ -105.818615159278053, 20.632335528743241 ], [ -107.696219516926291, 19.593623045234271 ], [ -109.549526933983316, 18.535723649121337 ], [ -111.379839097592239, 17.459980506270629 ], [ -113.188497564072577, 16.367701156539262 ], [ -114.976875886495435, 15.260158474240203 ], [ -116.746372840073249, 14.138591969292442 ], [ -118.498406665869766, 13.004209374380139 ], [ -120.234410248074155, 11.858188469894065 ], [ -121.955827137868951, 10.701679104615106 ], [ -123.66410833700624, 9.535805375902337 ], [ -125.360709755949912, 8.361667938488193 ], [ -127.047090264299143, 7.180346415814019 ], [ -128.724710254733907, 5.99290189213915 ], [ -130.395030645552765, 4.800379467421409 ], [ -132.059512250717802, 3.603810860204301 ], [ -133.719615449956109, 2.404217046471384 ], [ -135.376800094721659, 1.202610924659777 ], [ -137.032525588504882, -0.000000001206223 ], [ -135.376800094687354, -1.202610927036105 ], [ -133.719615449894178, -2.404217048798549 ], [ -132.059512250619605, -3.60381086248031 ], [ -130.395030645415659, -4.800379469644263 ], [ -128.724710254526002, -5.992901894309264 ], [ -127.047090264047029, -7.180346417926722 ], [ -125.360709755651257, -8.361667940541423 ], [ -123.664108336658771, -9.535805377894009 ], [ -121.95582713747045, -10.701679106543112 ], [ -120.234410247622563, -11.858188471756272 ], [ -118.498406665363092, -13.004209376174378 ], [ -116.746372839479037, -14.138591971016954 ], [ -114.976875885842475, -15.260158475891965 ], [ -113.188497563359334, -16.367701158115995 ], [ -111.379839096817321, -17.459980507770034 ], [ -109.549526933145501, -18.535723650541073 ], [ -107.696219516024584, -19.593623046571974 ], [ -105.818615158311658, -20.632335529996531 ], [ -103.915461082621604, -21.650481750375899 ], [ -101.985563686408625, -22.64664608364566 ], [ -100.02780006834378, -23.619377086147018 ], [ -98.041130825618012, -24.567188570367012 ], [ -96.024614098660592, -25.488561384901409 ], [ -93.977420796086307, -26.381945982992658 ], [ -91.898850881860952, -27.245765863468833 ], [ -89.788350546157261, -28.078421964106994 ], [ -87.645530012858444, -28.878298079717112 ], [ -85.470181661565533, -29.643767364902157 ], [ -83.262298061699894, -30.373199963649483 ], [ -81.022089436756232, -31.064971784634391 ], [ -78.749999999086782, -31.717474411418848 ], [ -78.749999999151996, -29.671185739724123 ], [ -78.749999999215575, -27.624897068016413 ], [ -78.749999999276923, -25.578608396308802 ], [ -78.749999999336296, -23.53231972460129 ], [ -78.749999999420879, -21.486031052897378 ], [ -78.749999999476245, -19.439742381189681 ], [ -78.749999999530331, -17.393453709482078 ], [ -78.749999999583295, -15.347165037774568 ], [ -78.749999999635293, -13.300876366067145 ], [ -78.749999999686466, -11.25458769435981 ], [ -78.749999999736943, -9.208299022652557 ], [ -78.749999999810555, -7.162010350946507 ], [ -78.749999999859824, -5.115721679239097 ], [ -78.749999999908823, -3.06943300753177 ], [ -78.749999999957652, -1.023144335824527 ], [ -78.750000000006423, 1.023144335882635 ], [ -78.750000000055252, 3.069433007589714 ], [ -78.750000000104251, 5.115721679296711 ], [ -78.75000000015352, 7.162010351003624 ], [ -78.750000000227132, 9.208299022711897 ], [ -78.750000000277609, 11.254587694418968 ], [ -78.750000000328782, 13.300876366125955 ], [ -78.75000000038078, 15.347165037832855 ], [ -78.750000000433744, 17.393453709539667 ], [ -78.75000000048783, 19.43974238124639 ], [ -78.750000000543196, 21.486031052953017 ], [ -78.750000000627779, 23.532319724663427 ], [ -78.750000000687152, 25.578608396370235 ], [ -78.750000000748514, 27.624897068076951 ], [ -78.750000000812079, 29.671185739783564 ], [ -78.750000000870074, 31.717474411488691 ], [ -81.022089438504565, 31.064971784592224 ] ] ] ] } },
{ "type": "Feature", "properties": { "global_id": "13" }, "geometry": { "type": "MultiPolygon", "coordinates": [ [ [ [ -80.18997932962742, -33.364886984530912 ], [ -81.68525167170958, -34.995037433548006 ], [ -83.240947467733406, -36.606112389270578 ], [ -84.862583844096633, -38.196108735094974 ], [ -86.556082696184561, -39.762810250471318 ], [ -88.327781759538254, -41.303762047610164 ], [ -90.184435118009588, -42.816242902137844 ], [ -92.13319847508042, -44.297235757301429 ], [ -94.181593163809836, -45.743396941420372 ], [ -96.337441324995197, -47.151025001289625 ], [ -98.608763028570849, -48.51603054613399 ], [ -101.003624539751968, -49.833909139134079 ], [ -103.529925776963921, -51.099720077973672 ], [ -106.195114813830003, -52.308074860923639 ], [ -109.005818831163893, -53.453140184603079 ], [ -111.967385250075367, -54.528661343762764 ], [ -115.083335032410176, -55.528012683689333 ], [ -118.354743312682913, -56.444281964770951 ], [ -121.779580928913163, -57.270394703513091 ], [ -125.352072890311746, -57.99928228164449 ], [ -129.062152925520394, -58.624093490799822 ], [ -132.895110869222009, -59.138443152834121 ], [ -136.831533587904801, -59.536684046683412 ], [ -140.847622454756731, -59.814180852283499 ], [ -144.915927110038893, -59.96755911203239 ], [ -149.006470378813503, -59.994900425135349 ], [ -153.088166299548419, -59.895858733278828 ], [ -157.130372378312558, -59.671681710662938 ], [ -161.104387753814223, -59.32513423882429 ], [ -164.984720930435714, -58.860334657039999 ], [ -168.749999999932726, -58.282525590037864 ], [ -168.749999999928463, -60.328814261744974 ], [ -168.7499999999159, -62.375102933445895 ], [ -168.749999999909619, -64.421391605152976 ], [ -168.749999999902315, -66.467680276860079 ], [ -168.749999999893703, -68.513968948567197 ], [ -168.749999999883386, -70.560257620274328 ], [ -168.749999999870738, -72.606546291981459 ], [ -168.74999999985485, -74.652834963688619 ], [ -168.749999999834188, -76.699123635395793 ], [ -168.749999999806164, -78.745412307102981 ], [ -168.74999999976589, -80.791700978810184 ], [ -168.749999999702851, -82.8379896505174 ], [ -168.749999999589676, -84.884278322224631 ], [ -168.749999999326207, -86.930566993931876 ], [ -168.749999998010537, -88.976855665639135 ], [ 11.249999998044098, -88.976855662653591 ], [ 11.24999999935978, -86.930566990946303 ], [ 11.249999999623252, -84.884278319239016 ], [ 11.24999999973641, -82.8379896475317 ], [ 11.249999999799464, -80.791700975824384 ], [ 11.249999999839741, -78.745412304117067 ], [ 11.249999999867761, -76.699123632409723 ], [ 11.24999999988842, -74.652834960702378 ], [ 11.24999999990432, -72.606546288995034 ], [ 11.249999999916964, -70.560257617287675 ], [ 11.249999999927285, -68.513968945580316 ], [ 11.249999999935886, -66.467680273872944 ], [ 11.249999999943183, -64.421391602165585 ], [ 11.249999999949468, -62.375102930458212 ], [ 11.249999999962025, -60.328814258746014 ], [ 11.249999999966304, -58.282525587038748 ], [ 7.484720930797279, -58.860334654031 ], [ 3.604387754526289, -59.32513423583007 ], [ -0.369627620609883, -59.671681707698347 ], [ -4.411833699002693, -59.895858730359265 ], [ -8.493529619404036, -59.99490042231669 ], [ -12.584072887832644, -59.967559109287983 ], [ -16.652377542792628, -59.814180849627128 ], [ -20.66846640935438, -59.536684044127426 ], [ -24.604889127785111, -59.138443150389058 ], [ -28.437847071276636, -58.624093488474237 ], [ -32.147927106318683, -57.999282279444841 ], [ -35.720419067659726, -57.270394701471851 ], [ -39.14525668380918, -56.444281962860529 ], [ -42.416664964037963, -55.528012681910617 ], [ -45.532614746361617, -54.528661342115278 ], [ -48.494181165290364, -53.453140183085218 ], [ -51.304885182665622, -52.308074859532923 ], [ -53.970074219593002, -51.099720076706973 ], [ -56.496375456882369, -49.83390913798781 ], [ -58.891236968223104, -48.516030545116728 ], [ -61.162558671897976, -47.151025000383292 ], [ -63.318406833189819, -45.743396940620975 ], [ -65.366801522030954, -44.297235756605005 ], [ -67.315564879217021, -42.816242901540498 ], [ -69.172218237805765, -41.30376204710813 ], [ -70.943917301277949, -39.76281025006098 ], [ -72.637416153547505, -38.196108734776161 ], [ -74.259052530028043, -36.606112389035793 ], [ -75.814748326168242, -34.995037433394259 ], [ -77.310020668365411, -33.364886984455367 ], [ -78.749999999045627, -31.717474411436754 ], [ -80.18997932962742, -33.364886984530912 ] ] ] ] } },
{ "type": "Feature", "properties": { "global_id": "14" }, "geometry": { "type": "MultiPolygon", "coordinates": [ [ [ [ -22.123199905236653, -1.202610924599592 ], [ -23.780384549989076, -2.40421704641002 ], [ -25.440487749227167, -3.603810860142597 ], [ -27.104969354391944, -4.800379467359427 ], [ -28.775289745210472, -5.992901892076953 ], [ -30.452909735644855, -7.180346415751671 ], [ -32.139290243993628, -8.361667938425763 ], [ -33.835891662936781, -9.535805375839891 ], [ -35.544172862073495, -10.701679104552714 ], [ -37.265589751867644, -11.8581884698318 ], [ -39.00159333407133, -13.004209374318073 ], [ -40.753627159867065, -14.138591969230651 ], [ -42.523124113444055, -15.260158474178763 ], [ -44.311502435866018, -16.367701156478251 ], [ -46.120160902345404, -17.459980506210126 ], [ -47.950473065953325, -18.535723649061424 ], [ -49.803780483009284, -19.593623045175033 ], [ -51.681384840656406, -20.632335528684759 ], [ -53.584538916280074, -21.65048174915179 ], [ -55.51443631239605, -22.646646082514522 ], [ -57.472199930394375, -23.61937708510899 ], [ -59.458869173053976, -24.567188569424598 ], [ -61.475385899945948, -25.488561384057093 ], [ -63.522579202455901, -26.38194598224889 ], [ -65.601149116618444, -27.245765862828023 ], [ -67.711649452261284, -28.078421963571483 ], [ -69.854469985473585, -28.878298079294954 ], [ -72.029818336711514, -29.643767364590094 ], [ -74.237701936525681, -30.373199963449519 ], [ -76.477910561428544, -31.064971784546657 ], [ -78.749999999045627, -31.717474411436754 ], [ -77.310020668365411, -33.364886984455367 ], [ -75.814748326168242, -34.995037433394259 ], [ -74.259052530028043, -36.606112389035793 ], [ -72.637416153547505, -38.196108734776161 ], [ -70.943917301277949, -39.76281025006098 ], [ -69.172218237805765, -41.30376204710813 ], [ -67.315564879217021, -42.816242901540498 ], [ -65.366801522030954, -44.297235756605005 ], [ -63.318406833189826, -45.743396940620975 ], [ -61.162558671897983, -47.151025000383292 ], [ -58.891236968223104, -48.516030545116728 ], [ -56.496375456882376, -49.83390913798781 ], [ -53.970074219593009, -51.09972007670698 ], [ -51.304885182665629, -52.308074859532923 ], [ -48.494181165290371, -53.453140183085225 ], [ -45.532614746361624, -54.528661342115278 ], [ -42.41666496403797, -55.528012681910624 ], [ -39.145256683809187, -56.444281962860529 ], [ -35.720419067659726, -57.270394701471858 ], [ -32.147927106318683, -57.999282279444849 ], [ -28.437847071276636, -58.624093488474237 ], [ -24.604889127785114, -59.138443150389065 ], [ -20.668466409354384, -59.536684044127426 ], [ -16.652377542792632, -59.814180849627128 ], [ -12.584072887832646, -59.967559109287983 ], [ -8.493529619404038, -59.99490042231669 ], [ -4.411833699002694, -59.895858730359272 ], [ -0.369627620609884, -59.671681707698347 ], [ 3.604387754526288, -59.32513423583007 ], [ 7.484720930797279, -58.860334654031 ], [ 11.249999999966304, -58.282525587038748 ], [ 9.064532551110192, -56.607645238742236 ], [ 7.066537254301116, -54.897732517920844 ], [ 5.232691127059627, -53.157726219464216 ], [ 3.542760207867659, -51.391758680272133 ], [ 1.97923151775816, -49.603300623330504 ], [ 0.526954837560257, -47.79527964056772 ], [ -0.827186542056545, -45.970176611984115 ], [ -2.094568505975131, -44.130104001880603 ], [ -3.285081022058914, -42.276869435977481 ], [ -4.407347328384741, -40.412027399701579 ], [ -5.468910931971974, -38.536921380047318 ], [ -6.476394422226352, -36.652718326683576 ], [ -7.435634044166909, -34.760436936348981 ], [ -8.3517936633597, -32.860970962387704 ], [ -9.229461338044636, -30.955108508022381 ], [ -10.072731280677084, -29.043548068772662 ], [ -10.885273579646086, -27.126911935658399 ], [ -11.670393683255657, -25.205757449346937 ], [ -12.431083327147931, -23.280586499220625 ], [ -13.170064312763664, -21.351853585217121 ], [ -13.889826314045969, -19.419972699914197 ], [ -14.592659698159448, -17.485323240578662 ], [ -15.280684186149603, -15.548255122594036 ], [ -15.955874049298664, -13.609093235607521 ], [ -16.620080428919429, -11.668141359449251 ], [ -17.27505127970662, -9.72568563769341 ], [ -17.922449365470552, -7.781997691441649 ], [ -18.563868678452312, -5.837337443783802 ], [ -19.200849608206436, -3.891955715995507 ], [ -19.834893149376917, -1.946096649055803 ], [ -20.467474411442961, 0.000000001277781 ], [ -22.123199905236653, -1.202610924599592 ] ] ] ] } },
{ "type": "Feature", "properties": { "global_id": "15" }, "geometry": { "type": "MultiPolygon", "coordinates": [ [ [ [ -176.395612246164177, -59.3251342388224 ], [ -172.515279069553998, -58.860334657038628 ], [ -168.750000000047692, -58.282525590045331 ], [ -168.750000000071481, -60.328814261750459 ], [ -168.750000000083361, -62.375102933457072 ], [ -168.750000000096747, -64.421391605163791 ], [ -168.750000000112095, -66.467680276870595 ], [ -168.750000000061505, -68.513968948581009 ], [ -168.750000000076966, -70.560257620287629 ], [ -168.750000000095611, -72.606546291994363 ], [ -168.750000000118717, -74.652834963701167 ], [ -168.750000000148532, -76.699123635408071 ], [ -168.75000000018872, -78.74541230711506 ], [ -168.750000000246331, -80.791700978822121 ], [ -168.750000000147793, -82.837989650530403 ], [ -168.750000000235474, -84.884278322237307 ], [ -168.750000000438916, -86.930566993944311 ], [ -168.7500000014536, -88.976855665651385 ], [ -179.995, -88.976855665463347 ], [ -179.995, -59.639012925336679 ], [ -176.395612246164177, -59.3251342388224 ] ] ], [ [ [ 11.250000001588671, -88.976855662641455 ], [ 11.250000000574294, -86.93056699093421 ], [ 11.25000000037142, -84.88427831922688 ], [ 11.250000000284601, -82.837989647519464 ], [ 11.250000000088823, -80.791700975813413 ], [ 11.250000000084324, -78.745412304106168 ], [ 11.250000000081306, -76.699123632398823 ], [ 11.250000000079238, -74.652834960691408 ], [ 11.250000000077844, -72.606546288983893 ], [ 11.250000000076968, -70.560257617276292 ], [ 11.250000000076517, -68.513968945568593 ], [ 11.250000000012681, -66.467680273864687 ], [ 11.25000000001676, -64.421391602157172 ], [ 11.250000000020453, -62.375102930449565 ], [ 11.250000000023885, -60.328814258741851 ], [ 11.250000000040211, -58.282525587032659 ], [ 15.015279069199652, -58.860334654034325 ], [ 18.895612245468325, -59.325134235837041 ], [ 22.869627620603119, -59.67168170770924 ], [ 26.911833698995654, -59.8958587303743 ], [ 30.993529619407386, -59.994900422306074 ], [ 35.084072887833777, -59.967559109281083 ], [ 39.152377542792671, -59.81418084962413 ], [ 43.168466409354508, -59.536684044128435 ], [ 47.104889127786471, -59.138443150394096 ], [ 50.937847071280288, -58.624093488483247 ], [ 54.647927106325575, -57.999282279457717 ], [ 58.220419067650731, -57.27039470145823 ], [ 61.645256683801769, -56.444281962851001 ], [ 64.916664964033004, -55.528012681905054 ], [ 68.032614746359826, -54.52866134211348 ], [ 70.994181165292289, -53.453140183086958 ], [ 73.804885182671654, -52.308074859537946 ], [ 76.470074219603433, -51.099720076715016 ], [ 78.996375456897354, -49.833909137998582 ], [ 81.391236968208943, -48.516030545107185 ], [ 83.662558671888078, -47.151025000377004 ], [ 85.818406833184298, -45.743396940617657 ], [ 87.866801522029846, -44.297235756604373 ], [ 89.815564879220304, -42.816242901542282 ], [ 91.672218237813354, -41.303762047112052 ], [ 93.44391730128973, -39.762810250066771 ], [ 95.137416153530623, -38.196108734768245 ], [ 96.759052530015623, -36.606112389030237 ], [ 98.314748326160128, -34.995037433390792 ], [ 99.810020668361446, -33.364886984453747 ], [ 101.249999999053088, -31.717474411439671 ], [ 102.689979329623711, -33.364886984538423 ], [ 104.185251671702531, -34.995037433563375 ], [ 105.740947467723075, -36.606112389287929 ], [ 107.362583844083161, -38.196108735114414 ], [ 109.056082696195844, -39.762810250479312 ], [ 110.827781759546326, -41.303762047620005 ], [ 112.684435118014619, -42.816242902149632 ], [ 114.633198475082565, -44.297235757315264 ], [ 116.68159316380931, -45.743396941436373 ], [ 118.837441324992199, -47.151025001307907 ], [ 121.108763028565647, -48.516030546154681 ], [ 123.503624539769248, -49.833909139139777 ], [ 126.029925776978843, -51.099720077981395 ], [ 128.695114813842878, -52.308074860933488 ], [ 131.505818831175048, -53.453140184615179 ], [ 134.467385250085186, -54.52866134377723 ], [ 137.583335032419171, -55.528012683706272 ], [ 140.854743312691653, -56.444281964790463 ], [ 144.279580928922286, -57.27039470353526 ], [ 147.852072890334227, -57.9992822816466 ], [ 151.562152925542108, -58.62409349080415 ], [ 155.395110869243609, -59.138443152840736 ], [ 159.331533587926913, -59.536684046692386 ], [ 163.347622454780122, -59.814180852294861 ], [ 167.415927110064302, -59.967559112046153 ], [ 171.506470378841698, -59.994900425151499 ], [ 175.588166299568428, -59.895858733272263 ], [ 179.630372378332993, -59.67168171065871 ], [ 179.995, -59.639884958882327 ], [ 179.995, -88.976855665463177 ], [ 11.250000001588671, -88.976855662641455 ] ] ] ] } },
{ "type": "Feature", "properties": { "global_id": "16" }, "geometry": { "type": "MultiPolygon", "coordinates": [ [ [ [ 42.334893149378644, -1.946096649050594 ], [ 41.700849608210234, -3.891955715984983 ], [ 41.063868678453062, -5.837337443772675 ], [ 40.422449365468353, -7.781997691429862 ], [ 39.77505127972681, -9.725685637685432 ], [ 39.120080428936497, -11.668141359440778 ], [ 38.455874049312698, -13.609093235598495 ], [ 37.780684186160656, -15.548255122584393 ], [ 37.092659698167566, -17.485323240568338 ], [ 36.389826314051163, -19.419972699903116 ], [ 35.670064312765938, -21.351853585205205 ], [ 34.931083327171784, -23.28058649921465 ], [ 34.170393683276636, -25.205757449340343 ], [ 33.385273579664187, -27.126911935651105 ], [ 32.572731280692281, -29.043548068764583 ], [ 31.729461338056872, -30.955108508013417 ], [ 30.851793663368909, -32.860970962377749 ], [ 29.935634044173, -34.760436936337918 ], [ 28.976394422229212, -36.652718326671277 ], [ 27.968910931998511, -38.536921380044305 ], [ 26.907347328408338, -40.412027399697635 ], [ 25.785081022079456, -42.276869435972479 ], [ 24.594568505992481, -44.130104001874386 ], [ 23.327186542070539, -45.970176611976513 ], [ 21.973045162450205, -47.79527964055854 ], [ 20.520768482248574, -49.603300623319541 ], [ 18.957239792167492, -51.391758680275125 ], [ 17.267308872972318, -53.157726219465921 ], [ 15.433462745727422, -54.897732517921042 ], [ 13.435467448904543, -56.607645238742705 ], [ 11.250000000040211, -58.282525587032659 ], [ 15.01527906919965, -58.860334654034325 ], [ 18.895612245468321, -59.325134235837041 ], [ 22.869627620603119, -59.67168170770924 ], [ 26.91183369899565, -59.8958587303743 ], [ 30.993529619407383, -59.994900422306074 ], [ 35.08407288783377, -59.967559109281083 ], [ 39.152377542792671, -59.814180849624137 ], [ 43.168466409354508, -59.536684044128435 ], [ 47.104889127786464, -59.138443150394096 ], [ 50.937847071280288, -58.624093488483254 ], [ 54.647927106325575, -57.999282279457717 ], [ 58.220419067650731, -57.27039470145823 ], [ 61.645256683801769, -56.444281962851008 ], [ 64.916664964033004, -55.528012681905061 ], [ 68.032614746359826, -54.52866134211348 ], [ 70.994181165292289, -53.453140183086965 ], [ 73.804885182671654, -52.308074859537946 ], [ 76.470074219603433, -51.099720076715016 ], [ 78.996375456897354, -49.833909137998582 ], [ 81.391236968208943, -48.516030545107192 ], [ 83.662558671888078, -47.151025000377011 ], [ 85.818406833184298, -45.743396940617664 ], [ 87.866801522029846, -44.29723575660438 ], [ 89.815564879220304, -42.816242901542282 ], [ 91.672218237813354, -41.303762047112052 ], [ 93.44391730128973, -39.762810250066778 ], [ 95.137416153530623, -38.196108734768245 ], [ 96.759052530015623, -36.606112389030237 ], [ 98.314748326160128, -34.995037433390792 ], [ 99.810020668361446, -33.364886984453747 ], [ 101.249999999053088, -31.717474411439671 ], [ 98.97791056143582, -31.064971784541438 ], [ 96.737701936540688, -30.373199963439447 ], [ 94.5298183367278, -29.643767364577069 ], [ 92.354469985491278, -28.878298079279141 ], [ 90.211649452272837, -28.078421963577433 ], [ 88.101149116631035, -27.245765862830904 ], [ 86.022579202469686, -26.381945982248858 ], [ 83.975385899961054, -25.48856138405429 ], [ 81.958869173070525, -24.567188569419152 ], [ 79.972199930412458, -23.619377085101018 ], [ 78.014436312415796, -22.64664608250413 ], [ 76.084538916290143, -21.650481749160093 ], [ 74.181384840667874, -20.632335528690451 ], [ 72.303780483022237, -19.593623045178202 ], [ 70.450473065967856, -18.53572364906216 ], [ 68.620160902361619, -17.459980506208503 ], [ 66.811502435883995, -16.367701156474329 ], [ 65.023124113463879, -15.260158474172599 ], [ 63.253627159888836, -14.138591969222281 ], [ 61.50159333408039, -13.004209374326352 ], [ 59.765589751878423, -11.858188469837769 ], [ 58.044172862086079, -10.701679104556407 ], [ 56.335891662951269, -9.535805375841329 ], [ 54.639290244010134, -8.361667938424958 ], [ 52.952909735663496, -7.180346415748624 ], [ 51.275289745231362, -5.992901892071648 ], [ 49.604969354397149, -4.800379467370235 ], [ 47.940487749234336, -3.603810860151153 ], [ 46.280384549998338, -2.404217046416304 ], [ 44.623199905241115, -1.202610924602791 ], [ 42.967474411455051, 0.000000001281709 ], [ 42.334893149378644, -1.946096649050594 ] ] ] ] } },
{ "type": "Feature", "properties": { "global_id": "17" }, "geometry": { "type": "MultiPolygon", "coordinates": [ [ [ [ -179.473045163102711, -47.79527964345742 ], [ -178.020768482855516, -49.603300626231565 ], [ -176.457239792712727, -51.391758683199214 ], [ -174.767308873436264, -53.157726222400612 ], [ -172.93346274608632, -54.897732520864366 ], [ -170.935467449140759, -56.607645241682938 ], [ -168.750000000096747, -58.282525589990158 ], [ -172.515279069599188, -58.860334656971574 ], [ -176.395612246215876, -59.325134238748518 ], [ -179.995, -59.639012925254754 ], [ -179.995, -47.091792276535614 ], [ -179.473045163102711, -47.79527964345742 ] ] ], [ [ [ 179.630372378289422, -59.671681710580216 ], [ 175.588166299534294, -59.895858733189606 ], [ 171.506470378811912, -59.994900425090293 ], [ 167.415927110043413, -59.967559111981203 ], [ 163.347622454768725, -59.814180852226663 ], [ 159.331533587925293, -59.536684046621431 ], [ 155.395110869251766, -59.138443152767508 ], [ 151.562152925559843, -58.624093490729081 ], [ 147.852072890361029, -57.99928228157011 ], [ 144.279580928939112, -57.270394703479013 ], [ 140.8547433127153, -56.444281964732966 ], [ 137.583335032449099, -55.528012683647809 ], [ 134.46738525012077, -54.528661343718035 ], [ 131.505818831215635, -53.453140184555444 ], [ 128.695114813887898, -52.30807486087334 ], [ 126.029925777027728, -51.099720077920935 ], [ 123.503624539821473, -49.833909139079068 ], [ 121.108763028599, -48.516030546112532 ], [ 118.837441325027996, -47.151025001265431 ], [ 116.681593163847225, -45.74339694139357 ], [ 114.633198475122342, -44.297235757272134 ], [ 112.684435118056015, -42.816242902106126 ], [ 110.827781759589143, -41.303762047576072 ], [ 109.05608269623994, -39.76281025043486 ], [ 107.362583844106567, -38.196108735088529 ], [ 105.740947467747517, -36.606112389261561 ], [ 104.185251671727912, -34.995037433536432 ], [ 102.6899793296501, -33.364886984516758 ], [ 101.24999999908583, -31.717474411411903 ], [ 103.522089436756858, -31.064971784638036 ], [ 105.762298061701443, -30.373199963656855 ], [ 107.970181661568276, -29.64376736491332 ], [ 110.14553001286265, -28.878298079732104 ], [ 112.288350546153993, -28.078421964096638 ], [ 114.398850881858635, -27.245765863462221 ], [ 116.477420796085212, -26.381945982989823 ], [ 118.524614098660976, -25.488561384902354 ], [ 120.541130825620115, -24.567188570371719 ], [ 122.52780006834783, -23.619377086155449 ], [ 124.485563686414807, -22.646646083657757 ], [ 126.415461082614584, -21.650481750362982 ], [ 128.318615158306415, -20.632335529987397 ], [ 130.196219516021301, -19.593623046566556 ], [ 132.049526933144364, -18.535723650539289 ], [ 133.879839096818472, -17.459980507771789 ], [ 135.688497563362944, -16.367701158121182 ], [ 137.476875885848642, -15.260158475900461 ], [ 139.246372839487833, -14.13859197102863 ], [ 140.998406665354764, -13.004209376163747 ], [ 142.734410247616694, -11.858188471749063 ], [ 144.455827137467168, -10.701679106539196 ], [ 146.164108336658103, -9.535805377893242 ], [ 147.860709755653261, -8.36166794054366 ], [ 149.547090264051747, -7.180346417931814 ], [ 151.22471025453342, -5.992901894317057 ], [ 152.895030645404802, -4.800379469633229 ], [ 154.559512250611476, -3.603810862472266 ], [ 156.219615449888778, -2.404217048793341 ], [ 157.876800094684654, -1.202610927033577 ], [ 159.532525588510026, -0.000000001210961 ], [ 160.165106850534244, -1.946096651560533 ], [ 160.799150391655701, -3.891955718522498 ], [ 161.436131321364257, -5.83733744632708 ], [ 162.077550634301986, -7.781997694000938 ], [ 162.724948719998167, -9.725685640272989 ], [ 163.379919570744732, -11.668141362044652 ], [ 164.044125950326361, -13.609093238218547 ], [ 164.719315813437817, -15.548255125220507 ], [ 165.407340301391969, -17.485323243220417 ], [ 166.110173685471125, -19.419972702571084 ], [ 166.829935686720916, -21.351853587889 ], [ 167.568916672281489, -23.280586501914225 ], [ 168.329606316145117, -25.205757452055675 ], [ 169.114726419728271, -27.126911938382168 ], [ 169.927268718673389, -29.04354807151136 ], [ 170.770538661284746, -30.955108510775894 ], [ 171.648206335951784, -32.860970965155907 ], [ 172.56436595513037, -34.760436939131729 ], [ 173.523605577060948, -36.652718329480685 ], [ 174.531089067283261, -38.536921382869238 ], [ 175.592652670870621, -40.412027402537959 ], [ 176.714918977203325, -42.276869438827994 ], [ 177.905431493301933, -44.130104004744815 ], [ 179.172813457244843, -45.970176614861458 ], [ 179.995, -47.07831434095209 ], [ 179.995, -59.639884958800394 ], [ 179.630372378289422, -59.671681710580216 ] ] ] ] } },
{ "type": "Feature", "properties": { "global_id": "18" }, "geometry": { "type": "MultiPolygon", "coordinates": [ [ [ [ 101.250000000812108, 29.671185739789053 ], [ 101.250000000748898, 27.624897068088128 ], [ 101.250000000684111, 25.578608396381043 ], [ 101.250000000621512, 23.532319724673943 ], [ 101.250000000560817, 21.48603105296683 ], [ 101.250000000501828, 19.439742381259702 ], [ 101.250000000444288, 17.39345370955256 ], [ 101.250000000388027, 15.347165037845402 ], [ 101.250000000332861, 13.30087636613823 ], [ 101.250000000278632, 11.254587694431041 ], [ 101.250000000225157, 9.208299022723839 ], [ 101.250000000172292, 7.162010351016622 ], [ 101.250000000119897, 5.115721679309392 ], [ 101.250000000067857, 3.069433007602147 ], [ 101.250000000016001, 1.023144335894888 ], [ 101.249999999964203, -1.023144335812384 ], [ 101.249999999912347, -3.069433007519668 ], [ 101.249999999860307, -5.115721679226963 ], [ 101.249999999807912, -7.162010350934271 ], [ 101.249999999755062, -9.208299022641588 ], [ 101.249999999701572, -11.254587694348915 ], [ 101.249999999647343, -13.300876366056249 ], [ 101.249999999592177, -15.347165037763592 ], [ 101.249999999535916, -17.393453709470943 ], [ 101.249999999478376, -19.439742381178299 ], [ 101.249999999419373, -21.486031052885661 ], [ 101.249999999358693, -23.532319724593027 ], [ 101.249999999296094, -25.578608396300393 ], [ 101.249999999231306, -27.624897068007762 ], [ 101.249999999160025, -29.671185739719959 ], [ 101.24999999908583, -31.717474411411903 ], [ 103.522089436756858, -31.06497178463804 ], [ 105.762298061701443, -30.373199963656859 ], [ 107.970181661568276, -29.643767364913323 ], [ 110.14553001286265, -28.878298079732108 ], [ 112.288350546153993, -28.078421964096641 ], [ 114.398850881858635, -27.245765863462225 ], [ 116.477420796085212, -26.381945982989826 ], [ 118.524614098660976, -25.488561384902358 ], [ 120.541130825620115, -24.567188570371723 ], [ 122.52780006834783, -23.619377086155453 ], [ 124.485563686414807, -22.646646083657757 ], [ 126.415461082614584, -21.650481750362985 ], [ 128.318615158306415, -20.632335529987397 ], [ 130.196219516021301, -19.59362304656656 ], [ 132.049526933144364, -18.535723650539293 ], [ 133.879839096818472, -17.459980507771792 ], [ 135.688497563362944, -16.367701158121186 ], [ 137.476875885848642, -15.260158475900464 ], [ 139.246372839487861, -14.138591971028632 ], [ 140.998406665354764, -13.004209376163749 ], [ 142.734410247616694, -11.858188471749065 ], [ 144.455827137467168, -10.701679106539197 ], [ 146.164108336658103, -9.535805377893244 ], [ 147.860709755653261, -8.361667940543663 ], [ 149.547090264051747, -7.180346417931815 ], [ 151.22471025453342, -5.992901894317058 ], [ 152.895030645404802, -4.800379469633231 ], [ 154.559512250611476, -3.603810862472268 ], [ 156.219615449888778, -2.404217048793343 ], [ 157.876800094684654, -1.202610927033579 ], [ 159.532525588510026, -0.000000001210961 ], [ 157.876800094729134, 1.202610924662975 ], [ 156.219615449971315, 2.404217046477602 ], [ 154.559512250734798, 3.603810860213395 ], [ 152.895030645571524, 4.800379467433255 ], [ 151.224710254742689, 5.992901892131203 ], [ 149.547090264309674, 7.180346415809076 ], [ 147.860709755962205, 8.361667938486143 ], [ 146.164108337020338, 9.535805375903083 ], [ 144.455827137884853, 10.70167910461857 ], [ 142.734410248091876, 11.858188469900185 ], [ 140.99840666588932, 13.004209374388868 ], [ 139.246372840082302, 14.13859196928351 ], [ 137.476875886506235, 15.260158474233991 ], [ 135.688497564085196, 16.36770115653573 ], [ 133.879839097606691, 17.459980506269755 ], [ 132.049526933999601, 18.53572364912311 ], [ 130.196219516944467, 19.593623045238701 ], [ 128.318615159298133, 20.632335528750342 ], [ 126.41546108367524, 21.650481749219239 ], [ 124.485563687546332, 22.64664608256377 ], [ 122.527800069548576, 23.619377085159901 ], [ 120.541130826889528, 24.567188569477118 ], [ 118.524614099998104, 25.488561384111193 ], [ 116.477420797488705, 26.381945982304551 ], [ 114.39885088332673, 27.245765862885246 ], [ 112.288350547684459, 28.078421963630287 ], [ 110.145530014457549, 28.878298079333348 ], [ 107.970181663220032, 29.643767364629678 ], [ 105.762298063406334, 30.373199963490325 ], [ 103.522089438510619, 31.064971784590451 ], [ 101.250000000882153, 31.717474411496163 ], [ 101.250000000812108, 29.671185739789053 ] ] ] ] } },
{ "type": "Feature", "properties": { "global_id": "19" }, "geometry": { "type": "MultiPolygon", "coordinates": [ [ [ [ -177.958299022692756, -0.000000001395219 ], [ -175.912010350963783, -0.00000000138847 ], [ -173.865721679259877, -0.000000001395886 ], [ -171.819433007555972, -0.000000001401536 ], [ -169.77314433585201, -0.000000001405406 ], [ -167.72685566414799, -0.000000001407486 ], [ -165.680566992443914, -0.000000001407769 ], [ -163.634278320739753, -0.000000001406248 ], [ -161.587989649035535, -0.00000000140292 ], [ -159.541700977308068, -0.000000001381866 ], [ -157.495412305603992, -0.000000001375027 ], [ -155.449123633899831, -0.000000001366404 ], [ -153.402834962195584, -0.000000001356005 ], [ -151.356546290491224, -0.000000001343837 ], [ -149.310257618786778, -0.000000001329911 ], [ -147.263968947082247, -0.000000001314239 ], [ -145.217680275357026, -0.000000001282052 ], [ -143.171391603652694, -0.000000001263175 ], [ -141.12510293194822, -0.000000001242623 ], [ -139.078814260243661, -0.000000001220418 ], [ -137.032525588543706, -0.000000001200014 ], [ -137.665106850570027, -1.94609665154891 ], [ -138.29915039170038, -3.891955718507984 ], [ -138.936131321411125, -5.837337446311841 ], [ -139.57755063435107, -7.781997693984971 ], [ -140.224948720049497, -9.725685640256289 ], [ -140.879919570798279, -11.668141362027214 ], [ -141.544125950382153, -13.60909323820036 ], [ -142.219315813495882, -15.548255125201564 ], [ -142.907340301452336, -17.485323243200703 ], [ -143.610173685533795, -19.419972702550584 ], [ -144.329935686785916, -21.351853587867705 ], [ -145.068916672348877, -23.280586501892117 ], [ -145.829606316214921, -25.205757452032728 ], [ -146.614726419800519, -27.126911938358361 ], [ -147.42726871874811, -29.043548071486669 ], [ -148.270538661362025, -30.955108510750293 ], [ -149.148206336031677, -32.860970965129361 ], [ -150.064365955212907, -34.760436939104203 ], [ -151.023605577146185, -36.652718329452142 ], [ -152.031089067371255, -38.536921382839637 ], [ -153.092652670961428, -40.412027402507249 ], [ -154.214918977297003, -42.276869438796133 ], [ -155.405431493398538, -44.13010400471174 ], [ -156.672813457344432, -45.970176614827096 ], [ -158.026954836999892, -47.795279643421715 ], [ -159.479231517250071, -49.603300626194439 ], [ -161.042760207395872, -51.391758683160589 ], [ -162.732691126675292, -53.157726222360395 ], [ -164.566537254028049, -54.897732520822451 ], [ -166.564532550965737, -56.607645241643169 ], [ -168.750000000012079, -58.282525589948584 ], [ -170.935467449039919, -56.607645241638643 ], [ -172.933462745982894, -54.897732520813207 ], [ -174.76730887333008, -53.157726222349716 ], [ -176.457239792604469, -51.391758683148602 ], [ -178.02076848278233, -49.603300626190119 ], [ -179.473045163026654, -47.795279643415959 ], [ -179.995, -47.091792276390443 ], [ -179.995, -0.000000001384264 ], [ -177.958299022692756, -0.000000001395219 ] ] ], [ [ [ 179.17281345732323, -45.970176614820019 ], [ 177.905431493382224, -44.130104004703426 ], [ 176.71491897728518, -42.27686943878664 ], [ 175.592652670953811, -40.412027402496619 ], [ 174.531089067367503, -38.536921382827892 ], [ 173.523605577118531, -36.652718329447325 ], [ 172.564365955189515, -34.760436939098319 ], [ 171.648206336012294, -32.860970965122426 ], [ 170.770538661346478, -30.95510851074231 ], [ 169.927268718736201, -29.043548071477627 ], [ 169.114726419792078, -27.126911938348236 ], [ 168.329606316209833, -25.205757452021487 ], [ 167.568916672347086, -23.280586501879711 ], [ 166.829935686763889, -21.351853587863289 ], [ 166.110173685515178, -19.419972702545149 ], [ 165.407340301437017, -17.485323243194191 ], [ 164.719315813483803, -15.548255125193913 ], [ 164.044125950373314, -13.609093238191498 ], [ 163.379919570792651, -11.66814136201705 ], [ 162.724948720047109, -9.725685640244727 ], [ 162.077550634328787, -7.781997693983524 ], [ 161.436131321391969, -5.83733744630922 ], [ 160.799150391684378, -3.89195571850408 ], [ 160.165106850562097, -1.946096651547106 ], [ 159.532525588545099, -0.000000001193158 ], [ 161.578814260242979, -0.000000001224039 ], [ 163.625102931946913, -0.000000001250002 ], [ 165.671391603650818, -0.00000000127444 ], [ 167.717680275354695, -0.000000001297317 ], [ 169.763968947083725, -0.000000001303594 ], [ 171.810257618787659, -0.000000001323047 ], [ 173.856546290491565, -0.000000001340862 ], [ 175.90283496219547, -0.000000001357011 ], [ 177.949123633899376, -0.000000001371469 ], [ 179.995, -0.00000000138421 ], [ 179.995, -47.078314340806891 ], [ 179.17281345732323, -45.970176614820019 ] ] ] ] } },
{ "type": "Feature", "properties": { "global_id": "2" }, "geometry": { "type": "MultiPolygon", "coordinates": [ [ [ [ 11.24999999992845, 60.328814261744981 ], [ 11.249999999915893, 62.375102933445902 ], [ 11.249999999909608, 64.421391605152991 ], [ 11.249999999902311, 66.467680276860079 ], [ 11.249999999893708, 68.513968948567197 ], [ 11.249999999883389, 70.560257620274328 ], [ 11.249999999870743, 72.606546291981473 ], [ 11.249999999854843, 74.652834963688619 ], [ 11.249999999834182, 76.699123635395793 ], [ 11.249999999806166, 78.745412307102981 ], [ 11.249999999765885, 80.791700978810184 ], [ 11.24999999970283, 82.8379896505174 ], [ 11.249999999589667, 84.884278322224631 ], [ 11.249999999326182, 86.930566993931876 ], [ 11.249999998010438, 88.976855665639135 ], [ -168.749999998044018, 88.976855662653591 ], [ -168.749999999359744, 86.930566990946303 ], [ -168.749999999623242, 84.884278319239002 ], [ -168.749999999736389, 82.8379896475317 ], [ -168.749999999799456, 80.791700975824384 ], [ -168.74999999983973, 78.745412304117053 ], [ -168.749999999867754, 76.699123632409723 ], [ -168.749999999888416, 74.652834960702378 ], [ -168.749999999904304, 72.606546288995034 ], [ -168.749999999916952, 70.560257617287675 ], [ -168.749999999927269, 68.513968945580316 ], [ -168.749999999935881, 66.467680273872944 ], [ -168.749999999943185, 64.421391602165585 ], [ -168.749999999949466, 62.375102930458212 ], [ -168.749999999962029, 60.328814258746014 ], [ -168.749999999973028, 58.282525587054067 ], [ -164.984720930806446, 58.860334654046284 ], [ -161.104387754535168, 59.325134235845788 ], [ -157.130372379398352, 59.671681707714527 ], [ -153.088166301004605, 59.895858730375906 ], [ -149.006470380593584, 59.994900422333842 ], [ -144.915927112164098, 59.967559109305277 ], [ -140.847622457203016, 59.814180849644558 ], [ -136.831533590640021, 59.536684044144941 ], [ -132.895110872207937, 59.138443150406616 ], [ -129.062152928714966, 58.624093488491766 ], [ -125.352072893671419, 57.999282279462257 ], [ -121.779580932326255, 57.270394701488478 ], [ -118.354743316176112, 56.444281962876957 ], [ -115.083335035946632, 55.528012681926796 ], [ -111.967385253622268, 54.52866134213113 ], [ -109.005818834692832, 53.453140183100665 ], [ -106.195114817316906, 52.308074859547879 ], [ -103.529925780388893, 51.099720076721361 ], [ -101.003624543098923, 49.83390913800153 ], [ -98.60876303175985, 48.516030545130981 ], [ -96.337441328084779, 47.151025000397034 ], [ -94.181593166792737, 45.743396940634121 ], [ -92.13319847795141, 44.297235756617475 ], [ -90.184435120765158, 42.816242901552222 ], [ -88.327781762176215, 41.303762047119037 ], [ -86.556082698703875, 39.762810250070991 ], [ -84.862583846437829, 38.196108734788687 ], [ -83.240947469957234, 36.606112389047588 ], [ -81.685251673816978, 34.995037433405251 ], [ -80.189979331619753, 33.364886984465493 ], [ -78.750000000938542, 31.717474411444847 ], [ -77.310020670372595, 33.364886984530912 ], [ -75.814748328290435, 34.995037433548006 ], [ -74.259052532266594, 36.606112389270571 ], [ -72.637416155903381, 38.196108735094967 ], [ -70.943917303815439, 39.762810250471318 ], [ -69.172218240461746, 41.303762047610164 ], [ -67.315564881990412, 42.816242902137844 ], [ -65.366801524919595, 44.297235757301429 ], [ -63.318406836190171, 45.743396941420372 ], [ -61.16255867500481, 47.151025001289625 ], [ -58.891236971429159, 48.51603054613399 ], [ -56.496375460248039, 49.833909139134079 ], [ -53.970074223036093, 51.099720077973672 ], [ -51.304885186170004, 52.308074860923639 ], [ -48.494181168836107, 53.453140184603079 ], [ -45.532614749924647, 54.528661343762764 ], [ -42.416664967589831, 55.528012683689333 ], [ -39.145256687317094, 56.444281964770951 ], [ -35.720419071086845, 57.270394703513091 ], [ -32.147927109688254, 57.999282281644497 ], [ -28.437847074479624, 58.624093490799822 ], [ -24.604889130778002, 59.138443152834121 ], [ -20.66846641209521, 59.536684046683419 ], [ -16.652377545243276, 59.814180852283499 ], [ -12.584072889961126, 59.96755911203239 ], [ -8.4935296211865, 59.994900425135349 ], [ -4.411833700451591, 59.895858733278828 ], [ -0.369627621687455, 59.671681710662945 ], [ 3.604387753814209, 59.32513423882429 ], [ 7.484720930435722, 58.860334657039999 ], [ 11.249999999932728, 58.282525590037864 ], [ 11.24999999992845, 60.328814261744981 ] ] ] ] } },
{ "type": "Feature", "properties": { "global_id": "20" }, "geometry": { "type": "MultiPolygon", "coordinates": [ [ [ [ 177.949123633899376, -0.000000001371471 ], [ 175.90283496219547, -0.000000001357013 ], [ 173.856546290491565, -0.000000001340864 ], [ 171.810257618787659, -0.000000001323049 ], [ 169.763968947083725, -0.000000001303596 ], [ 167.717680275354695, -0.000000001297319 ], [ 165.671391603650818, -0.000000001274442 ], [ 163.625102931946913, -0.000000001250004 ], [ 161.578814260242979, -0.00000000122404 ], [ 159.532525588545099, -0.000000001193158 ], [ 160.165106850619708, 1.946096649123786 ], [ 160.799150391798008, 3.89195571606683 ], [ 161.436131321555052, 5.837337443854883 ], [ 162.077550634539733, 7.781997691512407 ], [ 162.724948720281276, 9.725685637768287 ], [ 163.379919571071639, 11.668141359523915 ], [ 164.044125950695587, 13.609093235681884 ], [ 164.719315813847828, 15.548255122668007 ], [ 165.407340301841174, 17.485323240652139 ], [ 166.110173685957932, 19.419972699987074 ], [ 166.829935687243562, 21.35185358528928 ], [ 167.568916672838242, 23.28058649929881 ], [ 168.329606316733987, 25.205757449424549 ], [ 169.114726420347154, 27.126911935735318 ], [ 169.927268719319898, 29.043548068848757 ], [ 170.770538661956266, 30.95510850809751 ], [ 171.64820633664533, 32.860970962461714 ], [ 172.564365955842504, 34.760436936421712 ], [ 173.52360557778772, 36.652718326754837 ], [ 174.531089068020094, 38.536921380127588 ], [ 175.592652671612143, 40.412027399780577 ], [ 176.714918977943171, 42.276869436055009 ], [ 177.905431494032598, 44.13010400195644 ], [ 179.172813457957318, 45.970176612058019 ], [ 179.995, 47.078314337203182 ], [ 179.995, -0.000000001384211 ], [ 177.949123633899376, -0.000000001371471 ] ] ], [ [ [ -179.47304516241914, 47.795279640639407 ], [ -178.020768482213839, 49.603300623399676 ], [ -176.457239792128547, 51.391758680354414 ], [ -174.76730887292851, 53.157726219544237 ], [ -172.933462745678042, 54.897732517998243 ], [ -170.93546744887044, 56.607645238813475 ], [ -168.749999999987921, 58.28252558711683 ], [ -166.564532551123904, 56.607645238808949 ], [ -164.566537254311015, 54.897732517988999 ], [ -162.732691127066118, 53.157726219533565 ], [ -161.042760207871112, 51.391758680342427 ], [ -159.47923151775376, 49.603300623395349 ], [ -158.026954837554314, 47.795279640633652 ], [ -156.672813457936115, 45.970176612050942 ], [ -155.405431494016256, 44.130104001948126 ], [ -154.214918977931347, 42.276869436045523 ], [ -153.092652671604498, 40.412027399769947 ], [ -152.031089068016342, 38.536921380115842 ], [ -151.023605577760065, 36.652718326750012 ], [ -150.064365955819113, 34.760436936415822 ], [ -149.148206336625975, 32.860970962454779 ], [ -148.270538661940719, 30.955108508089531 ], [ -147.427268719307989, 29.043548068839716 ], [ -146.614726420338712, 27.126911935725193 ], [ -145.829606316728928, 25.205757449413309 ], [ -145.068916672836451, 23.280586499286404 ], [ -144.329935687221564, 21.351853585284864 ], [ -143.610173685939287, 19.419972699981635 ], [ -142.907340301825855, 17.485323240645627 ], [ -142.219315813835749, 15.548255122660356 ], [ -141.544125950686748, 13.609093235673022 ], [ -140.879919571066011, 11.668141359513751 ], [ -140.224948720278888, 9.725685637756724 ], [ -139.577550634517422, 7.781997691510959 ], [ -138.936131321535925, 5.837337443852261 ], [ -138.299150391782035, 3.891955716062926 ], [ -137.665106850611778, 1.946096649121982 ], [ -137.032525588543706, -0.000000001200014 ], [ -139.078814260243661, -0.00000000122042 ], [ -141.12510293194822, -0.000000001242625 ], [ -143.171391603652694, -0.000000001263177 ], [ -145.217680275357026, -0.000000001282053 ], [ -147.263968947082247, -0.000000001314241 ], [ -149.310257618786778, -0.000000001329913 ], [ -151.356546290491224, -0.000000001343839 ], [ -153.402834962195584, -0.000000001356007 ], [ -155.449123633899831, -0.000000001366406 ], [ -157.495412305603992, -0.000000001375029 ], [ -159.541700977308068, -0.000000001381868 ], [ -161.587989649035535, -0.000000001402922 ], [ -163.634278320739753, -0.00000000140625 ], [ -165.680566992443914, -0.000000001407771 ], [ -167.72685566414799, -0.000000001407488 ], [ -169.77314433585201, -0.000000001405408 ], [ -171.819433007555972, -0.000000001401538 ], [ -173.865721679259877, -0.000000001395888 ], [ -175.912010350963783, -0.000000001388472 ], [ -177.958299022692756, -0.000000001395221 ], [ -179.995, -0.000000001384266 ], [ -179.995, 47.09179227278689 ], [ -179.47304516241914, 47.795279640639407 ] ] ] ] } },
{ "type": "Feature", "properties": { "global_id": "3" }, "geometry": { "type": "MultiPolygon", "coordinates": [ [ [ [ -78.750000000848004, 29.67118573972412 ], [ -78.750000000784439, 27.624897068016409 ], [ -78.750000000723091, 25.578608396308798 ], [ -78.750000000663704, 23.532319724601287 ], [ -78.750000000579135, 21.486031052897374 ], [ -78.750000000523769, 19.439742381189678 ], [ -78.750000000469683, 17.393453709482074 ], [ -78.750000000416705, 15.347165037774564 ], [ -78.750000000364707, 13.300876366067142 ], [ -78.750000000313534, 11.254587694359804 ], [ -78.750000000263057, 9.208299022652552 ], [ -78.750000000189445, 7.162010350946503 ], [ -78.750000000140176, 5.115721679239092 ], [ -78.750000000091191, 3.069433007531766 ], [ -78.750000000042363, 1.023144335824522 ], [ -78.749999999993577, -1.023144335882639 ], [ -78.749999999944748, -3.069433007589718 ], [ -78.749999999895749, -5.115721679296716 ], [ -78.74999999984648, -7.162010351003628 ], [ -78.749999999772868, -9.208299022711902 ], [ -78.749999999722405, -11.254587694418973 ], [ -78.749999999671232, -13.300876366125959 ], [ -78.74999999961922, -15.347165037832859 ], [ -78.749999999566256, -17.393453709539671 ], [ -78.74999999951217, -19.439742381246393 ], [ -78.749999999456804, -21.48603105295302 ], [ -78.749999999372221, -23.532319724663431 ], [ -78.749999999312848, -25.578608396370239 ], [ -78.7499999992515, -27.624897068076955 ], [ -78.749999999187935, -29.671185739783567 ], [ -78.74999999912994, -31.717474411488695 ], [ -76.477910561495449, -31.064971784592228 ], [ -74.237701936605959, -30.373199963493892 ], [ -72.029818336790399, -29.64376736463619 ], [ -69.854469985551049, -28.878298079342688 ], [ -67.711649452337312, -28.078421963620769 ], [ -65.601149116693065, -27.24576586287877 ], [ -63.522579202529123, -26.381945982301009 ], [ -61.475385900017798, -25.488561384110493 ], [ -59.458869173124484, -24.567188569479192 ], [ -57.472199930463574, -23.61937708516469 ], [ -55.514436312463992, -22.646646082571237 ], [ -53.584538916346794, -21.650481749209433 ], [ -51.681384840721961, -20.632335528743248 ], [ -49.803780483073716, -19.593623045234274 ], [ -47.950473066016691, -18.535723649121341 ], [ -46.120160902407761, -17.459980506270632 ], [ -44.311502435927423, -16.367701156539265 ], [ -42.523124113504572, -15.260158474240207 ], [ -40.753627159926751, -14.138591969292447 ], [ -39.001593334130249, -13.004209374380142 ], [ -37.265589751925859, -11.858188469894069 ], [ -35.544172862131063, -10.70167910461511 ], [ -33.835891662993767, -9.53580537590234 ], [ -32.139290244050095, -8.361667938488198 ], [ -30.452909735700867, -7.180346415814022 ], [ -28.77528974526609, -5.992901892139153 ], [ -27.104969354447238, -4.800379467421412 ], [ -25.440487749282198, -3.603810860204305 ], [ -23.780384550043905, -2.404217046471388 ], [ -22.123199905278348, -1.202610924659781 ], [ -20.467474411484805, 0.000000001218082 ], [ -22.12319990530381, 1.20261092704945 ], [ -23.780384550097317, 2.404217048812523 ], [ -25.440487749372178, 3.603810862494858 ], [ -27.104969354576365, 4.800379469659325 ], [ -28.775289745462782, 5.992901894322332 ], [ -30.452909735942125, 7.180346417940371 ], [ -32.139290244338241, 8.361667940555591 ], [ -33.835891663331033, 9.53580537790863 ], [ -35.544172862519574, 10.701679106558116 ], [ -37.265589752367646, 11.858188471771582 ], [ -39.001593334627216, 13.004209376189921 ], [ -40.753627160509986, 14.138591971031813 ], [ -42.523124114146867, 15.260158475907149 ], [ -44.311502436630256, 16.367701158131428 ], [ -46.120160903172454, 17.459980507785634 ], [ -47.950473066844374, 18.535723650556768 ], [ -49.803780483965312, 19.593623046587695 ], [ -51.681384841678174, 20.632335530012202 ], [ -53.584538917368086, 21.65048175039146 ], [ -55.514436313582685, 22.646646083661981 ], [ -57.472199931647637, 23.619377086163279 ], [ -59.458869174373433, 24.567188570383152 ], [ -61.475385901330796, 25.488561384917364 ], [ -63.52257920390494, 26.381945983008375 ], [ -65.601149118130067, 27.245765863484266 ], [ -67.711649453833445, 28.078421964122107 ], [ -69.854469987136653, 28.878298079733593 ], [ -72.029818338429479, 29.64376736491829 ], [ -74.237701938294961, 30.373199963665233 ], [ -76.477910563238396, 31.064971784649725 ], [ -78.750000000905999, 31.717474411433315 ], [ -78.750000000848004, 29.67118573972412 ] ] ] ] } },
{ "type": "Feature", "properties": { "global_id": "4" }, "geometry": { "type": "MultiPolygon", "coordinates": [ [ [ [ 7.484720930411037, 58.860334656970139 ], [ 3.60438775380545, 59.32513423874596 ], [ -0.369627621688622, 59.671681710581424 ], [ -4.411833700443902, 59.895858733194501 ], [ -8.493529621161036, 59.994900425073652 ], [ -12.584072889928853, 59.967559111968612 ], [ -16.652377545203674, 59.814180852218016 ], [ -20.668466412048012, 59.536684046616614 ], [ -24.60488913072318, 59.138443152766371 ], [ -28.437847074417366, 58.624093490731489 ], [ -32.147927109618927, 57.999282281575908 ], [ -35.720419071025567, 57.270394703466735 ], [ -39.14525668725193, 56.444281964724269 ], [ -42.416664967521093, 55.528012683642523 ], [ -45.532614749852677, 54.52866134371601 ], [ -48.494181168761259, 53.453140184556531 ], [ -51.304885186092598, 52.308074860877419 ], [ -53.970074222956434, 51.099720077927898 ], [ -56.496375460166391, 49.833909139088824 ], [ -58.891236971370802, 48.516030546106236 ], [ -61.162558674945458, 47.151025001261914 ], [ -63.318406836129874, 45.743396941392774 ], [ -65.366801524858388, 44.297235757274002 ], [ -67.315564881928324, 42.816242902110638 ], [ -69.172218240398763, 41.30376204758322 ], [ -70.943917303751519, 39.762810250444666 ], [ -72.637416155866589, 38.196108735081836 ], [ -74.259052532229106, 36.606112389257369 ], [ -75.814748328252165, 34.995037433534769 ], [ -77.310020670340236, 33.364886984515913 ], [ -78.750000000905999, 31.717474411433315 ], [ -76.477910563238396, 31.064971784649721 ], [ -74.237701938294961, 30.373199963665229 ], [ -72.029818338429479, 29.64376736491829 ], [ -69.854469987136653, 28.878298079733593 ], [ -67.711649453833445, 28.078421964122104 ], [ -65.601149118130067, 27.245765863484266 ], [ -63.522579203904947, 26.381945983008375 ], [ -61.475385901330796, 25.488561384917364 ], [ -59.458869174373433, 24.567188570383152 ], [ -57.472199931647637, 23.619377086163279 ], [ -55.514436313582685, 22.646646083661977 ], [ -53.584538917368093, 21.650481750391457 ], [ -51.681384841678181, 20.632335530012202 ], [ -49.803780483965312, 19.593623046587695 ], [ -47.950473066844374, 18.535723650556768 ], [ -46.120160903172454, 17.459980507785634 ], [ -44.311502436630256, 16.367701158131428 ], [ -42.523124114146867, 15.260158475907147 ], [ -40.753627160509993, 14.138591971031811 ], [ -39.001593334627223, 13.004209376189921 ], [ -37.265589752367646, 11.85818847177158 ], [ -35.544172862519581, 10.701679106558114 ], [ -33.835891663331033, 9.53580537790863 ], [ -32.139290244338241, 8.361667940555591 ], [ -30.452909735942129, 7.18034641794037 ], [ -28.775289745462782, 5.992901894322331 ], [ -27.104969354576369, 4.800379469659324 ], [ -25.440487749372178, 3.603810862494857 ], [ -23.780384550097317, 2.404217048812522 ], [ -22.123199905303814, 1.202610927049449 ], [ -20.467474411484805, 0.000000001218082 ], [ -19.834893149460409, 1.946096651554414 ], [ -19.200849608333687, 3.891955718509951 ], [ -18.563868678621859, 5.837337446313712 ], [ -17.922449365680926, 7.781997693986678 ], [ -17.275051280006902, 9.725685640262297 ], [ -16.620080429256994, 11.668141362033213 ], [ -15.955874049672094, 13.609093238206292 ], [ -15.280684186557423, 15.548255125207362 ], [ -14.592659698600105, 17.485323243206306 ], [ -13.889826314517807, 19.419972702555931 ], [ -13.1700643132649, 21.351853587872718 ], [ -12.431083327725677, 23.280586501903581 ], [ -11.670393683858974, 25.205757452044107 ], [ -10.885273580272726, 27.126911938369588 ], [ -10.072731281324522, 29.043548071497678 ], [ -9.229461338710006, 30.955108510761011 ], [ -8.351793664039739, 32.860970965139714 ], [ -7.43563404485786, 34.760436939114108 ], [ -6.476394422923874, 36.652718329461514 ], [ -5.468910932725088, 38.536921382859035 ], [ -4.407347329134621, 40.412027402526512 ], [ -3.285081022798733, 42.276869438815183 ], [ -2.094568506696804, 44.130104004730477 ], [ -0.82718654275045, 45.970176614845435 ], [ 0.52695483690561, 47.795279643439528 ], [ 1.979231517156543, 49.603300626211599 ], [ 3.542760207270911, 51.391758683192926 ], [ 5.232691126550513, 53.157726222392768 ], [ 7.066537253903717, 54.897732520854753 ], [ 9.064532550853672, 56.607645241678377 ], [ 11.249999999910713, 58.282525589978064 ], [ 7.484720930411037, 58.860334656970139 ] ] ] ] } },
{ "type": "Feature", "properties": { "global_id": "5" }, "geometry": { "type": "MultiPolygon", "coordinates": [ [ [ [ -19.834893149388225, -1.946096649121988 ], [ -19.200849608217975, -3.891955716062932 ], [ -18.56386867846409, -5.837337443852268 ], [ -17.922449365482574, -7.781997691510965 ], [ -17.275051279721126, -9.72568563775673 ], [ -16.620080428933981, -11.668141359513758 ], [ -15.955874049313266, -13.609093235673027 ], [ -15.280684186164255, -15.548255122660361 ], [ -14.592659698174147, -17.485323240645634 ], [ -13.889826314060711, -19.419972699981642 ], [ -13.170064312778441, -21.351853585284871 ], [ -12.431083327163554, -23.280586499286411 ], [ -11.670393683271076, -25.205757449413316 ], [ -10.885273579661279, -27.1269119357252 ], [ -10.072731280692024, -29.043548068839723 ], [ -9.22946133805929, -30.955108508089534 ], [ -8.351793663374034, -32.860970962454786 ], [ -7.435634044180885, -34.760436936415829 ], [ -6.47639442223993, -36.652718326750019 ], [ -5.468910931983651, -38.536921380115849 ], [ -4.4073473283955, -40.412027399769954 ], [ -3.285081022068651, -42.27686943604553 ], [ -2.094568505983734, -44.130104001948133 ], [ -0.827186542063887, -45.970176612050949 ], [ 0.526954837554311, -47.795279640633659 ], [ 1.979231517753757, -49.603300623395356 ], [ 3.542760207871116, -51.391758680342434 ], [ 5.232691127066115, -53.157726219533572 ], [ 7.066537254311008, -54.897732517989006 ], [ 9.064532551123898, -56.607645238808956 ], [ 11.24999999998791, -58.282525587116837 ], [ 13.435467448870453, -56.607645238813483 ], [ 15.433462745678042, -54.89773251799825 ], [ 17.26730887292852, -53.157726219544244 ], [ 18.95723979212854, -51.391758680354421 ], [ 20.520768482213835, -49.603300623399683 ], [ 21.97304516241914, -47.795279640639414 ], [ 23.327186542042675, -45.970176612058026 ], [ 24.594568505967413, -44.130104001956447 ], [ 25.785081022056836, -42.276869436055016 ], [ 26.907347328387864, -40.412027399780584 ], [ 27.968910931979917, -38.536921380127595 ], [ 28.97639442221227, -36.652718326754844 ], [ 29.935634044157496, -34.760436936421719 ], [ 30.85179366335467, -32.860970962461721 ], [ 31.729461338043734, -30.955108508097517 ], [ 32.572731280680095, -29.043548068848764 ], [ 33.385273579652839, -27.126911935735325 ], [ 34.170393683266006, -25.205757449424556 ], [ 34.931083327161758, -23.280586499298817 ], [ 35.670064312756423, -21.351853585289287 ], [ 36.389826314042082, -19.419972699987081 ], [ 37.092659698158826, -17.485323240652146 ], [ 37.780684186152186, -15.548255122668012 ], [ 38.45587404930442, -13.609093235681891 ], [ 39.120080428928361, -11.668141359523922 ], [ 39.775051279718738, -9.725685637768292 ], [ 40.422449365460281, -7.781997691512413 ], [ 41.06386867844494, -5.83733744385489 ], [ 41.700849608201999, -3.891955716066836 ], [ 42.334893149380299, -1.946096649123792 ], [ 42.967474411456287, 0.000000001208814 ], [ 40.921185739756332, 0.000000001240032 ], [ 38.874897068051773, 0.000000001266311 ], [ 36.828608396347313, 0.000000001291043 ], [ 34.78231972464296, 0.000000001314193 ], [ 32.73603105291776, 0.000000001320721 ], [ 30.689742381213215, 0.000000001340404 ], [ 28.643453709508769, 0.000000001358427 ], [ 26.597165037804427, 0.000000001374762 ], [ 24.550876366100177, 0.000000001389382 ], [ 22.504587694396015, 0.000000001402265 ], [ 20.458299022691939, 0.000000001413388 ], [ 18.412010350964465, 0.000000001406733 ], [ 16.365721679260236, 0.00000000141422 ], [ 14.319433007556091, 0.000000001419916 ], [ 12.273144335852013, 0.00000000142381 ], [ 10.226855664147999, 0.00000000142589 ], [ 8.180566992444035, 0.000000001426149 ], [ 6.134278320740114, 0.000000001424581 ], [ 4.087989649036222, 0.000000001421183 ], [ 2.041700977307243, 0.000000001400036 ], [ -0.004587694396703, 0.00000000139308 ], [ -2.050876366100623, 0.000000001384318 ], [ -4.097165037804528, 0.000000001373756 ], [ -6.143453709508431, 0.000000001361402 ], [ -8.189742381212342, 0.000000001347268 ], [ -10.236031052916273, 0.000000001331367 ], [ -12.282319724645292, 0.000000001298928 ], [ -14.328608396349173, 0.000000001279778 ], [ -16.374897068053077, 0.000000001258932 ], [ -18.421185739757018, 0.000000001236411 ], [ -20.467474411454909, 0.00000000121567 ], [ -19.834893149388225, -1.946096649121988 ] ] ] ] } },
{ "type": "Feature", "properties": { "global_id": "6" }, "geometry": { "type": "MultiPolygon", "coordinates": [ [ [ [ 9.06453255096573, 56.607645241643169 ], [ 7.066537254028053, 54.897732520822451 ], [ 5.232691126675283, 53.157726222360388 ], [ 3.542760207395871, 51.391758683160582 ], [ 1.979231517250074, 49.603300626194439 ], [ 0.526954836999889, 47.795279643421715 ], [ -0.827186542655573, 45.970176614827096 ], [ -2.094568506601449, 44.13010400471174 ], [ -3.285081022702992, 42.276869438796133 ], [ -4.407347329038563, 40.412027402507249 ], [ -5.468910932628758, 38.536921382839637 ], [ -6.476394422853816, 36.652718329452142 ], [ -7.435634044787103, 34.760436939104203 ], [ -8.351793663968332, 32.860970965129354 ], [ -9.229461338637977, 30.955108510750289 ], [ -10.072731281251883, 29.043548071486665 ], [ -10.885273580199474, 27.126911938358358 ], [ -11.67039368378509, 25.205757452032724 ], [ -12.431083327651125, 23.280586501892113 ], [ -13.170064313214088, 21.351853587867701 ], [ -13.889826314466196, 19.419972702550584 ], [ -14.592659698547667, 17.4853232432007 ], [ -15.280684186504113, 15.54825512520156 ], [ -15.955874049617846, 13.609093238200359 ], [ -16.620080429201725, 11.66814136202721 ], [ -17.27505127995051, 9.725685640256287 ], [ -17.922449365648916, 7.781997693984969 ], [ -18.563868678588875, 5.837337446311839 ], [ -19.200849608299631, 3.891955718507981 ], [ -19.83489314942998, 1.946096651548907 ], [ -20.467474411454909, 0.00000000121567 ], [ -18.421185739757021, 0.00000000123641 ], [ -16.37489706805308, 0.00000000125893 ], [ -14.328608396349173, 0.000000001279776 ], [ -12.282319724645292, 0.000000001298926 ], [ -10.236031052916275, 0.000000001331365 ], [ -8.189742381212342, 0.000000001347267 ], [ -6.143453709508432, 0.000000001361401 ], [ -4.09716503780453, 0.000000001373754 ], [ -2.050876366100624, 0.000000001384316 ], [ -0.004587694396704, 0.000000001393078 ], [ 2.041700977307241, 0.000000001400034 ], [ 4.087989649036222, 0.000000001421181 ], [ 6.134278320740113, 0.000000001424579 ], [ 8.180566992444035, 0.000000001426147 ], [ 10.226855664147998, 0.000000001425888 ], [ 12.273144335852013, 0.000000001423808 ], [ 14.319433007556089, 0.000000001419914 ], [ 16.365721679260236, 0.000000001414218 ], [ 18.412010350964465, 0.000000001406731 ], [ 20.458299022691939, 0.000000001413386 ], [ 22.504587694396015, 0.000000001402263 ], [ 24.550876366100177, 0.00000000138938 ], [ 26.597165037804423, 0.00000000137476 ], [ 28.643453709508769, 0.000000001358425 ], [ 30.689742381213211, 0.000000001340402 ], [ 32.73603105291776, 0.00000000132072 ], [ 34.78231972464296, 0.000000001314192 ], [ 36.828608396347313, 0.000000001291041 ], [ 38.874897068051766, 0.000000001266309 ], [ 40.921185739756332, 0.00000000124003 ], [ 42.967474411456287, 0.000000001208814 ], [ 42.334893149437903, 1.946096651547103 ], [ 41.700849608315607, 3.891955718504077 ], [ 41.063868678608024, 5.837337446309217 ], [ 40.422449365671213, 7.781997693983521 ], [ 39.775051279952898, 9.725685640244723 ], [ 39.120080429207349, 11.668141362017048 ], [ 38.455874049626694, 13.609093238191495 ], [ 37.780684186516183, 15.54825512519391 ], [ 37.09265969856299, 17.485323243194188 ], [ 36.389826314484829, 19.419972702545145 ], [ 35.670064313236104, 21.351853587863285 ], [ 34.931083327652921, 23.280586501879711 ], [ 34.170393683790167, 25.205757452021484 ], [ 33.385273580207915, 27.126911938348236 ], [ 32.572731281263806, 29.043548071477627 ], [ 31.729461338653536, 30.955108510742306 ], [ 30.851793663987696, 32.860970965122426 ], [ 29.935634044810492, 34.760436939098312 ], [ 28.976394422881476, 36.652718329447318 ], [ 27.968910932632493, 38.536921382827892 ], [ 26.907347329046196, 40.412027402496619 ], [ 25.785081022714806, 42.27686943878664 ], [ 24.594568506617769, 44.130104004703419 ], [ 23.327186542676785, 45.970176614820019 ], [ 21.973045163026661, 47.795279643415959 ], [ 20.520768482782334, 49.603300626190112 ], [ 18.957239792604472, 51.391758683148602 ], [ 17.26730887333008, 53.157726222349709 ], [ 15.433462745982895, 54.897732520813207 ], [ 13.435467449039919, 56.607645241638643 ], [ 11.25000000001209, 58.282525589948577 ], [ 9.06453255096573, 56.607645241643169 ] ] ] ] } },
{ "type": "Feature", "properties": { "global_id": "7" }, "geometry": { "type": "MultiPolygon", "coordinates": [ [ [ [ 44.62319990527088, -1.202610924662978 ], [ 46.280384550028707, -2.404217046477606 ], [ 47.940487749265216, -3.603810860213399 ], [ 49.604969354428469, -4.80037946743326 ], [ 51.275289745257318, -5.992901892131207 ], [ 52.952909735690334, -7.180346415809081 ], [ 54.639290244037788, -8.361667938486146 ], [ 56.33589166297967, -9.535805375903086 ], [ 58.044172862115161, -10.701679104618574 ], [ 59.765589751908131, -11.85818846990019 ], [ 61.501593334110673, -13.004209374388873 ], [ 63.253627159917713, -14.138591969283514 ], [ 65.023124113493751, -15.260158474233997 ], [ 66.811502435914804, -16.367701156535734 ], [ 68.620160902393323, -17.459980506269762 ], [ 70.450473066000399, -18.535723649123117 ], [ 72.303780483055547, -19.593623045238704 ], [ 74.181384840701867, -20.63233552875035 ], [ 76.08453891632476, -21.650481749219246 ], [ 78.014436312453668, -22.646646082563777 ], [ 79.972199930451424, -23.619377085159904 ], [ 81.958869173110486, -24.567188569477125 ], [ 83.97538590000191, -25.488561384111197 ], [ 86.022579202511295, -26.381945982304558 ], [ 88.101149116673284, -27.24576586288525 ], [ 90.211649452315541, -28.078421963630291 ], [ 92.354469985542451, -28.878298079333351 ], [ 94.529818336779968, -29.643767364629685 ], [ 96.73770193659368, -30.373199963490329 ], [ 98.977910561489381, -31.064971784590455 ], [ 101.249999999117847, -31.71747441149617 ], [ 101.249999999187892, -29.671185739789056 ], [ 101.249999999251116, -27.624897068088131 ], [ 101.249999999315889, -25.57860839638105 ], [ 101.249999999378502, -23.53231972467395 ], [ 101.249999999439183, -21.486031052966837 ], [ 101.249999999498186, -19.439742381259709 ], [ 101.249999999555712, -17.393453709552563 ], [ 101.249999999611973, -15.347165037845407 ], [ 101.249999999667139, -13.300876366138233 ], [ 101.249999999721382, -11.254587694431047 ], [ 101.249999999774857, -9.208299022723844 ], [ 101.249999999827722, -7.162010351016627 ], [ 101.249999999880103, -5.115721679309396 ], [ 101.249999999932157, -3.069433007602151 ], [ 101.249999999984013, -1.023144335894892 ], [ 101.250000000035797, 1.023144335812379 ], [ 101.250000000087653, 3.069433007519663 ], [ 101.250000000139707, 5.115721679226959 ], [ 101.250000000192088, 7.162010350934266 ], [ 101.250000000244953, 9.208299022641583 ], [ 101.250000000298428, 11.25458769434891 ], [ 101.250000000352671, 13.300876366056244 ], [ 101.250000000407837, 15.347165037763588 ], [ 101.250000000464098, 17.393453709470936 ], [ 101.250000000521624, 19.439742381178295 ], [ 101.250000000580627, 21.486031052885657 ], [ 101.250000000641307, 23.53231972459302 ], [ 101.25000000070392, 25.578608396300389 ], [ 101.250000000768694, 27.624897068007758 ], [ 101.250000000839975, 29.671185739719952 ], [ 101.250000000910021, 31.717474411427219 ], [ 98.97791056323625, 31.064971784652919 ], [ 96.73770193829057, 30.373199963671698 ], [ 94.529818338422757, 29.643767364928099 ], [ 92.354469987127516, 28.878298079746806 ], [ 90.211649453839811, 28.078421964112938 ], [ 88.10114911813416, 27.245765863478383 ], [ 86.022579203906716, 26.381945983005831 ], [ 83.975385901330199, 25.488561384918221 ], [ 81.958869174370449, 24.567188570387454 ], [ 79.972199931642265, 23.61937708617107 ], [ 78.014436313574947, 22.646646083673293 ], [ 76.084538917376378, 21.650481750379218 ], [ 74.181384841684064, 20.632335530003424 ], [ 72.303780483968822, 19.593623046582408 ], [ 70.450473066845532, 18.535723650554999 ], [ 68.62016090317131, 17.459980507787407 ], [ 66.811502436626881, 16.36770115813675 ], [ 65.023124114141325, 15.260158475916029 ], [ 63.253627160502361, 14.138591971044248 ], [ 61.501593334634158, 13.00420937617838 ], [ 59.76558975237235, 11.858188471763603 ], [ 58.044172862522124, 10.701679106553692 ], [ 56.33589166333153, 9.535805377907748 ], [ 54.639290244336792, 8.36166794055822 ], [ 52.952909735938839, 7.180346417946473 ], [ 51.275289745457776, 5.992901894331856 ], [ 49.60496935458341, 4.800379469645572 ], [ 47.940487749377276, 3.603810862484638 ], [ 46.280384550100592, 2.40421704880578 ], [ 44.623199905305384, 1.202610927046118 ], [ 42.967474411481888, 0.000000001224436 ], [ 44.62319990527088, -1.202610924662978 ] ] ] ] } },
{ "type": "Feature", "properties": { "global_id": "8" }, "geometry": { "type": "MultiPolygon", "coordinates": [ [ [ [ 13.435467449140779, 56.607645241682938 ], [ 15.433462746086338, 54.897732520864366 ], [ 17.267308873436271, 53.157726222400612 ], [ 18.957239792712738, 51.391758683199214 ], [ 20.520768482855534, 49.603300626231565 ], [ 21.973045163102707, 47.79527964345742 ], [ 23.327186542755165, 45.970176614861451 ], [ 24.594568506698071, 44.130104004744815 ], [ 25.785081022796689, 42.276869438827994 ], [ 26.907347329129383, 40.412027402537952 ], [ 27.96891093271676, 38.536921382869231 ], [ 28.976394422939055, 36.652718329480685 ], [ 29.935634044869637, 34.760436939131722 ], [ 30.851793664048216, 32.8609709651559 ], [ 31.729461338715268, 30.95510851077589 ], [ 32.572731281326625, 29.043548071511356 ], [ 33.385273580271722, 27.126911938382165 ], [ 34.17039368385489, 25.205757452055671 ], [ 34.931083327718511, 23.280586501914225 ], [ 35.670064313279099, 21.351853587888996 ], [ 36.389826314528868, 19.41997270257108 ], [ 37.092659698608024, 17.485323243220414 ], [ 37.780684186562183, 15.548255125220505 ], [ 38.455874049673653, 13.609093238218545 ], [ 39.120080429255282, 11.668141362044651 ], [ 39.775051280001833, 9.725685640272987 ], [ 40.422449365698014, 7.781997694000936 ], [ 41.063868678635757, 5.837337446327078 ], [ 41.700849608344299, 3.891955718522496 ], [ 42.334893149465756, 1.946096651560531 ], [ 42.967474411481888, 0.000000001224436 ], [ 44.623199905305384, 1.202610927046116 ], [ 46.280384550100592, 2.404217048805778 ], [ 47.940487749377276, 3.603810862484636 ], [ 49.60496935458341, 4.800379469645569 ], [ 51.275289745457776, 5.992901894331855 ], [ 52.952909735938839, 7.18034641794647 ], [ 54.639290244336792, 8.361667940558217 ], [ 56.33589166333153, 9.535805377907744 ], [ 58.044172862522124, 10.701679106553691 ], [ 59.76558975237235, 11.858188471763601 ], [ 61.501593334634158, 13.004209376178377 ], [ 63.253627160502361, 14.138591971044244 ], [ 65.023124114141325, 15.260158475916027 ], [ 66.811502436626881, 16.36770115813675 ], [ 68.62016090317131, 17.459980507787403 ], [ 70.450473066845532, 18.535723650554999 ], [ 72.303780483968822, 19.593623046582405 ], [ 74.181384841684064, 20.63233553000342 ], [ 76.084538917376378, 21.650481750379218 ], [ 78.014436313574947, 22.646646083673289 ], [ 79.972199931642265, 23.619377086171067 ], [ 81.958869174370449, 24.567188570387451 ], [ 83.975385901330199, 25.488561384918217 ], [ 86.022579203906716, 26.381945983005831 ], [ 88.10114911813416, 27.245765863478379 ], [ 90.211649453839811, 28.078421964112938 ], [ 92.354469987127516, 28.878298079746806 ], [ 94.529818338422757, 29.643767364928095 ], [ 96.73770193829057, 30.373199963671695 ], [ 98.97791056323625, 31.064971784652915 ], [ 101.250000000910021, 31.717474411427219 ], [ 99.810020670349914, 33.364886984516758 ], [ 98.314748328272088, 34.995037433536432 ], [ 96.759052532252497, 36.606112389261561 ], [ 95.137416155893433, 38.196108735088529 ], [ 93.44391730376006, 39.76281025043486 ], [ 91.672218240410857, 41.303762047576065 ], [ 89.815564881943999, 42.816242902106126 ], [ 87.866801524877658, 44.297235757272126 ], [ 85.818406836152775, 45.74339694139357 ], [ 83.662558674972004, 47.151025001265424 ], [ 81.391236971401, 48.516030546112532 ], [ 78.996375460178527, 49.833909139079061 ], [ 76.470074222972272, 51.099720077920935 ], [ 73.804885186112102, 52.30807486087334 ], [ 70.994181168784365, 53.453140184555444 ], [ 68.032614749879244, 54.528661343718035 ], [ 64.916664967550915, 55.528012683647809 ], [ 61.6452566872847, 56.444281964732966 ], [ 58.22041907106091, 57.270394703479013 ], [ 54.647927109638964, 57.999282281570103 ], [ 50.937847074440171, 58.624093490729081 ], [ 47.104889130748241, 59.138443152767508 ], [ 43.1684664120747, 59.536684046621431 ], [ 39.152377545231282, 59.814180852226663 ], [ 35.084072889956595, 59.967559111981203 ], [ 30.993529621188085, 59.994900425090293 ], [ 26.911833700465714, 59.895858733189606 ], [ 22.869627621710578, 59.671681710580216 ], [ 18.895612246215894, 59.325134238748518 ], [ 15.01527906959921, 58.860334656971574 ], [ 11.25000000009676, 58.282525589990158 ], [ 13.435467449140779, 56.607645241682938 ] ] ] ] } },
{ "type": "Feature", "properties": { "global_id": "9" }, "geometry": { "type": "MultiPolygon", "coordinates": [ [ [ [ 179.172813457929465, 45.970176611976505 ], [ 177.90543149400753, 44.130104001874379 ], [ 176.714918977920547, 42.276869435972472 ], [ 175.592652671591679, 40.412027399697628 ], [ 174.531089068001506, 38.536921380044298 ], [ 173.52360557777078, 36.65271832667127 ], [ 172.564365955827014, 34.760436936337911 ], [ 171.648206336631091, 32.860970962377742 ], [ 170.770538661943135, 30.95510850801341 ], [ 169.927268719307733, 29.043548068764576 ], [ 169.114726420335813, 27.126911935651101 ], [ 168.329606316723357, 25.205757449340339 ], [ 167.568916672828209, 23.280586499214643 ], [ 166.82993568723407, 21.351853585205198 ], [ 166.110173685948837, 19.419972699903113 ], [ 165.407340301832448, 17.485323240568334 ], [ 164.719315813839358, 15.548255122584388 ], [ 164.044125950687317, 13.60909323559849 ], [ 163.37991957106351, 11.668141359440773 ], [ 162.724948720273204, 9.725685637685427 ], [ 162.077550634531661, 7.781997691429856 ], [ 161.436131321546952, 5.83733744377267 ], [ 160.799150391789766, 3.891955715984977 ], [ 160.165106850621356, 1.946096649050588 ], [ 159.532525588544956, -0.000000001281715 ], [ 157.876800094758892, 1.202610924602785 ], [ 156.219615450001669, 2.404217046416298 ], [ 154.559512250765664, 3.603810860151147 ], [ 152.895030645602873, 4.80037946737023 ], [ 151.224710254768638, 5.992901892071642 ], [ 149.547090264336504, 7.180346415748619 ], [ 147.860709755989859, 8.361667938424953 ], [ 146.164108337048731, 9.535805375841324 ], [ 144.455827137913928, 10.701679104556401 ], [ 142.734410248121577, 11.858188469837764 ], [ 140.998406665919617, 13.004209374326347 ], [ 139.246372840111178, 14.138591969222276 ], [ 137.476875886536135, 15.260158474172593 ], [ 135.688497564116005, 16.367701156474325 ], [ 133.879839097638381, 17.459980506208499 ], [ 132.049526934032144, 18.535723649062156 ], [ 130.196219516977777, 19.593623045178198 ], [ 128.318615159332126, 20.632335528690444 ], [ 126.415461083709857, 21.65048174916009 ], [ 124.485563687584218, 22.646646082504123 ], [ 122.527800069587542, 23.619377085101014 ], [ 120.541130826929489, 24.567188569419148 ], [ 118.524614100038946, 25.488561384054282 ], [ 116.477420797530328, 26.381945982248855 ], [ 114.398850883368979, 27.245765862830897 ], [ 112.288350547727177, 28.07842196357743 ], [ 110.145530014508722, 28.878298079279137 ], [ 107.970181663272214, 29.643767364577062 ], [ 105.762298063459312, 30.373199963439443 ], [ 103.522089438564194, 31.064971784541434 ], [ 101.250000000932971, 31.717474411449988 ], [ 102.689979331622723, 33.364886984462771 ], [ 104.185251673823132, 34.995037433399709 ], [ 105.740947469966756, 36.606112389039119 ], [ 107.362583846450917, 38.196108734777184 ], [ 109.05608269869461, 39.762810250079049 ], [ 110.827781762170176, 41.303762047124252 ], [ 112.684435120762501, 42.816242901554503 ], [ 114.63319847795232, 44.297235756616701 ], [ 116.681593166797342, 45.743396940630184 ], [ 118.837441328093192, 47.151025000389815 ], [ 121.108763031772128, 48.516030545120366 ], [ 123.503624543085593, 49.833909138013169 ], [ 126.029925780379358, 51.099720076729824 ], [ 128.695114817311207, 52.308074859553052 ], [ 131.505818834690956, 53.45314018310242 ], [ 134.467385253624116, 54.528661342129347 ], [ 137.58333503595199, 55.528012681921354 ], [ 140.854743316184681, 56.444281962867734 ], [ 144.279580932337581, 57.270394701475382 ], [ 147.852072893661614, 57.999282279474585 ], [ 151.56215292870877, 58.624093488500392 ], [ 155.395110872204896, 59.138443150411454 ], [ 159.331533590639509, 59.536684044145922 ], [ 163.347622457204324, 59.814180849641637 ], [ 167.415927112166429, 59.967559109298463 ], [ 171.506470380596198, 59.99490042232317 ], [ 175.588166301002389, 59.895858730391311 ], [ 179.630372379397841, 59.671681707725938 ], [ 179.995, 59.639884956036155 ], [ 179.995, 47.078314337162226 ], [ 179.172813457929465, 45.970176611976505 ] ] ], [ [ [ -176.395612245464491, 59.325134235853284 ], [ -172.515279069193042, 58.860334654049964 ], [ -168.750000000028507, 58.282525587047118 ], [ -170.935467448904546, 56.607645238742705 ], [ -172.933462745727411, 54.897732517921035 ], [ -174.767308872972308, 53.157726219465914 ], [ -176.457239792167485, 51.391758680275117 ], [ -178.02076848224857, 49.603300623319534 ], [ -179.473045162450205, 47.795279640558533 ], [ -179.995, 47.09179227274597 ], [ -179.995, 59.639012922490338 ], [ -176.395612245464491, 59.325134235853284 ] ] ] ] } }
]
}
