{
"type": "FeatureCollection",
"name": "dggrid_isea4t_0",
"crs": { "type": "name", "properties": { "name": "urn:ogc:def:crs:OGC:1.3:CRS84" } },
"features": [
{ "type": "Feature", "properties": { "global_id": "1" }, "geometry": { "type": "Polygon", "coordinates": [ [ [ -166.656994674169567, 56.682461422771411 ], [ -164.720010583918025, 55.035659537791403 ], [ -162.923079065875839, 53.346570611591595 ], [ -161.251768545435141, 51.619226726230053 ], [ -159.69312047606013, 49.857303945632388 ], [ -158.235547835045224, 48.064177237392272 ], [ -156.868716273831495, 46.242967723161904 ], [ -155.583420625356496, 44.396582712966719 ], [ -154.371464412756069, 42.527749201305973 ], [ -153.225546644640929, 40.639041580340141 ], [ -152.139158012948116, 38.732904320943597 ], [ -151.106487251447561, 36.811670325258362 ], [ -150.122337596068633, 34.877575588260491 ], [ -149.182052824690402, 32.932770734338447 ], [ -148.281452116434792, 30.97932992533141 ], [ -147.416772873680202, 29.019257572459978 ], [ -146.584620638009511, 27.054493227477529 ], [ -145.781925267888482, 25.086914978327577 ], [ -145.00590260800152, 23.11834163113296 ], [ -144.254020953513447, 21.150533922710988 ], [ -143.523971688415884, 19.185194975173978 ], [ -142.813643550555895, 17.223970175740856 ], [ -142.121100044248237, 15.268446639943567 ], [ -141.44455958330758, 13.320152394362387 ], [ -140.782378002540071, 11.380555395377607 ], [ -140.13303312435778, 9.451062482795624 ], [ -139.495111109648462, 7.533018351299229 ], [ -138.867294358909845, 5.627704608264146 ], [ -138.248350761543861, 3.736338973416348 ], [ -137.637124118702332, 1.860074663963234 ], [ -137.032525588740668, -0.000000001863523 ], [ -135.450009873980207, 1.149464547258351 ], [ -133.852246229195458, 2.308172452907879 ], [ -132.238614141916713, 3.474652278419178 ], [ -130.608475266007076, 4.647354283641164 ], [ -128.961177563172782, 5.824652754482176 ], [ -127.296060070624392, 7.004848921585625 ], [ -125.612458339269878, 8.186174494418729 ], [ -123.909710587100193, 9.366795832760729 ], [ -122.18716460889695, 10.544818774354949 ], [ -120.444185477538156, 11.718294133931622 ], [ -118.680164063516614, 12.885223884884422 ], [ -116.89452638732503, 14.043568030535063 ], [ -115.086743803614439, 15.191252167057669 ], [ -113.25634399605508, 16.326175734633562 ], [ -111.402922737267346, 17.446220947108628 ], [ -109.526156338837083, 18.549262383139752 ], [ -107.625814682289217, 19.633177213332367 ], [ -105.701774683262897, 20.695856027970429 ], [ -103.754033998674075, 21.735214218420417 ], [ -101.782724741480408, 22.749203851995532 ], [ -99.788126921400064, 23.735825964916888 ], [ -97.770681284752044, 24.693143181047478 ], [ -95.731001185198608, 25.619292545505061 ], [ -93.66988308278664, 26.512498442483952 ], [ -91.588315244874053, 27.371085446265901 ], [ -89.487484213011527, 28.1934909343546 ], [ -87.368778608220296, 28.978277273045517 ], [ -85.233789876465437, 29.724143369867921 ], [ -83.084309628673026, 30.429935375677005 ], [ -80.922323306279495, 31.094656313243885 ], [ -78.750000003251799, 31.717474410420717 ], [ -80.125194748332802, 33.2924167557034 ], [ -81.563506061812475, 34.865333571529142 ], [ -83.070213552043839, 36.433455283676174 ], [ -84.651037531471303, 37.993749598215551 ], [ -86.312154787015828, 39.542899071687849 ], [ -88.060204913179234, 41.077277080663386 ], [ -89.902282592057503, 42.592922491867633 ], [ -91.845909770325804, 44.08551359409126 ], [ -93.898979995481767, 45.550342224101122 ], [ -96.069665294612577, 46.982289526385458 ], [ -98.366274071289908, 48.375805456918272 ], [ -100.797046875635672, 49.724894990665099 ], [ -103.369876104540907, 51.023115014462419 ], [ -106.091936531256863, 52.263587030256907 ], [ -108.969217171104802, 53.43903193513588 ], [ -112.005952720256346, 54.541834056015901 ], [ -115.203965983221451, 55.564141939485019 ], [ -118.561952078163884, 56.4980126427089 ], [ -122.074760078594252, 57.335603880893807 ], [ -125.732754933239264, 58.069413882995818 ], [ -129.521365584747656, 58.692562049729027 ], [ -133.42093485220451, 59.199095009022663 ], [ -137.406972847365978, 59.584293830130292 ], [ -141.450872104301055, 59.844951242505616 ], [ -145.521071595164727, 59.979585294546418 ], [ -149.584572394757572, 59.988559932639255 ], [ -153.608633183045384, 59.874093749499366 ], [ -157.562433136472805, 59.640153683770833 ], [ -161.418497246340507, 59.292247006526487 ], [ -165.153732051518347, 58.837138327975495 ], [ -168.749999995427913, 58.282525583136795 ], [ -166.656994674169567, 56.682461422771411 ] ] ] } },
{ "type": "Feature", "properties": { "global_id": "2" }, "geometry": { "type": "Polygon", "coordinates": [ [ [ 11.250000000636717, 60.238360123808548 ], [ 11.250000000648683, 62.211439401767507 ], [ 11.250000000665601, 64.20085323928987 ], [ 11.250000000688713, 66.205637721388399 ], [ 11.25000000071973, 68.22477708926327 ], [ 11.250000000761093, 70.257206028548921 ], [ 11.250000000816394, 72.30181235778069 ], [ 11.25000000089115, 74.357440108151465 ], [ 11.25000000099428, 76.422892979907488 ], [ 11.250000001141199, 78.496938154981422 ], [ 11.250000001361034, 80.578310439811048 ], [ 11.250000001716215, 82.665716706883217 ], [ 11.250000002369076, 84.757840598509958 ], [ 11.250000003914881, 86.853347451822984 ], [ 11.2500000117111, 88.95088940008425 ], [ -168.750000011744646, 88.950889397735239 ], [ -168.750000003948429, 86.853347449470618 ], [ -168.750000002402629, 84.757840596150942 ], [ -168.750000001749754, 82.665716704514267 ], [ -168.750000001394596, 80.578310437428982 ], [ -168.750000001174755, 78.496938152583112 ], [ -168.750000001027843, 76.422892977489965 ], [ -168.7500000009247, 74.357440105711859 ], [ -168.750000000849951, 72.301812355316329 ], [ -168.750000000794643, 70.257206026057247 ], [ -168.750000000753289, 68.224777086741923 ], [ -168.750000000722252, 66.205637718835234 ], [ -168.750000000699146, 64.20085323670294 ], [ -168.750000000682235, 62.211439399145043 ], [ -168.750000000670269, 60.238360121149022 ], [ -168.749999995427913, 58.282525583136795 ], [ -165.153732051518347, 58.837138327975495 ], [ -161.418497246340507, 59.292247006526495 ], [ -157.562433136472805, 59.640153683770833 ], [ -153.608633183045384, 59.874093749499366 ], [ -149.584572394757572, 59.988559932639255 ], [ -145.521071595164727, 59.979585294546418 ], [ -141.450872104301027, 59.844951242505616 ], [ -137.406972847365978, 59.584293830130292 ], [ -133.42093485220451, 59.199095009022663 ], [ -129.521365584747628, 58.692562049729027 ], [ -125.732754933239249, 58.069413882995818 ], [ -122.074760078594252, 57.3356038808938 ], [ -118.561952078163884, 56.4980126427089 ], [ -115.203965983221451, 55.564141939485019 ], [ -112.005952720256332, 54.541834056015901 ], [ -108.969217171104802, 53.43903193513588 ], [ -106.091936531256863, 52.263587030256907 ], [ -103.369876104540893, 51.023115014462419 ], [ -100.797046875635672, 49.724894990665092 ], [ -98.366274071289894, 48.375805456918265 ], [ -96.069665294612577, 46.982289526385458 ], [ -93.898979995481767, 45.550342224101115 ], [ -91.845909770325804, 44.085513594091253 ], [ -89.902282592057503, 42.592922491867633 ], [ -88.060204913179234, 41.077277080663386 ], [ -86.312154787015828, 39.542899071687849 ], [ -84.651037531471303, 37.993749598215551 ], [ -83.070213552043839, 36.433455283676167 ], [ -81.563506061812475, 34.865333571529142 ], [ -80.125194748332802, 33.2924167557034 ], [ -78.750000003251799, 31.717474410420717 ], [ -77.374805255000453, 33.29241675815328 ], [ -75.936493941588182, 34.86533357410967 ], [ -74.429786451425244, 36.433455286385723 ], [ -72.84896247206612, 37.993749601052912 ], [ -71.187845216588471, 39.542899074652226 ], [ -69.439795090488857, 41.07727708375441 ], [ -67.597717411669308, 42.592922495085347 ], [ -65.654090233452195, 44.085513597436083 ], [ -63.601020008337038, 45.550342227573815 ], [ -61.43033470923325, 46.982289529987021 ], [ -59.133725932565142, 48.375805460649815 ], [ -56.70295312820619, 49.724894994527716 ], [ -54.130123899260148, 51.023115018456956 ], [ -51.408063472469983, 52.263587034383697 ], [ -48.530782832508294, 53.439031939394461 ], [ -45.494047283197105, 54.541834060404639 ], [ -42.296034020020301, 55.564141944000717 ], [ -38.93804792480875, 56.498012647346435 ], [ -35.425239924047744, 57.335603885645703 ], [ -31.767245069008595, 58.069413887851994 ], [ -27.978634417043306, 58.69256205467655 ], [ -24.079065149070846, 59.19909501404576 ], [ -20.093027153342717, 59.584293835210502 ], [ -16.049127895800989, 59.84495124762217 ], [ -11.978928404304503, 59.979585299676849 ], [ -7.915427604068297, 59.988559937760108 ], [ -3.8913668151426, 59.874093754587001 ], [ 0.062433138902138, 59.640153688802236 ], [ 3.918497249353676, 59.292247011479915 ], [ 7.653732055071786, 58.837138332831017 ], [ 11.250000000628775, 58.282525589545017 ], [ 11.250000000636717, 60.238360123808548 ] ] ] } },
{ "type": "Feature", "properties": { "global_id": "3" }, "geometry": { "type": "Polygon", "coordinates": [ [ [ -78.750000001247898, 29.761639874951268 ], [ -78.750000001159904, 27.788560596969084 ], [ -78.750000001075875, 25.799146759424787 ], [ -78.750000000995527, 23.794362277305709 ], [ -78.750000000918547, 21.775222909411713 ], [ -78.750000000844665, 19.742793970108444 ], [ -78.750000000773682, 17.698187640860624 ], [ -78.750000000705342, 15.642559890475439 ], [ -78.75000000063946, 13.577107018706673 ], [ -78.750000000575866, 11.503061843621733 ], [ -78.750000000514362, 9.421689558782857 ], [ -78.750000000454804, 7.33428329170326 ], [ -78.750000000397065, 5.242159400070919 ], [ -78.750000000340989, 3.146652546754144 ], [ -78.750000000286448, 1.049110598490998 ], [ -78.750000000233356, -1.049110603689522 ], [ -78.750000000181572, -3.146652551952255 ], [ -78.75000000013101, -5.242159405268194 ], [ -78.75000000008157, -7.334283296899259 ], [ -78.750000000033168, -9.421689563977111 ], [ -78.749999999985732, -11.503061848813735 ], [ -78.749999999939149, -13.57710702389587 ], [ -78.749999999893376, -15.642559895661231 ], [ -78.749999999848328, -17.698187646042353 ], [ -78.749999999803947, -19.742793975285387 ], [ -78.749999999760149, -21.775222914583086 ], [ -78.749999999716891, -23.794362282470658 ], [ -78.749999999674117, -25.799146764582396 ], [ -78.74999999963174, -27.788560602118366 ], [ -78.749999999589733, -29.761639880091163 ], [ -78.749999999548024, -31.71747441198902 ], [ -76.57767669389294, -31.094656314064757 ], [ -74.4156903715309, -30.429935376488253 ], [ -72.266210123768062, -29.724143370671854 ], [ -70.131221392040544, -28.97827727384426 ], [ -68.012515787274168, -28.193490935150052 ], [ -65.91168475543374, -27.371085447059755 ], [ -63.830116917540323, -26.512498443277668 ], [ -61.768998815144407, -25.619292546299864 ], [ -59.729318715603796, -24.693143181844363 ], [ -57.711873078965269, -23.735825965716618 ], [ -55.717275258891007, -22.749203852798662 ], [ -53.74596600169999, -21.735214219227288 ], [ -51.798225317110379, -20.695856028781201 ], [ -49.874185318079832, -19.633177214147018 ], [ -47.973843661524349, -18.549262383958119 ], [ -46.097077263083129, -17.446220947930424 ], [ -44.243656004281178, -16.326175735458392 ], [ -42.413256196704417, -15.19125216788507 ], [ -40.605473612973341, -14.043568031364522 ], [ -38.819835936758295, -12.885223885715403 ], [ -37.055814522710421, -11.718294134763592 ], [ -35.312835391322544, -10.544818775187407 ], [ -33.590289413087589, -9.366795833593223 ], [ -31.887541660883706, -8.186174495250878 ], [ -30.203939929492638, -7.004848922417144 ], [ -28.538822436905427, -5.824652755312891 ], [ -26.891524734030256, -4.647354284471024 ], [ -25.26138585807773, -3.474652279248273 ], [ -23.647753770754285, -2.308172453736444 ], [ -22.049990125923131, -1.149464548086778 ], [ -20.467474413039799, -0.000000000363998 ], [ -22.049990128639507, 1.149464548693489 ], [ -23.647753773440648, 2.308172454278037 ], [ -25.261385860743491, 3.474652279723565 ], [ -26.89152473668462, 4.647354284878778 ], [ -28.538822439557368, 5.824652755651774 ], [ -30.20393993215087, 7.004848922685698 ], [ -31.887541663556661, 8.186174495447478 ], [ -33.590289415783374, 9.366795833716045 ], [ -35.312835394048889, 10.544818775234402 ], [ -37.055814525474659, 11.718294134732446 ], [ -38.819835939567319, 12.885223885603512 ], [ -40.605473615833517, 14.043568031168981 ], [ -42.413256199621557, 15.19125216760264 ], [ -44.243656007260469, 16.326175735085499 ], [ -46.097077266129062, 17.446220947463154 ], [ -47.973843664640654, 18.549262383392207 ], [ -49.874185321269401, 19.633177213477882 ], [ -51.798225320375181, 20.695856028003934 ], [ -53.745966005041005, 21.735214218336704 ], [ -55.717275262308142, 22.749203851789318 ], [ -57.711873082457281, 23.735825964582869 ], [ -59.729318719168198, 24.693143180580407 ], [ -61.76899881877744, 25.619292544899814 ], [ -63.830116921236872, 26.512498441735609 ], [ -65.911684759187281, 27.371085445369829 ], [ -68.012515791076751, 28.193490933306531 ], [ -70.131221395882804, 28.978277271841641 ], [ -72.266210127639127, 29.724143368504944 ], [ -74.415690375418521, 30.42993537415224 ], [ -76.577676697783517, 31.09465631155533 ], [ -78.750000001340211, 31.717474406859662 ], [ -78.750000001247898, 29.761639874951268 ] ] ] } },
{ "type": "Feature", "properties": { "global_id": "4" }, "geometry": { "type": "Polygon", "coordinates": [ [ [ 7.653732050969288, 58.837138334051332 ], [ 3.91849724508505, 59.292247012550142 ], [ 0.062433134493144, 59.640153689717167 ], [ -3.891366819661172, 59.874093755342834 ], [ -7.915427608661679, 59.988559938354705 ], [ -11.978928408935476, 59.979585300109946 ], [ -16.049127900431738, 59.844951247895459 ], [ -20.093027157936785, 59.5842938353276 ], [ -24.079065153594957, 59.199095014012045 ], [ -27.978634421468808, 58.692562054498893 ], [ -31.767245073312424, 58.069413887538431 ], [ -35.425239928212811, 57.335603885205067 ], [ -38.938047928823877, 56.498012646787991 ], [ -42.296034023879706, 55.564141943333851 ], [ -45.494047286899686, 54.541834059638575 ], [ -48.530782836056787, 53.439031938538058 ], [ -51.408063475870058, 52.263587033445319 ], [ -54.130123902519628, 51.023115017444361 ], [ -56.70295313133434, 49.724894993448046 ], [ -59.133725935572109, 48.375805459509571 ], [ -61.430334712129564, 46.98228952879208 ], [ -63.601020011133301, 45.550342226329512 ], [ -65.654090236158808, 44.085513596147216 ], [ -67.597717414296312, 42.592922493756262 ], [ -69.439795093045845, 41.077277082389053 ], [ -71.187845219084451, 39.542899073254198 ], [ -72.848962474509548, 37.993749599625531 ], [ -74.429786453824008, 36.433455284932059 ], [ -75.936493943949614, 34.865333572632608 ], [ -77.374805257331346, 33.292416756655548 ], [ -78.750000001340211, 31.717474406859662 ], [ -76.577676697783502, 31.094656311555326 ], [ -74.415690375418521, 30.42993537415224 ], [ -72.266210127639127, 29.72414336850494 ], [ -70.13122139588279, 28.978277271841641 ], [ -68.012515791076751, 28.193490933306531 ], [ -65.911684759187281, 27.371085445369829 ], [ -63.830116921236872, 26.512498441735609 ], [ -61.76899881877744, 25.619292544899814 ], [ -59.729318719168198, 24.693143180580407 ], [ -57.711873082457274, 23.735825964582869 ], [ -55.717275262308142, 22.749203851789318 ], [ -53.745966005041005, 21.735214218336704 ], [ -51.798225320375181, 20.695856028003934 ], [ -49.874185321269394, 19.633177213477882 ], [ -47.973843664640647, 18.549262383392207 ], [ -46.097077266129062, 17.44622094746315 ], [ -44.243656007260469, 16.326175735085499 ], [ -42.413256199621557, 15.19125216760264 ], [ -40.605473615833517, 14.043568031168979 ], [ -38.819835939567312, 12.885223885603512 ], [ -37.055814525474659, 11.718294134732444 ], [ -35.312835394048889, 10.5448187752344 ], [ -33.590289415783367, 9.366795833716045 ], [ -31.887541663556661, 8.186174495447476 ], [ -30.20393993215087, 7.004848922685697 ], [ -28.538822439557368, 5.824652755651774 ], [ -26.89152473668462, 4.647354284878777 ], [ -25.261385860743488, 3.474652279723565 ], [ -23.647753773440648, 2.308172454278036 ], [ -22.049990128639507, 1.149464548693488 ], [ -20.467474413039799, -0.000000000363998 ], [ -19.862875879813902, 1.860074671294768 ], [ -19.251649237013176, 3.736338980772256 ], [ -18.632705639683586, 5.627704615642763 ], [ -18.004888888976733, 7.533018358698945 ], [ -17.36696687429437, 9.451062490214875 ], [ -16.717621996133921, 11.380555402814871 ], [ -16.055440415382837, 13.320152401816179 ], [ -15.378899954452786, 15.26844664741243 ], [ -14.686356448149514, 17.223970183223344 ], [ -13.976028310287177, 19.185194982668648 ], [ -13.245979045179979, 21.150533930216373 ], [ -12.494097390674268, 23.118341638647564 ], [ -11.7180747307609, 25.086914985849834 ], [ -10.915379360603803, 27.054493235005793 ], [ -10.083227124886378, 29.01925757999248 ], [ -9.21854788207313, 30.979329932866229 ], [ -8.317947173745555, 32.932770741873476 ], [ -7.377662402280468, 34.877575595793374 ], [ -6.393512746797871, 36.81167033278647 ], [ -5.360841985174718, 38.732904328463938 ], [ -4.274453353337799, 40.639041587849313 ], [ -3.128535585054114, 42.527749208800067 ], [ -1.916579372257307, 44.396582720441252 ], [ -0.631283723554136, 46.242967730611682 ], [ 0.735547837924157, 48.064177244811262 ], [ 2.193120479245379, 49.85730395301357 ], [ 3.751768548974522, 51.619226733565235 ], [ 5.423079069824259, 53.346570618871183 ], [ 7.220010588338344, 55.035659545004151 ], [ 9.156994679133623, 56.682461429904073 ], [ 11.250000001017378, 58.28252559017379 ], [ 7.653732050969288, 58.837138334051332 ] ] ] } },
{ "type": "Feature", "properties": { "global_id": "5" }, "geometry": { "type": "Polygon", "coordinates": [ [ [ -19.862875880399557, -1.860074669076111 ], [ -19.25164923752547, -3.736338978529382 ], [ -18.63270564012586, -5.627704613376481 ], [ -18.004888889352333, -7.533018356410046 ], [ -17.366966874606661, -9.451062487904139 ], [ -16.717621996386331, -11.380555400483068 ], [ -16.055440415578854, -13.320152399464076 ], [ -15.378899954595997, -15.268446645040791 ], [ -14.686356448243624, -17.223970180832943 ], [ -13.976028310336041, -19.18519498026026 ], [ -13.245979045187646, -21.1505339277908 ], [ -12.49409739064501, -23.118341636205624 ], [ -11.718074730699263, -25.086914983392386 ], [ -10.915379360514656, -27.05449323253373 ], [ -10.083227124774982, -29.019257577506746 ], [ -9.218547881945195, -30.97932993036784 ], [ -8.317947173607326, -32.932770739363519 ], [ -7.377662402138817, -34.877575593273036 ], [ -6.393512746660408, -36.811670330257058 ], [ -5.360841985049906, -38.732904325926889 ], [ -4.274453353235109, -40.639041585306231 ], [ -3.128535584984186, -42.527749206252771 ], [ -1.916579372232146, -44.396582717891789 ], [ -0.631283723587335, -46.242967728062389 ], [ 0.735547837817161, -48.064177242264819 ], [ 2.193120479047016, -49.857303950473081 ], [ 3.751768548664766, -51.619226731034288 ], [ 5.423079069380274, -53.346570616353965 ], [ 7.220010587734108, -55.035659542505556 ], [ 9.156994678339556, -56.682461427429836 ], [ 11.25, -58.282525587730653 ], [ 13.343005324083453, -56.682461425474045 ], [ 15.279989414478896, -55.035659540524946 ], [ 17.076920932647241, -53.346570614353375 ], [ 18.748231453198994, -51.619226729017697 ], [ 20.306879522672183, -49.8573039484437 ], [ 21.764452163774404, -48.064177240225227 ], [ 23.131283725066176, -46.24296772601457 ], [ 24.416579373611391, -44.396582715837255 ], [ 25.628535586275422, -42.527749204192588 ], [ 26.774453354448557, -40.639041583241095 ], [ 27.860841986194615, -38.732904323857163 ], [ 28.893512747744392, -36.811670328182849 ], [ 29.877662403169211, -34.877575591194216 ], [ 30.817947174590476, -32.932770737279753 ], [ 31.718547882886782, -30.979329928278645 ], [ 32.583227125680096, -29.019257575411519 ], [ 33.415379361387878, -27.054493230431774 ], [ 34.218074731544718, -25.086914981282941 ], [ 34.994097391466447, -23.118341634087905 ], [ 35.74597904598847, -21.150533925664 ], [ 36.476028311119357, -19.185194978123594 ], [ 37.18635644901228, -17.223970178685658 ], [ 37.878899955352608, -15.268446642882195 ], [ 38.555440416325844, -13.320152397293541 ], [ 39.217621997125953, -11.380555398300055 ], [ 39.866966875341006, -9.451062485708205 ], [ 40.504888890083357, -7.533018354200858 ], [ 41.132705640855427, -5.62770461115382 ], [ 41.751649238255318, -3.736338976293152 ], [ 42.362875881131359, -1.86007466682634 ], [ 42.967474411128194, -0.000000000985117 ], [ 41.011639876223875, -0.000000001435736 ], [ 39.038560598290765, -0.000000001400199 ], [ 37.049146760788993, -0.000000001366944 ], [ 35.044362278706146, -0.000000001336023 ], [ 33.025222910842359, -0.000000001307484 ], [ 30.992793971563593, -0.000000001281376 ], [ 28.948187642334911, -0.000000001257743 ], [ 26.892559891963867, -0.000000001236625 ], [ 24.827107020204647, -0.000000001218061 ], [ 22.753061845125085, -0.000000001202084 ], [ 20.67168956028787, -0.000000001188723 ], [ 18.584283293206685, -0.000000001178004 ], [ 16.492159401569999, -0.000000001169947 ], [ 14.396652548246628, -0.000000001164568 ], [ 12.299110599975156, -0.000000001161875 ], [ 10.200889397785108, -0.000000001161876 ], [ 8.103347449512171, -0.000000001164568 ], [ 6.007840596185888, -0.000000001169949 ], [ 3.915716704544876, -0.000000001178006 ], [ 1.828310437458, -0.000000001188726 ], [ -0.253061847386206, -0.000000001202087 ], [ -2.327107022473975, -0.000000001218065 ], [ -4.392559894242529, -0.000000001236629 ], [ -6.448187644623928, -0.000000001257748 ], [ -8.492793973863872, -0.000000001281382 ], [ -10.525222913154684, -0.00000000130749 ], [ -12.544362281031166, -0.00000000133603 ], [ -14.549146763127235, -0.000000001366952 ], [ -16.538560600642601, -0.000000001400208 ], [ -18.511639878589556, -0.000000001435745 ], [ -20.467474410392857, -0.000000003248273 ], [ -19.862875880399557, -1.860074669076111 ] ] ] } },
{ "type": "Feature", "properties": { "global_id": "6" }, "geometry": { "type": "Polygon", "coordinates": [ [ [ 9.15699467575921, 56.682461428303903 ], [ 7.22001058523651, 55.035659543349688 ], [ 5.423079066966408, 53.346570617170492 ], [ 3.751768546334455, 51.619226731825222 ], [ 2.19312047679926, 49.857303951240141 ], [ 0.735547835650395, 48.064177243009425 ], [ -0.631283725675048, 46.242967728785651 ], [ -1.916579374242971, 44.396582718594559 ], [ -3.12853558692041, 42.527749206935631 ], [ -4.274453355099065, 40.639041585969522 ], [ -5.360841986843917, 38.73290432657074 ], [ -6.393512748386744, 36.811670330881391 ], [ -7.377662403799675, 34.877575593877616 ], [ -8.317947175204807, 32.932770739947948 ], [ -9.218547883481293, 30.979329930931605 ], [ -10.083227126251577, 29.019257578049235 ], [ -10.915379361933514, 27.054493233054249 ], [ -11.71807473206203, 25.086914983890193 ], [ -12.494097391953218, 23.118341636679947 ], [ -13.245979046442715, 21.150533928240858 ], [ -13.976028311539279, 19.185194980685285 ], [ -14.686356449396234, 17.22397018123219 ], [ -15.378899955699076, 15.268446645413572 ], [ -16.055440416633402, 13.320152399809755 ], [ -16.717621997393255, 11.380555400801088 ], [ -17.366966875566774, 9.451062488194026 ], [ -18.004888890266361, 7.533018356671425 ], [ -18.632705640994448, 5.627704613609076 ], [ -19.251649238349181, 3.736338978733024 ], [ -19.862875881178876, 1.86007466925074 ], [ -20.467474410392857, -0.000000003248273 ], [ -18.511639878589552, -0.000000001435745 ], [ -16.538560600642601, -0.000000001400208 ], [ -14.549146763127233, -0.000000001366952 ], [ -12.544362281031164, -0.00000000133603 ], [ -10.525222913154682, -0.00000000130749 ], [ -8.49279397386387, -0.000000001281382 ], [ -6.448187644623927, -0.000000001257748 ], [ -4.392559894242527, -0.000000001236629 ], [ -2.327107022473973, -0.000000001218065 ], [ -0.253061847386204, -0.000000001202087 ], [ 1.828310437458002, -0.000000001188726 ], [ 3.915716704544878, -0.000000001178006 ], [ 6.00784059618589, -0.000000001169949 ], [ 8.103347449512173, -0.000000001164568 ], [ 10.20088939778511, -0.000000001161876 ], [ 12.299110599975158, -0.000000001161875 ], [ 14.39665254824663, -0.000000001164568 ], [ 16.492159401569999, -0.000000001169947 ], [ 18.584283293206685, -0.000000001178004 ], [ 20.67168956028787, -0.000000001188723 ], [ 22.753061845125089, -0.000000001202084 ], [ 24.827107020204647, -0.000000001218061 ], [ 26.89255989196387, -0.000000001236625 ], [ 28.948187642334915, -0.000000001257743 ], [ 30.992793971563597, -0.000000001281376 ], [ 33.025222910842359, -0.000000001307484 ], [ 35.044362278706146, -0.000000001336023 ], [ 37.049146760788993, -0.000000001366944 ], [ 39.038560598290765, -0.000000001400199 ], [ 41.011639876223875, -0.000000001435736 ], [ 42.967474411128194, -0.000000000985117 ], [ 42.362875880447078, 1.860074671500512 ], [ 41.751649237619333, 3.736338980969254 ], [ 41.132705640264881, 5.627704615831736 ], [ 40.50488888953533, 7.533018358880613 ], [ 39.866966874832436, 9.45106249038996 ], [ 39.217621996653634, 11.380555402984101 ], [ 38.555440415886416, 13.320152401980289 ], [ 37.878899954942462, 15.268446647572167 ], [ 37.186356448627578, 17.223970183379475 ], [ 36.476028310755964, 19.185194982821951 ], [ 35.745979045641896, 21.150533930367661 ], [ 34.994097391131781, 23.11834163879767 ], [ 34.218074731216575, 25.086914985999638 ], [ 33.415379361060296, 27.054493235156205 ], [ 32.583227125346461, 29.019257580144462 ], [ 31.718547882539706, 30.9793299330208 ], [ 30.817947174221658, 32.932770742031714 ], [ 29.877662402769285, 34.877575595956436 ], [ 28.893512747302758, 36.811670332955593 ], [ 27.86084198569921, 38.732904328640458 ], [ 26.774453353885619, 40.639041588034665 ], [ 25.628535585629177, 42.527749208995814 ], [ 24.416579372863723, 44.396582720649093 ], [ 23.131283724196209, 46.242967730833463 ], [ 21.76445216275804, 48.064177245049017 ], [ 20.306879521481537, 49.857303953269522 ], [ 18.748231451801786, 51.61922673384182 ], [ 17.076920931006079, 53.346570619171082 ], [ 15.279989412550487, 55.035659545330297 ], [ 13.343005321817781, 56.682461430259693 ], [ 11.25, 58.282525590562393 ], [ 9.15699467575921, 56.682461428303903 ] ] ] } },
{ "type": "Feature", "properties": { "global_id": "7" }, "geometry": { "type": "Polygon", "coordinates": [ [ [ 44.549990127837773, -1.149464549476766 ], [ 46.147753772660046, -2.308172455116698 ], [ 47.761385859976379, -3.474652280617854 ], [ 49.391524735923667, -4.647354285829063 ], [ 51.038822438795599, -5.824652756658582 ], [ 52.703939931381697, -7.004848923749744 ], [ 54.387541662773884, -8.186174496569695 ], [ 56.090289414981228, -9.366795834897612 ], [ 57.81283539322208, -10.544818776476763 ], [ 59.555814524618405, -11.718294136037334 ], [ 61.31983593867735, -12.885223886972961 ], [ 63.105473614906181, -14.043568032605329 ], [ 64.913256198653798, -15.191252169108546 ], [ 66.743656006249921, -16.326175736663931 ], [ 68.597077265074077, -17.446220949117375 ], [ 70.47384366354035, -18.549262385125786 ], [ 72.374185320123743, -19.63317721529463 ], [ 74.298225319185022, -20.695856029907912 ], [ 76.245966003808121, -21.735214220332164 ], [ 78.217275261035283, -22.749203853880669 ], [ 80.211873081148255, -23.735825966774623 ], [ 82.229318717827866, -24.69314318287713 ], [ 84.268998817411799, -25.619292547306053 ], [ 86.330116919853026, -26.512498444255836 ], [ 88.411684757793481, -27.371085448008365 ], [ 90.512515789682425, -28.193490936067487 ], [ 92.631221394498453, -28.978277274728825 ], [ 94.766210126276391, -29.724143371521802 ], [ 96.915690374090076, -30.429935377301796 ], [ 99.077676696502976, -31.094656314840094 ], [ 101.249999999548024, -31.71747441198902 ], [ 101.249999999589747, -29.761639877725486 ], [ 101.249999999631754, -27.788560599766527 ], [ 101.249999999674117, -25.799146762244156 ], [ 101.249999999716906, -23.794362280145638 ], [ 101.249999999760163, -21.775222912270763 ], [ 101.249999999803947, -19.742793972985108 ], [ 101.249999999848342, -17.698187643753336 ], [ 101.24999999989339, -15.64255989338257 ], [ 101.249999999939163, -13.577107021626542 ], [ 101.249999999985732, -11.503061846552614 ], [ 101.250000000033182, -9.42168956172298 ], [ 101.25000000008157, -7.334283294650819 ], [ 101.25000000013101, -5.242159403024081 ], [ 101.250000000181572, -3.146652549711054 ], [ 101.250000000233356, -1.049110601449786 ], [ 101.250000000286448, 1.049110600730734 ], [ 101.250000000340989, 3.146652548995345 ], [ 101.250000000397065, 5.242159402315032 ], [ 101.250000000454804, 7.3342832939517 ], [ 101.250000000514362, 9.421689561036988 ], [ 101.250000000575852, 11.503061845882854 ], [ 101.25000000063946, 13.577107020976001 ], [ 101.250000000705342, 15.642559892754102 ], [ 101.250000000773667, 17.698187643149645 ], [ 101.250000000844665, 19.742793972408723 ], [ 101.250000000918533, 21.775222911724036 ], [ 101.250000000995513, 23.794362279630729 ], [ 101.250000001075875, 25.799146761763026 ], [ 101.25000000115989, 27.788560599320924 ], [ 101.250000001247884, 29.761639877316945 ], [ 101.250000001340197, 31.71747440923928 ], [ 99.07767669517348, 31.094656310779992 ], [ 96.915690372859345, 30.429935373338697 ], [ 94.766210125130797, 29.724143367654996 ], [ 92.631221393424894, 28.978277270957076 ], [ 90.512515788668495, 28.193490932389096 ], [ 88.411684756827526, 27.371085444421215 ], [ 86.330116918924176, 26.51249844075744 ], [ 84.268998816510049, 25.619292543893625 ], [ 82.229318716944121, 24.69314317954764 ], [ 80.211873080274302, 23.735825963524864 ], [ 78.217275260163859, 22.749203850707314 ], [ 76.245966002932889, 21.735214217231832 ], [ 74.298225318300538, 20.695856026877223 ], [ 72.374185319225475, 19.633177212330271 ], [ 70.473843662624645, 18.549262382224541 ], [ 68.597077264138122, 17.446220946276199 ], [ 66.743656005291726, 16.32617573387996 ], [ 64.913256197672183, 15.191252166379163 ], [ 63.105473613900685, 14.043568029928172 ], [ 61.319835937648257, 12.885223884345955 ], [ 59.555814523566674, 11.718294133458704 ], [ 57.812835392149346, 10.544818773945044 ], [ 56.090289413889735, 9.366795832411654 ], [ 54.387541661666489, 8.186174494128661 ], [ 52.703939930261818, 7.004848921353099 ], [ 51.038822437667193, 5.824652754306083 ], [ 49.391524734791211, 4.647354283520739 ], [ 47.761385858844847, 3.474652278353985 ], [ 46.147753771534887, 2.308172452897783 ], [ 44.549990126724872, 1.149464547303501 ], [ 42.967474414964947, -0.000000001762711 ], [ 44.549990127837773, -1.149464549476766 ] ] ] } },
{ "type": "Feature", "properties": { "global_id": "8" }, "geometry": { "type": "Polygon", "coordinates": [ [ [ 13.34300532328936, 56.682461427948276 ], [ 15.279989413874635, 55.035659543023534 ], [ 17.076920932203233, 53.346570616870586 ], [ 18.748231452889218, 51.619226731548636 ], [ 20.306879522473803, 49.857303950984182 ], [ 21.764452163667393, 48.064177242771663 ], [ 23.131283725032961, 46.242967728563862 ], [ 24.416579373636544, 44.396582718386718 ], [ 25.62853558634534, 42.527749206739884 ], [ 26.774453354551241, 40.63904158578417 ], [ 27.860841986319418, 38.732904326394213 ], [ 28.893512747881854, 36.811670330712268 ], [ 29.877662403310858, 34.877575593714553 ], [ 30.817947174728705, 32.93277073978971 ], [ 31.718547883014715, 30.979329930777034 ], [ 32.583227125791488, 29.019257577897253 ], [ 33.415379361477022, 27.054493232903837 ], [ 34.218074731606357, 25.086914983740392 ], [ 34.994097391495707, 23.118341636529841 ], [ 35.745979045980803, 21.150533928089573 ], [ 36.476028311070493, 19.185194980531982 ], [ 37.186356448918175, 17.223970181076066 ], [ 37.878899955209405, 15.268446645253837 ], [ 38.555440416129834, 13.320152399645648 ], [ 39.217621996873547, 11.380555400631861 ], [ 39.866966875028723, 9.451062488018945 ], [ 40.504888889707779, 7.533018356489761 ], [ 41.132705640413164, 5.627704613420107 ], [ 41.751649237743038, 3.736338978536031 ], [ 42.362875880545715, 1.860074669045002 ], [ 42.967474414964947, -0.000000001762711 ], [ 44.549990126724872, 1.149464547303503 ], [ 46.147753771534887, 2.308172452897784 ], [ 47.761385858844847, 3.474652278353985 ], [ 49.391524734791211, 4.64735428352074 ], [ 51.0388224376672, 5.824652754306085 ], [ 52.703939930261818, 7.0048489213531 ], [ 54.387541661666489, 8.186174494128661 ], [ 56.090289413889735, 9.366795832411656 ], [ 57.812835392149346, 10.544818773945046 ], [ 59.555814523566674, 11.718294133458706 ], [ 61.319835937648257, 12.885223884345956 ], [ 63.105473613900685, 14.043568029928174 ], [ 64.913256197672183, 15.191252166379165 ], [ 66.74365600529174, 16.32617573387996 ], [ 68.597077264138122, 17.446220946276199 ], [ 70.473843662624645, 18.549262382224541 ], [ 72.374185319225489, 19.633177212330271 ], [ 74.298225318300538, 20.695856026877223 ], [ 76.245966002932889, 21.735214217231832 ], [ 78.217275260163873, 22.749203850707314 ], [ 80.211873080274302, 23.735825963524864 ], [ 82.229318716944121, 24.69314317954764 ], [ 84.268998816510049, 25.619292543893625 ], [ 86.330116918924176, 26.512498440757444 ], [ 88.411684756827526, 27.371085444421219 ], [ 90.512515788668509, 28.1934909323891 ], [ 92.631221393424894, 28.978277270957076 ], [ 94.766210125130797, 29.724143367654996 ], [ 96.915690372859345, 30.429935373338701 ], [ 99.07767669517348, 31.094656310779992 ], [ 101.250000001340197, 31.71747440923928 ], [ 99.874805255638435, 33.292416758551333 ], [ 98.436493942202915, 34.865333574497328 ], [ 96.929786452017851, 36.43345528676393 ], [ 95.348962472637751, 37.993749601422685 ], [ 93.68784521714025, 39.54289907501461 ], [ 91.93979509102185, 41.077277084110506 ], [ 90.097717412184537, 42.592922495436341 ], [ 88.154090233950626, 44.085513597783205 ], [ 86.101020008819532, 45.550342227918378 ], [ 83.930334709700503, 46.982289530330412 ], [ 81.633725933017658, 48.375805460993512 ], [ 79.202953128644225, 49.724894994873253 ], [ 76.630123899683639, 51.023115018805946 ], [ 73.908063472878439, 52.263587034737832 ], [ 71.030782832900726, 53.439031939755459 ], [ 67.994047283571959, 54.541834060774264 ], [ 64.79603402037533, 55.564141944380737 ], [ 61.438047925140971, 56.498012647738577 ], [ 57.92523992435342, 57.335603886051629 ], [ 54.267245069283248, 58.069413888273246 ], [ 50.478634417281782, 58.692562055114507 ], [ 46.579065149267514, 59.19909501450158 ], [ 42.593027153491647, 59.584293835685109 ], [ 38.549127895896291, 59.844951248116217 ], [ 34.478928404340593, 59.979585300190713 ], [ 30.415427604040229, 59.988559938293903 ], [ 26.391366815046304, 59.874093755140613 ], [ 22.437566860930307, 59.64015368937536 ], [ 18.581502750405594, 59.292247012072117 ], [ 14.846267944613473, 58.837138333441779 ], [ 11.249999998982622, 58.28252559017379 ], [ 13.34300532328936, 56.682461427948276 ] ] ] } },
{ "type": "Feature", "properties": { "global_id": "9" }, "geometry": { "type": "Polygon", "coordinates": [ [ [ 103.422323308889517, 31.094656312468533 ], [ 105.584309631232202, 30.429935374863444 ], [ 107.733789878973752, 29.724143369017959 ], [ 109.868778610678191, 28.978277272160941 ], [ 111.987484215419769, 28.193490933437154 ], [ 114.088315247233808, 27.371085445317277 ], [ 116.169883085099329, 26.512498441505777 ], [ 118.231001187465992, 25.619292544498865 ], [ 120.270681286976128, 24.693143180014705 ], [ 122.288126923583036, 23.735825963858876 ], [ 124.282724743624684, 22.749203850913521 ], [ 126.254034000782198, 21.735214217315537 ], [ 128.20177468533754, 20.695856026843718 ], [ 130.125814684333136, 19.633177212184751 ], [ 132.026156340853078, 18.549262381972081 ], [ 133.902922739258287, 17.446220945921674 ], [ 135.756343998023823, 16.326175733428023 ], [ 137.586743805563827, 15.191252165834195 ], [ 139.394526389257862, 14.04356802929426 ], [ 141.180164065435662, 12.885223883626869 ], [ 142.944185479446134, 11.718294132657887 ], [ 144.687164610796486, 10.544818773065598 ], [ 146.409710588993846, 9.366795831456345 ], [ 148.11245834116005, 8.186174493099919 ], [ 149.796060072513455, 7.004848920253035 ], [ 151.461177565062968, 5.824652753136495 ], [ 153.108475267900474, 4.647354282283136 ], [ 154.738614143815369, 3.474652277049609 ], [ 156.352246231101219, 2.308172451527639 ], [ 157.950009875894835, 1.149464545868378 ], [ 159.532525588740668, -0.000000001863523 ], [ 160.137124119434134, 1.860074666213 ], [ 160.748350762273731, 3.736338975652573 ], [ 161.36729435963943, 5.627704610486801 ], [ 161.995111110379526, 7.533018353508412 ], [ 162.63303312509214, 9.451062484991555 ], [ 163.282378003279717, 11.380555397560617 ], [ 163.944559584054559, 13.320152396532919 ], [ 164.621100045004852, 15.268446642102161 ], [ 165.31364355132456, 17.223970177888138 ], [ 166.023971689199215, 19.185194977310644 ], [ 166.754020954314257, 21.150533924837788 ], [ 167.505902608822964, 23.118341633250679 ], [ 168.281925268733943, 25.086914980437019 ], [ 169.08462063888274, 27.054493229579485 ], [ 169.91677287458532, 29.019257574555205 ], [ 170.781452117376375, 30.979329927420604 ], [ 171.682052825673566, 32.932770736422214 ], [ 172.622337597099005, 34.877575590339312 ], [ 173.606487252531537, 36.811670327332571 ], [ 174.6391580140928, 38.732904323013322 ], [ 175.725546645854365, 40.639041582405284 ], [ 176.871464414047296, 42.527749203366156 ], [ 178.083420626735744, 44.396582715021253 ], [ 179.368716275310334, 46.242967725209724 ], [ -179.264452163363245, 48.064177239431871 ], [ -177.806879522220669, 49.857303947661769 ], [ -176.248231452701134, 51.619226728246652 ], [ -174.57692093209667, 53.346570613592192 ], [ -172.779989413869004, 55.035659539772027 ], [ -170.843005323407453, 56.682461424727208 ], [ -168.750000001911616, 58.282525585061954 ], [ -172.346267952898899, 58.837138328585048 ], [ -176.081502758168824, 59.292247007004512 ], [ -179.937566868103744, 59.64015368411264 ], [ 176.108633178430523, 59.874093749701586 ], [ 172.084572390136117, 59.988559932700063 ], [ 168.021071590569846, 59.97958529446565 ], [ 163.950872099765604, 59.844951242284857 ], [ 159.906972842920823, 59.584293829772783 ], [ 155.920934847877049, 59.199095008533121 ], [ 152.021365580560627, 58.692562049113413 ], [ 148.232754929210074, 58.069413882261003 ], [ 144.574760074734854, 57.335603880047238 ], [ 141.061952074480985, 56.498012641758315 ], [ 137.703965979717083, 55.564141938438134 ], [ 134.505952716928618, 54.541834054880212 ], [ 131.469217167948756, 53.439031933918486 ], [ 128.591936528265251, 52.263587028964395 ], [ 125.869876101704918, 51.023115013100835 ], [ 123.297046872945558, 49.724894989239893 ], [ 120.866274068735464, 48.375805455434325 ], [ 118.569665292183515, 46.982289524847126 ], [ 116.398979993167998, 45.550342222512249 ], [ 114.345909768117622, 44.085513592455271 ], [ 112.402282589945713, 42.592922490187561 ], [ 110.560204911155239, 41.077277078941933 ], [ 108.812154785071627, 39.542899069927444 ], [ 107.151037529599506, 37.993749596418397 ], [ 105.570213550237696, 36.433455281844296 ], [ 104.063506060065762, 34.865333569664429 ], [ 102.625194746639878, 33.292416753807615 ], [ 101.250000005912298, 31.717474409685366 ], [ 103.422323308889517, 31.094656312468533 ] ] ] } },
{ "type": "Feature", "properties": { "global_id": "10" }, "geometry": { "type": "Polygon", "coordinates": [ [ [ 14.846267949345462, 58.837138333440556 ], [ 18.581502755155689, 59.292247011957926 ], [ 22.437566865674416, 59.640153689144029 ], [ 26.391366819757472, 59.874093754789207 ], [ 30.415427608689747, 59.988559937820902 ], [ 34.478928408899385, 59.979585299596074 ], [ 38.549127900336444, 59.844951247401404 ], [ 42.593027157787851, 59.584293834852986 ], [ 46.57906515339829, 59.19909501355621 ], [ 50.478634421230325, 58.692562054060929 ], [ 54.26724507303777, 58.069413887117172 ], [ 57.925239927907128, 57.335603884799134 ], [ 61.438047928491656, 56.498012646395843 ], [ 64.796034023524683, 55.564141942953832 ], [ 67.994047286524832, 54.541834059268943 ], [ 71.030782835664354, 53.439031938177067 ], [ 73.908063475461603, 52.263587033091191 ], [ 76.630123902096145, 51.023115017095371 ], [ 79.202953130896304, 49.724894993102517 ], [ 81.633725935119585, 48.375805459165882 ], [ 83.930334711662326, 46.982289528448689 ], [ 86.101020010650814, 45.550342225984956 ], [ 88.154090235660391, 44.085513595800101 ], [ 90.097717413781098, 42.592922493405283 ], [ 91.939795092512867, 41.077277082032964 ], [ 93.687845218532686, 39.542899072891828 ], [ 95.348962473937917, 37.993749599255764 ], [ 96.929786453231401, 36.433455284553851 ], [ 98.436493943334909, 34.865333572244964 ], [ 99.874805256693392, 33.292416756257509 ], [ 101.250000005912298, 31.717474409685366 ], [ 102.625194746639878, 33.292416753807615 ], [ 104.063506060065762, 34.865333569664429 ], [ 105.570213550237696, 36.433455281844296 ], [ 107.151037529599506, 37.993749596418397 ], [ 108.812154785071627, 39.542899069927444 ], [ 110.560204911155239, 41.077277078941933 ], [ 112.402282589945727, 42.592922490187561 ], [ 114.345909768117622, 44.085513592455271 ], [ 116.398979993167998, 45.550342222512249 ], [ 118.569665292183515, 46.982289524847126 ], [ 120.866274068735464, 48.375805455434325 ], [ 123.297046872945558, 49.724894989239893 ], [ 125.869876101704918, 51.023115013100835 ], [ 128.591936528265251, 52.263587028964402 ], [ 131.469217167948756, 53.439031933918486 ], [ 134.505952716928618, 54.541834054880212 ], [ 137.703965979717083, 55.564141938438134 ], [ 141.061952074480985, 56.498012641758315 ], [ 144.574760074734883, 57.335603880047238 ], [ 148.232754929210074, 58.069413882261003 ], [ 152.021365580560627, 58.692562049113413 ], [ 155.920934847877049, 59.199095008533121 ], [ 159.906972842920851, 59.584293829772783 ], [ 163.950872099765604, 59.844951242284857 ], [ 168.021071590569846, 59.97958529446565 ], [ 172.084572390136145, 59.988559932700063 ], [ 176.108633178430523, 59.874093749701586 ], [ -179.937566868103744, 59.64015368411264 ], [ -176.081502758168824, 59.292247007004512 ], [ -172.34626795289887, 58.837138328585048 ], [ -168.750000001911616, 58.282525585061954 ], [ -168.749999999329731, 60.238360123514703 ], [ -168.749999999317765, 62.211439401496882 ], [ -168.749999999300826, 64.20085323904118 ], [ -168.749999999277719, 66.205637721160258 ], [ -168.749999999246711, 68.224777089054257 ], [ -168.749999999205329, 70.25720602835753 ], [ -168.749999999150049, 72.301812357605343 ], [ -168.749999999075271, 74.357440107990527 ], [ -168.749999998972157, 76.422892979759297 ], [ -168.749999998825245, 78.49693815484423 ], [ -168.749999998605404, 80.578310439683108 ], [ -168.749999998250217, 82.665716706762709 ], [ -168.749999997597342, 84.757840598395049 ], [ -168.749999996051542, 86.853347451711826 ], [ -168.749999988255325, 88.950889399974969 ], [ 11.249999988288916, 88.950889397844506 ], [ 11.249999996085135, 86.853347449581776 ], [ 11.24999999763094, 84.757840596265837 ], [ 11.249999998283801, 82.665716704634775 ], [ 11.249999998638982, 80.578310437556922 ], [ 11.249999998858817, 78.496938152720304 ], [ 11.249999999005736, 76.422892977638156 ], [ 11.249999999108866, 74.357440105872797 ], [ 11.249999999183622, 72.301812355491677 ], [ 11.249999999238923, 70.257206026248639 ], [ 11.249999999280286, 68.224777086950951 ], [ 11.249999999311303, 66.205637719063375 ], [ 11.249999999334415, 64.20085323695163 ], [ 11.249999999351335, 62.211439399415667 ], [ 11.2499999993633, 60.238360121442867 ], [ 11.249999999371225, 58.282525589545017 ], [ 14.846267949345462, 58.837138333440556 ] ] ] } },
{ "type": "Feature", "properties": { "global_id": "11" }, "geometry": { "type": "Polygon", "coordinates": [ [ [ -137.637124120186115, -1.86007467129477 ], [ -138.248350762986831, -3.736338980772258 ], [ -138.867294360316407, -5.627704615642766 ], [ -139.495111111023277, -7.533018358698946 ], [ -140.133033125705623, -9.451062490214877 ], [ -140.782378003866086, -11.380555402814872 ], [ -141.444559584617167, -13.320152401816182 ], [ -142.121100045547223, -15.268446647412432 ], [ -142.813643551850504, -17.223970183223347 ], [ -143.523971689712823, -19.185194982668648 ], [ -144.254020954820021, -21.150533930216376 ], [ -145.005902609325744, -23.118341638647564 ], [ -145.78192526923911, -25.086914985849837 ], [ -146.584620639396206, -27.054493235005797 ], [ -147.416772875113622, -29.01925757999248 ], [ -148.281452117926875, -30.979329932866232 ], [ -149.182052826254449, -32.932770741873476 ], [ -150.122337597719536, -34.877575595793374 ], [ -151.106487253202147, -36.81167033278647 ], [ -152.139158014825284, -38.732904328463938 ], [ -153.225546646662195, -40.639041587849313 ], [ -154.371464414945905, -42.527749208800067 ], [ -155.583420627742697, -44.396582720441252 ], [ -156.868716276445866, -46.242967730611682 ], [ -158.235547837924173, -48.064177244811262 ], [ -159.69312047924538, -49.85730395301357 ], [ -161.251768548974525, -51.619226733565242 ], [ -162.923079069824269, -53.346570618871191 ], [ -164.72001058833834, -55.035659545004151 ], [ -166.656994679133618, -56.68246142990408 ], [ -168.750000001017384, -58.28252559017379 ], [ -165.153732050969296, -58.837138334051332 ], [ -161.418497245085064, -59.292247012550149 ], [ -157.562433134493148, -59.640153689717167 ], [ -153.608633180338842, -59.874093755342834 ], [ -149.584572391338327, -59.988559938354705 ], [ -145.521071591064526, -59.979585300109946 ], [ -141.450872099568272, -59.844951247895466 ], [ -137.406972842063226, -59.584293835327607 ], [ -133.420934846405061, -59.199095014012045 ], [ -129.521365578531203, -58.692562054498893 ], [ -125.732754926687576, -58.069413887538431 ], [ -122.074760071787196, -57.335603885205067 ], [ -118.561952071176123, -56.498012646787991 ], [ -115.203965976120301, -55.564141943333851 ], [ -112.005952713100314, -54.541834059638575 ], [ -108.969217163943227, -53.439031938538065 ], [ -106.091936524129949, -52.263587033445319 ], [ -103.369876097480372, -51.023115017444361 ], [ -100.79704686866566, -49.724894993448046 ], [ -98.366274064427898, -48.375805459509571 ], [ -96.069665287870436, -46.982289528792087 ], [ -93.898979988866699, -45.550342226329512 ], [ -91.845909763841192, -44.085513596147223 ], [ -89.902282585703688, -42.592922493756262 ], [ -88.060204906954169, -41.077277082389053 ], [ -86.312154780915549, -39.542899073254205 ], [ -84.651037525490466, -37.993749599625531 ], [ -83.070213546175992, -36.433455284932059 ], [ -81.563506056050386, -34.865333572632615 ], [ -80.125194742668654, -33.292416756655555 ], [ -78.750000000250594, -31.717474413404016 ], [ -80.922323306866431, -31.09465631581531 ], [ -83.084309629269171, -30.429935378316721 ], [ -85.23378987708071, -29.724143372576957 ], [ -87.368778608864062, -28.978277275824375 ], [ -89.487484213692497, -28.193490937203283 ], [ -91.58831524560027, -27.371085449183997 ], [ -93.669883083565423, -26.512498445470673 ], [ -95.731001186036536, -25.619292548559304 ], [ -97.770681285654931, -24.693143184167898 ], [ -99.788126922372967, -23.735825968101963 ], [ -101.782724742527648, -22.749203855243628 ], [ -103.754033999799219, -21.735214221729855 ], [ -105.701774684468774, -20.695856031339542 ], [ -107.625814683577957, -19.63317721675956 ], [ -109.52615634021015, -18.549262386623568 ], [ -111.402922738725536, -17.446220950647799 ], [ -113.256343997598549, -16.326175738227036 ], [ -115.086743805242776, -15.191252170704677 ], [ -116.894526389037225, -14.043568034235141 ], [ -118.680164065311118, -12.885223888637444 ], [ -120.444185479412894, -11.718294137737821 ], [ -122.187164610849365, -10.544818778214934 ], [ -123.909710589127229, -9.366795836675495 ], [ -125.612458341368026, -8.186174498389658 ], [ -127.296060072789672, -7.004848925614492 ], [ -128.961177565400845, -5.824652758571131 ], [ -130.608475268293091, -4.647354287792726 ], [ -132.238614144255507, -3.474652282636213 ], [ -133.852246231581375, -2.308172457193579 ], [ -135.450009876407307, -1.149464551616206 ], [ -137.032525590269501, -0.000000005441887 ], [ -137.637124120186115, -1.86007467129477 ] ] ] } },
{ "type": "Feature", "properties": { "global_id": "12" }, "geometry": { "type": "Polygon", "coordinates": [ [ [ -80.92232330610706, 31.094656314064753 ], [ -83.084309628469114, 30.429935376488249 ], [ -85.233789876231938, 29.72414337067185 ], [ -87.368778607959456, 28.978277273844252 ], [ -89.487484212725846, 28.193490935150049 ], [ -91.588315244566274, 27.371085447059748 ], [ -93.669883082459677, 26.512498443277664 ], [ -95.7310011848556, 25.61929254629986 ], [ -97.770681284396218, 24.693143181844356 ], [ -99.788126921034731, 23.735825965716614 ], [ -101.782724741109007, 22.749203852798658 ], [ -103.754033998300017, 21.735214219227284 ], [ -105.701774682889635, 20.695856028781193 ], [ -107.625814681920176, 19.633177214147015 ], [ -109.526156338475658, 18.549262383958112 ], [ -111.402922736916878, 17.446220947930417 ], [ -113.256343995718822, 16.326175735458385 ], [ -115.08674380329559, 15.191252167885066 ], [ -116.894526387026659, 14.043568031364517 ], [ -118.680164063241719, 12.8852238857154 ], [ -120.444185477289594, 11.718294134763589 ], [ -122.187164608677463, 10.544818775187403 ], [ -123.909710586912411, 9.366795833593217 ], [ -125.612458339116301, 8.186174495250874 ], [ -127.296060070507366, 7.004848922417141 ], [ -128.961177563094566, 5.824652755312887 ], [ -130.608475265969759, 4.647354284471021 ], [ -132.238614141922284, 3.474652279248269 ], [ -133.852246229245708, 2.30817245373644 ], [ -135.450009874076869, 1.149464548086775 ], [ -137.032525590269501, -0.000000005441887 ], [ -135.450009876407307, -1.149464551616207 ], [ -133.852246231581375, -2.30817245719358 ], [ -132.238614144255507, -3.474652282636214 ], [ -130.608475268293091, -4.647354287792727 ], [ -128.961177565400845, -5.824652758571132 ], [ -127.296060072789672, -7.004848925614493 ], [ -125.612458341368026, -8.18617449838966 ], [ -123.909710589127229, -9.366795836675495 ], [ -122.187164610849365, -10.544818778214935 ], [ -120.444185479412894, -11.718294137737823 ], [ -118.680164065311118, -12.885223888637446 ], [ -116.89452638903721, -14.043568034235143 ], [ -115.086743805242776, -15.191252170704677 ], [ -113.256343997598549, -16.326175738227036 ], [ -111.402922738725522, -17.446220950647799 ], [ -109.52615634021015, -18.549262386623568 ], [ -107.625814683577957, -19.633177216759563 ], [ -105.701774684468774, -20.695856031339542 ], [ -103.754033999799219, -21.735214221729855 ], [ -101.782724742527648, -22.749203855243632 ], [ -99.788126922372967, -23.735825968101963 ], [ -97.770681285654931, -24.693143184167898 ], [ -95.731001186036536, -25.619292548559304 ], [ -93.669883083565423, -26.512498445470673 ], [ -91.58831524560027, -27.371085449183997 ], [ -89.487484213692497, -28.193490937203286 ], [ -87.368778608864048, -28.978277275824375 ], [ -85.23378987708071, -29.724143372576961 ], [ -83.084309629269171, -30.429935378316724 ], [ -80.922323306866431, -31.094656315815314 ], [ -78.750000000250594, -31.717474413404016 ], [ -78.749999998752116, -29.761639874951271 ], [ -78.74999999884011, -27.788560596969088 ], [ -78.749999998924125, -25.799146759424794 ], [ -78.749999999004487, -23.794362277305712 ], [ -78.749999999081467, -21.775222909411717 ], [ -78.749999999155335, -19.742793970108448 ], [ -78.749999999226333, -17.698187640860631 ], [ -78.749999999294658, -15.642559890475445 ], [ -78.74999999936054, -13.577107018706677 ], [ -78.749999999424148, -11.503061843621738 ], [ -78.749999999485652, -9.421689558782862 ], [ -78.749999999545196, -7.334283291703264 ], [ -78.749999999602949, -5.242159400070923 ], [ -78.749999999659025, -3.146652546754148 ], [ -78.749999999713552, -1.049110598491002 ], [ -78.749999999766658, 1.049110603689517 ], [ -78.749999999818442, 3.146652551952251 ], [ -78.749999999869004, 5.242159405268191 ], [ -78.74999999991843, 7.334283296899256 ], [ -78.749999999966832, 9.421689563977107 ], [ -78.750000000014282, 11.503061848813729 ], [ -78.750000000060851, 13.577107023895866 ], [ -78.750000000106624, 15.642559895661227 ], [ -78.750000000151672, 17.698187646042349 ], [ -78.750000000196067, 19.742793975285384 ], [ -78.750000000239851, 21.775222914583082 ], [ -78.750000000283109, 23.794362282470654 ], [ -78.750000000325898, 25.799146764582392 ], [ -78.75000000036826, 27.788560602118359 ], [ -78.750000000410267, 29.76163988009116 ], [ -78.750000000451976, 31.717474411989013 ], [ -80.92232330610706, 31.094656314064753 ] ] ] } },
{ "type": "Feature", "properties": { "global_id": "13" }, "geometry": { "type": "Polygon", "coordinates": [ [ [ -80.125194744999547, -33.292416758153287 ], [ -81.563506058411818, -34.86533357410967 ], [ -83.07021354857477, -36.433455286385723 ], [ -84.651037527933894, -37.993749601052912 ], [ -86.312154783411529, -39.542899074652226 ], [ -88.060204909511143, -41.07727708375441 ], [ -89.902282588330706, -42.592922495085347 ], [ -91.845909766547805, -44.085513597436091 ], [ -93.898979991662969, -45.550342227573815 ], [ -96.06966529076675, -46.982289529987021 ], [ -98.366274067434858, -48.375805460649815 ], [ -100.797046871793825, -49.724894994527716 ], [ -103.369876100739859, -51.023115018456956 ], [ -106.091936527530024, -52.263587034383697 ], [ -108.969217167491706, -53.439031939394461 ], [ -112.005952716802909, -54.541834060404639 ], [ -115.203965979979699, -55.564141944000717 ], [ -118.561952075191257, -56.498012647346435 ], [ -122.07476007595227, -57.335603885645703 ], [ -125.732754930991419, -58.069413887851994 ], [ -129.52136558295669, -58.69256205467655 ], [ -133.420934850929171, -59.19909501404576 ], [ -137.406972846657283, -59.584293835210502 ], [ -141.450872104199021, -59.84495124762217 ], [ -145.521071595695503, -59.979585299676849 ], [ -149.584572395931701, -59.988559937760108 ], [ -153.60863318485741, -59.874093754587001 ], [ -157.562433138902151, -59.640153688802229 ], [ -161.418497249353692, -59.292247011479915 ], [ -165.153732055071799, -58.83713833283101 ], [ -168.750000000628773, -58.28252558954501 ], [ -168.750000000636732, -60.23836012380854 ], [ -168.750000000648697, -62.2114394017675 ], [ -168.750000000665608, -64.20085323928987 ], [ -168.750000000688715, -66.205637721388385 ], [ -168.750000000719751, -68.22477708926327 ], [ -168.750000000761105, -70.257206028548921 ], [ -168.750000000816414, -72.30181235778069 ], [ -168.750000000891163, -74.357440108151465 ], [ -168.750000000994277, -76.422892979907488 ], [ -168.750000001141217, -78.496938154981422 ], [ -168.750000001361059, -80.578310439811048 ], [ -168.750000001716217, -82.665716706883217 ], [ -168.750000002369092, -84.757840598509944 ], [ -168.75000000391492, -86.85334745182297 ], [ -168.750000011711194, -88.95088940008425 ], [ 11.25000001174474, -88.950889397735239 ], [ 11.250000003948461, -86.853347449470633 ], [ 11.250000002402643, -84.757840596150942 ], [ 11.250000001749777, -82.665716704514267 ], [ 11.250000001394593, -80.578310437428982 ], [ 11.250000001174756, -78.496938152583112 ], [ 11.250000001027836, -76.422892977489965 ], [ 11.250000000924704, -74.357440105711873 ], [ 11.250000000849948, -72.301812355316329 ], [ 11.250000000794644, -70.257206026057247 ], [ 11.250000000753282, -68.224777086741938 ], [ 11.250000000722263, -66.205637718835249 ], [ 11.250000000699151, -64.20085323670294 ], [ 11.250000000682231, -62.21143939914505 ], [ 11.250000000670266, -60.238360121149022 ], [ 11.25000000066234, -58.282525589226687 ], [ 7.653732049754907, -58.837138333734799 ], [ 3.918497243942878, -59.29224701219934 ], [ 0.062433133424292, -59.640153689339265 ], [ -3.891366820657451, -59.874093754944731 ], [ -7.915427609588184, -59.98855993794291 ], [ -11.978928409797092, -59.979585299690477 ], [ -16.049127901235295, -59.844951247473766 ], [ -20.093027158690724, -59.584293834908493 ], [ -24.079065154308886, -59.199095013599688 ], [ -27.978634422152957, -58.692562054096797 ], [ -31.767245073977129, -58.069413887149523 ], [ -35.425239928868024, -57.33560388483177 ], [ -38.938047929478778, -56.498012646432336 ], [ -42.296034024542479, -55.564141942997608 ], [ -45.494047287577331, -54.541834059323364 ], [ -48.530782836755108, -53.439031938245506 ], [ -51.408063476593718, -52.26358703317711 ], [ -54.130123903272192, -51.023115017202379 ], [ -56.702953132118409, -49.724894993234415 ], [ -59.133725936389446, -48.375805459326735 ], [ -61.430334712981228, -46.982289528642831 ], [ -63.601020012019745, -45.550342226217005 ], [ -65.654090237080013, -44.085513596075003 ], [ -67.59771741525185, -42.592922493728281 ], [ -69.439795094034963, -41.077277082409616 ], [ -71.187845220106169, -39.542899073328002 ], [ -72.848962475562629, -37.993749599757599 ], [ -74.429786454907102, -36.433455285127756 ], [ -75.936493945061201, -34.865333572897583 ], [ -77.374805258469792, -33.292416756995706 ], [ -78.750000002557229, -31.717474414919813 ], [ -80.125194744999547, -33.292416758153287 ] ] ] } },
{ "type": "Feature", "properties": { "global_id": "14" }, "geometry": { "type": "Polygon", "coordinates": [ [ [ -22.049990126019811, -1.149464547258357 ], [ -23.647753770804552, -2.308172452907885 ], [ -25.261385858083287, -3.474652278419184 ], [ -26.891524733992942, -4.647354283641169 ], [ -28.538822436827211, -5.824652754482182 ], [ -30.203939929375618, -7.004848921585631 ], [ -31.887541660730125, -8.186174494418735 ], [ -33.590289412899807, -9.366795832760735 ], [ -35.312835391103057, -10.544818774354955 ], [ -37.055814522461858, -11.718294133931629 ], [ -38.8198359364834, -12.885223884884429 ], [ -40.605473612674984, -14.043568030535068 ], [ -42.413256196385568, -15.191252167057675 ], [ -44.243656003944928, -16.326175734633566 ], [ -46.097077262732654, -17.446220947108635 ], [ -47.973843661162924, -18.549262383139755 ], [ -49.87418531771079, -19.633177213332374 ], [ -51.79822531673711, -20.695856027970436 ], [ -53.745966001325932, -21.73521421842042 ], [ -55.717275258519592, -22.749203851995535 ], [ -57.71187307859995, -23.735825964916891 ], [ -59.729318715247963, -24.693143181047482 ], [ -61.768998814801392, -25.619292545505068 ], [ -63.830116917213374, -26.51249844248396 ], [ -65.911684755125947, -27.371085446265905 ], [ -68.012515786988487, -28.193490934354603 ], [ -70.131221391779718, -28.978277273045524 ], [ -72.266210123534577, -29.724143369867924 ], [ -74.415690371326974, -30.429935375677008 ], [ -76.57767669372052, -31.094656313243892 ], [ -78.750000002557229, -31.717474414919813 ], [ -77.374805258469792, -33.292416756995706 ], [ -75.936493945061201, -34.865333572897583 ], [ -74.429786454907102, -36.433455285127756 ], [ -72.848962475562629, -37.993749599757606 ], [ -71.187845220106169, -39.542899073328002 ], [ -69.439795094034963, -41.077277082409623 ], [ -67.59771741525185, -42.592922493728281 ], [ -65.654090237080013, -44.085513596075003 ], [ -63.601020012019745, -45.550342226217005 ], [ -61.430334712981228, -46.982289528642831 ], [ -59.133725936389446, -48.375805459326735 ], [ -56.702953132118409, -49.724894993234422 ], [ -54.130123903272192, -51.023115017202379 ], [ -51.408063476593718, -52.263587033177117 ], [ -48.530782836755108, -53.439031938245506 ], [ -45.494047287577331, -54.541834059323371 ], [ -42.296034024542472, -55.564141942997608 ], [ -38.938047929478778, -56.498012646432336 ], [ -35.425239928868017, -57.33560388483177 ], [ -31.767245073977126, -58.069413887149523 ], [ -27.978634422152957, -58.692562054096797 ], [ -24.079065154308882, -59.199095013599688 ], [ -20.09302715869072, -59.5842938349085 ], [ -16.049127901235291, -59.844951247473766 ], [ -11.978928409797089, -59.979585299690477 ], [ -7.91542760958818, -59.98855993794291 ], [ -3.891366820657448, -59.874093754944731 ], [ 0.062433133424295, -59.640153689339265 ], [ 3.918497243942881, -59.29224701219934 ], [ 7.65373204975491, -58.837138333734799 ], [ 11.25000000066234, -58.282525589226687 ], [ 9.156994674169566, -56.682461422771411 ], [ 7.220010583918022, -55.03565953779141 ], [ 5.423079065875838, -53.346570611591602 ], [ 3.751768545435131, -51.619226726230053 ], [ 2.193120476060137, -49.857303945632388 ], [ 0.735547835045211, -48.064177237392272 ], [ -0.631283726168505, -46.242967723161911 ], [ -1.916579374643501, -44.396582712966726 ], [ -3.128535587243936, -42.527749201305973 ], [ -4.274453355359087, -40.639041580340148 ], [ -5.3608419870519, -38.732904320943604 ], [ -6.393512748552437, -36.811670325258369 ], [ -7.37766240393138, -34.877575588260498 ], [ -8.3179471753096, -32.932770734338455 ], [ -9.218547883565222, -30.979329925331413 ], [ -10.083227126319812, -29.019257572459981 ], [ -10.915379361990482, -27.054493227477536 ], [ -11.718074732111525, -25.086914978327581 ], [ -12.494097391998496, -23.118341631132964 ], [ -13.245979046486569, -21.150533922710991 ], [ -13.976028311584114, -19.185194975173982 ], [ -14.68635644944411, -17.223970175740863 ], [ -15.378899955751768, -15.268446639943573 ], [ -16.055440416692434, -13.320152394362392 ], [ -16.717621997459933, -11.380555395377613 ], [ -17.366966875642216, -9.451062482795631 ], [ -18.004888890351531, -7.533018351299235 ], [ -18.632705641090165, -5.627704608264152 ], [ -19.251649238456146, -3.736338973416354 ], [ -19.862875881297679, -1.86007466396324 ], [ -20.467474411259328, 0.000000001863518 ], [ -22.049990126019811, -1.149464547258357 ] ] ] } },
{ "type": "Feature", "properties": { "global_id": "15" }, "geometry": { "type": "Polygon", "coordinates": [ [ [ 11.249999999329717, -60.238360123514703 ], [ 11.249999999317751, -62.211439401496889 ], [ 11.249999999300831, -64.20085323904118 ], [ 11.249999999277719, -66.205637721160258 ], [ 11.2499999992467, -68.224777089054257 ], [ 11.249999999205338, -70.25720602835753 ], [ 11.249999999150036, -72.301812357605343 ], [ 11.24999999907528, -74.357440107990527 ], [ 11.249999998972148, -76.422892979759297 ], [ 11.249999998825228, -78.496938154844244 ], [ 11.249999998605389, -80.578310439683108 ], [ 11.249999998250207, -82.665716706762709 ], [ 11.249999997597341, -84.757840598395049 ], [ 11.249999996051523, -86.853347451711826 ], [ 11.249999988255244, -88.950889399974969 ], [ -168.749999988288835, -88.950889397844506 ], [ -168.749999996085108, -86.853347449581776 ], [ -168.749999997630908, -84.757840596265837 ], [ -168.749999998283783, -82.665716704634775 ], [ -168.74999999863897, -80.578310437556922 ], [ -168.749999998858812, -78.49693815272029 ], [ -168.749999999005723, -76.422892977638156 ], [ -168.749999999108866, -74.357440105872797 ], [ -168.749999999183615, -72.301812355491677 ], [ -168.749999999238923, -70.257206026248639 ], [ -168.749999999280277, -68.224777086950937 ], [ -168.749999999311285, -66.205637719063375 ], [ -168.74999999933442, -64.20085323695163 ], [ -168.749999999351331, -62.211439399415667 ], [ -168.749999999363297, -60.238360121442867 ], [ -168.749999999371227, -58.28252558954501 ], [ -172.346267949345446, -58.837138333440549 ], [ -176.081502755155668, -59.292247011957919 ], [ -179.937566865674398, -59.640153689144022 ], [ 176.108633180242549, -59.874093754789207 ], [ 172.084572391310246, -59.988559937820895 ], [ 168.021071591100622, -59.979585299596067 ], [ 163.95087209966357, -59.844951247401397 ], [ 159.906972842212156, -59.584293834852978 ], [ 155.92093484660171, -59.19909501355621 ], [ 152.021365578769689, -58.692562054060929 ], [ 148.23275492696223, -58.069413887117165 ], [ 144.574760072092886, -57.335603884799134 ], [ 141.061952071508358, -56.498012646395843 ], [ 137.703965976475331, -55.564141942953832 ], [ 134.505952713475182, -54.541834059268943 ], [ 131.469217164335674, -53.439031938177067 ], [ 128.591936524538397, -52.263587033091191 ], [ 125.86987609790387, -51.023115017095371 ], [ 123.29704686910371, -49.724894993102517 ], [ 120.866274064880415, -48.375805459165882 ], [ 118.569665288337688, -46.982289528448696 ], [ 116.398979989349186, -45.550342225984956 ], [ 114.345909764339623, -44.085513595800109 ], [ 112.402282586218917, -42.592922493405283 ], [ 110.560204907487133, -41.077277082032964 ], [ 108.812154781467314, -39.542899072891828 ], [ 107.151037526062083, -37.993749599255771 ], [ 105.570213546768599, -36.433455284553858 ], [ 104.063506056665091, -34.865333572244964 ], [ 102.625194743306622, -33.292416756257509 ], [ 101.250000000912934, -31.717474412994665 ], [ 99.874805256776853, -33.292416758891484 ], [ 98.436493943314474, -34.865333574762289 ], [ 96.929786453100931, -36.433455286959621 ], [ 95.348962473690833, -37.993749601554747 ], [ 93.687845218161954, -39.5428990750884 ], [ 91.939795092010968, -41.077277084131069 ], [ 90.09771741314006, -42.592922495408345 ], [ 88.15409023487183, -44.085513597710985 ], [ 86.101020009705962, -45.550342227805864 ], [ 83.93033471055216, -46.982289530181156 ], [ 81.633725933834995, -48.375805460810675 ], [ 79.202953129428295, -49.724894994659621 ], [ 76.630123900436203, -51.023115018563963 ], [ 73.908063473602098, -52.263587034469623 ], [ 71.030782833599062, -53.439031939462907 ], [ 67.994047284249604, -54.54183406045906 ], [ 64.796034021038096, -55.564141944044493 ], [ 61.438047925795878, -56.498012647382922 ], [ 57.925239925008633, -57.335603885678339 ], [ 54.267245069947954, -58.069413887884345 ], [ 50.478634417965942, -58.692562054712418 ], [ 46.579065149981439, -59.199095014089231 ], [ 42.59302715424559, -59.584293835266017 ], [ 38.549127896699844, -59.844951247694532 ], [ 34.478928405202204, -59.979585299771252 ], [ 30.415427604966734, -59.988559937882115 ], [ 26.391366816042581, -59.874093754742525 ], [ 22.437566861999155, -59.640153688997472 ], [ 18.581502751547756, -59.292247011721336 ], [ 14.846267945827845, -58.83713833312526 ], [ 11.249999999337641, -58.282525591606309 ], [ 11.249999999329717, -60.238360123514703 ] ] ] } },
{ "type": "Feature", "properties": { "global_id": "16" }, "geometry": { "type": "Polygon", "coordinates": [ [ [ 42.362875880565866, -1.860074666213006 ], [ 41.751649237726284, -3.736338975652578 ], [ 41.132705640360584, -5.627704610486807 ], [ 40.504888889620489, -7.533018353508418 ], [ 39.866966874907867, -9.45106248499156 ], [ 39.217621996720304, -11.380555397560622 ], [ 38.555440415945434, -13.320152396532924 ], [ 37.878899954995148, -15.268446642102166 ], [ 37.186356448675447, -17.223970177888145 ], [ 36.476028310800793, -19.185194977310648 ], [ 35.745979045685743, -21.150533924837791 ], [ 34.994097391177057, -23.118341633250687 ], [ 34.218074731266064, -25.086914980437022 ], [ 33.41537936111726, -27.054493229579492 ], [ 32.583227125414702, -29.019257574555208 ], [ 31.718547882623636, -30.979329927420608 ], [ 30.817947174326452, -32.932770736422221 ], [ 29.877662402900992, -34.877575590339319 ], [ 28.893512747468456, -36.811670327332578 ], [ 27.8608419859072, -38.732904323013329 ], [ 26.774453354145649, -40.639041582405284 ], [ 25.628535585952712, -42.527749203366163 ], [ 24.416579373264266, -44.39658271502126 ], [ 23.131283724689677, -46.242967725209731 ], [ 21.764452163363238, -48.064177239431878 ], [ 20.306879522220679, -49.857303947661777 ], [ 18.74823145270113, -51.619226728246659 ], [ 17.07692093209667, -53.346570613592199 ], [ 15.279989413868998, -55.035659539772027 ], [ 13.343005323407452, -56.682461424727215 ], [ 11.249999999337641, -58.282525591606309 ], [ 14.846267945827849, -58.83713833312526 ], [ 18.58150275154776, -59.292247011721336 ], [ 22.437566861999159, -59.640153688997472 ], [ 26.391366816042584, -59.874093754742525 ], [ 30.415427604966737, -59.988559937882115 ], [ 34.478928405202211, -59.979585299771252 ], [ 38.549127896699844, -59.844951247694532 ], [ 42.59302715424559, -59.584293835266017 ], [ 46.579065149981446, -59.199095014089231 ], [ 50.478634417965942, -58.692562054712418 ], [ 54.267245069947961, -58.069413887884345 ], [ 57.925239925008633, -57.335603885678339 ], [ 61.438047925795878, -56.498012647382922 ], [ 64.796034021038096, -55.564141944044493 ], [ 67.994047284249604, -54.54183406045906 ], [ 71.030782833599062, -53.439031939462907 ], [ 73.908063473602112, -52.263587034469623 ], [ 76.630123900436203, -51.023115018563963 ], [ 79.202953129428295, -49.724894994659621 ], [ 81.633725933834995, -48.375805460810668 ], [ 83.93033471055216, -46.982289530181156 ], [ 86.101020009705977, -45.550342227805864 ], [ 88.15409023487183, -44.085513597710985 ], [ 90.09771741314006, -42.592922495408345 ], [ 91.939795092010968, -41.077277084131069 ], [ 93.687845218161954, -39.5428990750884 ], [ 95.348962473690833, -37.993749601554747 ], [ 96.929786453100931, -36.433455286959621 ], [ 98.436493943314474, -34.865333574762282 ], [ 99.874805256776853, -33.292416758891477 ], [ 101.250000000912934, -31.717474412994665 ], [ 99.077676691110483, -31.094656312468537 ], [ 96.915690368767812, -30.429935374863451 ], [ 94.766210121026248, -29.724143369017963 ], [ 92.631221389321823, -28.978277272160945 ], [ 90.512515784580231, -28.193490933437158 ], [ 88.411684752766206, -27.371085445317284 ], [ 86.330116914900685, -26.51249844150578 ], [ 84.268998812534008, -25.619292544498869 ], [ 82.229318713023886, -24.693143180014708 ], [ 80.211873076416978, -23.735825963858883 ], [ 78.217275256375316, -22.749203850913528 ], [ 76.245965999217802, -21.735214217315544 ], [ 74.298225314662474, -20.695856026843721 ], [ 72.374185315666878, -19.633177212184759 ], [ 70.473843659146922, -18.549262381972088 ], [ 68.597077260741713, -17.446220945921681 ], [ 66.743656001976191, -16.32617573342803 ], [ 64.913256194436187, -15.1912521658342 ], [ 63.105473610742145, -14.043568029294265 ], [ 61.319835934564338, -12.885223883626875 ], [ 59.555814520553866, -11.718294132657892 ], [ 57.812835389203514, -10.544818773065604 ], [ 56.090289411006168, -9.366795831456352 ], [ 54.387541658839943, -8.186174493099927 ], [ 52.703939927486559, -7.004848920253041 ], [ 51.038822434937032, -5.8246527531365 ], [ 49.391524732099526, -4.647354282283142 ], [ 47.761385856184631, -3.474652277049616 ], [ 46.147753768898781, -2.308172451527645 ], [ 44.549990124105157, -1.149464545868383 ], [ 42.967474411259325, 0.000000001863518 ], [ 42.362875880565866, -1.860074666213006 ] ] ] } },
{ "type": "Feature", "properties": { "global_id": "17" }, "geometry": { "type": "Polygon", "coordinates": [ [ [ 102.625194744361579, -33.29241675855134 ], [ 104.063506057797099, -34.865333574497328 ], [ 105.570213547982149, -36.433455286763937 ], [ 107.151037527362249, -37.993749601422685 ], [ 108.812154782859764, -39.54289907501461 ], [ 110.560204908978164, -41.077277084110513 ], [ 112.402282587815478, -42.592922495436341 ], [ 114.345909766049374, -44.085513597783205 ], [ 116.398979991180468, -45.550342227918378 ], [ 118.569665290299497, -46.982289530330419 ], [ 120.866274066982342, -48.375805460993512 ], [ 123.297046871355775, -49.724894994873253 ], [ 125.869876100316361, -51.023115018805946 ], [ 128.591936527121561, -52.263587034737832 ], [ 131.469217167099259, -53.439031939755459 ], [ 134.505952716428055, -54.541834060774264 ], [ 137.703965979624684, -55.564141944380737 ], [ 141.061952074859022, -56.498012647738577 ], [ 144.574760075646594, -57.335603886051636 ], [ 148.232754930716766, -58.069413888273253 ], [ 152.021365582718232, -58.692562055114507 ], [ 155.920934850732493, -59.199095014501587 ], [ 159.906972846508353, -59.584293835685116 ], [ 163.950872104103723, -59.844951248116217 ], [ 168.021071595659407, -59.979585300190713 ], [ 172.084572395959782, -59.988559938293903 ], [ 176.108633184953703, -59.874093755140613 ], [ -179.937566860930303, -59.64015368937536 ], [ -176.081502750405576, -59.292247012072124 ], [ -172.346267944613459, -58.837138333441779 ], [ -168.749999998982616, -58.28252559017379 ], [ -170.843005323289361, -56.682461427948276 ], [ -172.779989413874631, -55.035659543023534 ], [ -174.576920932203222, -53.346570616870586 ], [ -176.2482314528892, -51.619226731548636 ], [ -177.806879522473793, -49.857303950984189 ], [ -179.264452163667386, -48.064177242771663 ], [ 179.368716274967056, -46.242967728563862 ], [ 178.083420626363477, -44.396582718386718 ], [ 176.871464413654678, -42.527749206739884 ], [ 175.725546645448759, -40.63904158578417 ], [ 174.6391580136806, -38.73290432639422 ], [ 173.606487252118143, -36.811670330712268 ], [ 172.622337596689164, -34.877575593714553 ], [ 171.682052825271313, -32.93277073978971 ], [ 170.781452116985292, -30.979329930777038 ], [ 169.916772874208505, -29.019257577897253 ], [ 169.084620638522978, -27.054493232903841 ], [ 168.28192526839365, -25.086914983740396 ], [ 167.5059026085043, -23.118341636529845 ], [ 166.754020954019211, -21.150533928089576 ], [ 166.023971688929521, -19.185194980531985 ], [ 165.313643551081839, -17.223970181076066 ], [ 164.621100044790609, -15.268446645253839 ], [ 163.944559583870159, -13.32015239964565 ], [ 163.282378003126468, -11.380555400631863 ], [ 162.633033124971291, -9.451062488018946 ], [ 161.995111110292243, -7.533018356489763 ], [ 161.36729435958685, -5.62770461342011 ], [ 160.748350762256962, -3.736338978536033 ], [ 160.137124119454285, -1.860074669045005 ], [ 159.532525589534146, -0.000000003178736 ], [ 157.95000987449265, -1.149464553006179 ], [ 156.352246229675615, -2.308172458573819 ], [ 154.738614142356852, -3.474652284005782 ], [ 153.108475266399665, -4.647354289150753 ], [ 151.46117756351066, -5.824652759916812 ], [ 149.796060070900609, -7.004848926947082 ], [ 148.112458339477854, -8.186174499708468 ], [ 146.409710587233576, -9.366795837979877 ], [ 144.687164608949814, -10.544818779504284 ], [ 142.944185477504902, -11.718294139011558 ], [ 141.180164063392056, -12.885223889894998 ], [ 139.394526387104378, -14.043568035475946 ], [ 137.586743803293388, -15.191252171928152 ], [ 135.756343995629805, -16.326175739432571 ], [ 133.902922736734581, -17.44622095183475 ], [ 132.026156338194141, -18.549262387791234 ], [ 130.125814681534052, -19.633177217907175 ], [ 128.201774682394131, -20.695856032466253 ], [ 126.254033997691096, -21.735214222834731 ], [ 124.282724740383387, -22.749203856325639 ], [ 122.288126920189995, -23.735825969159972 ], [ 120.270681283430861, -24.693143185200672 ], [ 118.231001183769152, -25.6192925495655 ], [ 116.169883081252721, -26.512498446448848 ], [ 114.08831524324053, -27.371085450132618 ], [ 111.98748421128424, -28.193490938120732 ], [ 109.868778606406167, -28.978277276708951 ], [ 107.733789874572381, -29.724143373426919 ], [ 105.584309626709995, -30.429935379130281 ], [ 103.422323304256395, -31.094656316590665 ], [ 101.250000001894861, -31.717474415329175 ], [ 102.625194744361579, -33.29241675855134 ] ] ] } },
{ "type": "Feature", "properties": { "global_id": "18" }, "geometry": { "type": "Polygon", "coordinates": [ [ [ 101.250000000410267, 29.761639877725482 ], [ 101.25000000036826, 27.788560599766523 ], [ 101.250000000325883, 25.799146762244153 ], [ 101.250000000283109, 23.794362280145631 ], [ 101.250000000239851, 21.77522291227076 ], [ 101.250000000196053, 19.742793972985105 ], [ 101.250000000151672, 17.698187643753332 ], [ 101.250000000106624, 15.642559893382565 ], [ 101.250000000060851, 13.577107021626537 ], [ 101.250000000014282, 11.50306184655261 ], [ 101.249999999966832, 9.421689561722976 ], [ 101.24999999991843, 7.334283294650815 ], [ 101.24999999986899, 5.242159403024076 ], [ 101.249999999818442, 3.14665254971105 ], [ 101.249999999766658, 1.049110601449781 ], [ 101.249999999713552, -1.049110600730739 ], [ 101.249999999659025, -3.14665254899535 ], [ 101.249999999602949, -5.242159402315036 ], [ 101.249999999545196, -7.334283293951705 ], [ 101.249999999485652, -9.421689561036994 ], [ 101.249999999424148, -11.503061845882858 ], [ 101.24999999936054, -13.577107020976005 ], [ 101.249999999294673, -15.642559892754106 ], [ 101.249999999226333, -17.698187643149648 ], [ 101.249999999155335, -19.742793972408727 ], [ 101.249999999081467, -21.77522291172404 ], [ 101.249999999004487, -23.794362279630732 ], [ 101.249999998924139, -25.799146761763033 ], [ 101.24999999884011, -27.788560599320927 ], [ 101.249999998752131, -29.761639877316952 ], [ 101.250000001894861, -31.717474415329175 ], [ 103.422323304256409, -31.094656316590665 ], [ 105.584309626710009, -30.429935379130281 ], [ 107.733789874572381, -29.724143373426919 ], [ 109.868778606406167, -28.978277276708951 ], [ 111.98748421128424, -28.193490938120728 ], [ 114.08831524324053, -27.371085450132618 ], [ 116.169883081252721, -26.512498446448848 ], [ 118.231001183769152, -25.6192925495655 ], [ 120.270681283430861, -24.693143185200672 ], [ 122.288126920189995, -23.735825969159972 ], [ 124.282724740383387, -22.749203856325639 ], [ 126.254033997691096, -21.735214222834731 ], [ 128.201774682394131, -20.695856032466253 ], [ 130.125814681534052, -19.633177217907175 ], [ 132.026156338194141, -18.549262387791234 ], [ 133.902922736734581, -17.44622095183475 ], [ 135.756343995629805, -16.326175739432571 ], [ 137.586743803293388, -15.19125217192815 ], [ 139.394526387104378, -14.043568035475944 ], [ 141.180164063392056, -12.885223889894998 ], [ 142.944185477504902, -11.718294139011556 ], [ 144.687164608949814, -10.544818779504283 ], [ 146.409710587233604, -9.366795837979877 ], [ 148.112458339477854, -8.186174499708466 ], [ 149.796060070900609, -7.004848926947081 ], [ 151.46117756351066, -5.824652759916811 ], [ 153.108475266399665, -4.647354289150751 ], [ 154.738614142356852, -3.474652284005781 ], [ 156.352246229675615, -2.308172458573818 ], [ 157.95000987449265, -1.149464553006178 ], [ 159.532525589534146, -0.000000003178736 ], [ 157.950009872162241, 1.149464549476763 ], [ 156.352246227339947, 2.308172455116694 ], [ 154.738614140023628, 3.47465228061785 ], [ 153.108475264076333, 4.647354285829059 ], [ 151.461177561204408, 5.824652756658578 ], [ 149.796060068618317, 7.004848923749741 ], [ 148.112458337226116, 8.186174496569691 ], [ 146.409710585018786, 9.366795834897609 ], [ 144.687164606777912, 10.54481877647676 ], [ 142.944185475381602, 11.718294136037331 ], [ 141.180164061322643, 12.885223886972957 ], [ 139.394526385093826, 14.043568032605325 ], [ 137.586743801346216, 15.191252169108543 ], [ 135.756343993750079, 16.326175736663927 ], [ 133.902922734925937, 17.446220949117372 ], [ 132.02615633645965, 18.549262385125783 ], [ 130.125814679876271, 19.633177215294626 ], [ 128.201774680814992, 20.695856029907905 ], [ 126.254033996191893, 21.735214220332157 ], [ 124.282724738964717, 22.749203853880662 ], [ 122.288126918851759, 23.73582596677462 ], [ 120.270681282172134, 24.693143182877122 ], [ 118.231001182588201, 25.619292547306049 ], [ 116.169883080146974, 26.512498444255833 ], [ 114.088315242206519, 27.371085448008362 ], [ 111.987484210317589, 28.19349093606748 ], [ 109.868778605501561, 28.978277274728818 ], [ 107.733789873723609, 29.724143371521798 ], [ 105.584309625909938, 30.429935377301792 ], [ 103.422323303497024, 31.094656314840091 ], [ 101.250000000451976, 31.717474411989013 ], [ 101.250000000410267, 29.761639877725482 ] ] ] } },
{ "type": "Feature", "properties": { "global_id": "19" }, "geometry": { "type": "Polygon", "coordinates": [ [ [ 160.137124119552908, -1.860074671500515 ], [ 160.748350762380682, -3.736338980969256 ], [ 161.367294359735126, -5.627704615831739 ], [ 161.995111110464677, -7.533018358880615 ], [ 162.633033125167572, -9.451062490389964 ], [ 163.282378003346366, -11.380555402984104 ], [ 163.944559584113591, -13.320152401980293 ], [ 164.621100045057545, -15.268446647572171 ], [ 165.313643551372422, -17.223970183379478 ], [ 166.023971689244036, -19.185194982821955 ], [ 166.754020954358111, -21.150533930367661 ], [ 167.505902608868212, -23.118341638797673 ], [ 168.281925268783425, -25.086914985999641 ], [ 169.084620638939697, -27.054493235156208 ], [ 169.916772874653532, -29.019257580144465 ], [ 170.781452117460304, -30.979329933020804 ], [ 171.682052825778356, -32.932770742031721 ], [ 172.622337597230711, -34.877575595956444 ], [ 173.606487252697235, -36.8116703329556 ], [ 174.63915801430079, -38.732904328640458 ], [ 175.725546646114395, -40.639041588034665 ], [ 176.87146441437082, -42.527749208995814 ], [ 178.083420627136263, -44.396582720649093 ], [ 179.368716275803791, -46.24296773083347 ], [ -179.264452162758033, -48.064177245049024 ], [ -177.806879521481534, -49.857303953269522 ], [ -176.248231451801786, -51.61922673384182 ], [ -174.576920931006072, -53.346570619171082 ], [ -172.779989412550492, -55.035659545330297 ], [ -170.84300532181777, -56.682461430259693 ], [ -168.75, -58.2825255905624 ], [ -166.656994675759222, -56.682461428303903 ], [ -164.720010585236508, -55.035659543349688 ], [ -162.923079066966409, -53.346570617170492 ], [ -161.251768546334461, -51.619226731825229 ], [ -159.693120476799265, -49.857303951240148 ], [ -158.235547835650408, -48.064177243009425 ], [ -156.868716274324953, -46.242967728785651 ], [ -155.583420625757014, -44.396582718594559 ], [ -154.371464413079593, -42.527749206935631 ], [ -153.22554664490093, -40.63904158596953 ], [ -152.139158013156077, -38.73290432657074 ], [ -151.10648725161326, -36.811670330881398 ], [ -150.12233759620031, -34.877575593877623 ], [ -149.182052824795193, -32.932770739947955 ], [ -148.281452116518693, -30.979329930931609 ], [ -147.416772873748414, -29.019257578049238 ], [ -146.584620638066497, -27.054493233054252 ], [ -145.781925267937964, -25.086914983890196 ], [ -145.005902608046767, -23.118341636679951 ], [ -144.254020953557273, -21.150533928240861 ], [ -143.523971688460733, -19.185194980685285 ], [ -142.813643550603757, -17.223970181232193 ], [ -142.121100044300931, -15.268446645413574 ], [ -141.444559583366583, -13.320152399809757 ], [ -140.782378002606748, -11.380555400801089 ], [ -140.133033124433211, -9.451062488194029 ], [ -139.495111109733642, -7.533018356671428 ], [ -138.867294359005541, -5.627704613609079 ], [ -138.248350761650812, -3.736338978733027 ], [ -137.637124118821134, -1.860074669250743 ], [ -137.032525588871806, -0.000000003393945 ], [ -138.988360123776118, -0.00000000389397 ], [ -140.961439401709242, -0.000000003905373 ], [ -142.950853239211, -0.000000003916438 ], [ -144.955637721293868, -0.00000000392707 ], [ -146.974777089157641, -0.000000003937176 ], [ -149.0072060284364, -0.000000003946669 ], [ -151.051812357665085, -0.000000003955466 ], [ -153.107440108036144, -0.000000003963492 ], [ -155.172892979795364, -0.000000003970675 ], [ -157.246938154874925, -0.000000003976953 ], [ -159.328310439712141, -0.000000003982271 ], [ -161.415716706793319, -0.000000003986583 ], [ -163.507840598429993, -0.000000003989851 ], [ -165.603347451753365, -0.000000003992045 ], [ -167.700889400024835, -0.000000003993148 ], [ -169.799110602214881, -0.000000003993148 ], [ -171.896652550487829, -0.000000003992046 ], [ -173.9921594038141, -0.000000003989852 ], [ -176.084283295455123, -0.000000003986585 ], [ -178.171689562542014, -0.000000003982274 ], [ 179.746938152613808, -0.000000003976956 ], [ 177.672892977526033, -0.000000003970678 ], [ 175.607440105757462, -0.000000003963496 ], [ 173.551812355376057, -0.000000003955471 ], [ 171.507206026136117, -0.000000003946675 ], [ 169.474777086845307, -0.000000003937182 ], [ 167.455637718968831, -0.000000003927076 ], [ 165.450853236872774, -0.000000003916445 ], [ 163.461439399357403, -0.000000003905381 ], [ 161.488360121410437, -0.000000003893979 ], [ 159.532525589607133, -0.000000005657102 ], [ 160.137124119552908, -1.860074671500515 ] ] ] } },
{ "type": "Feature", "properties": { "global_id": "20" }, "geometry": { "type": "Polygon", "coordinates": [ [ [ -170.843005324083464, 56.682461425474038 ], [ -172.779989414478905, 55.035659540524939 ], [ -174.576920932647226, 53.346570614353368 ], [ -176.248231453198997, 51.61922672901769 ], [ -177.806879522672176, 49.857303948443693 ], [ -179.264452163774394, 48.06417724022522 ], [ 179.368716274933831, 46.242967726014562 ], [ 178.083420626388602, 44.396582715837248 ], [ 176.871464413724567, 42.527749204192581 ], [ 175.725546645551447, 40.639041583241088 ], [ 174.6391580138054, 38.732904323857156 ], [ 173.606487252255619, 36.811670328182842 ], [ 172.622337596830789, 34.877575591194208 ], [ 171.682052825409528, 32.932770737279746 ], [ 170.781452117113218, 30.979329928278638 ], [ 169.916772874319918, 29.019257575411512 ], [ 169.084620638612137, 27.054493230431767 ], [ 168.281925268455296, 25.086914981282938 ], [ 167.505902608533546, 23.118341634087898 ], [ 166.754020954011537, 21.150533925663993 ], [ 166.023971688880636, 19.185194978123587 ], [ 165.313643550987734, 17.223970178685651 ], [ 164.621100044647392, 15.268446642882189 ], [ 163.944559583674163, 13.320152397293535 ], [ 163.282378002874054, 11.380555398300048 ], [ 162.633033124658994, 9.451062485708199 ], [ 161.99511110991665, 7.533018354200852 ], [ 161.36729435914458, 5.627704611153814 ], [ 160.748350761744689, 3.736338976293145 ], [ 160.137124118868655, 1.860074666826334 ], [ 159.532525589607133, -0.000000005657102 ], [ 161.488360121410437, -0.000000003893979 ], [ 163.461439399357403, -0.000000003905381 ], [ 165.450853236872774, -0.000000003916445 ], [ 167.455637718968831, -0.000000003927076 ], [ 169.474777086845307, -0.000000003937182 ], [ 171.507206026136117, -0.000000003946675 ], [ 173.551812355376086, -0.000000003955471 ], [ 175.607440105757462, -0.000000003963496 ], [ 177.672892977526033, -0.000000003970678 ], [ 179.746938152613808, -0.000000003976956 ], [ -178.171689562541985, -0.000000003982274 ], [ -176.084283295455123, -0.000000003986585 ], [ -173.9921594038141, -0.000000003989852 ], [ -171.896652550487829, -0.000000003992046 ], [ -169.799110602214881, -0.000000003993148 ], [ -167.700889400024835, -0.000000003993148 ], [ -165.603347451753365, -0.000000003992045 ], [ -163.507840598429993, -0.000000003989851 ], [ -161.415716706793319, -0.000000003986583 ], [ -159.328310439712141, -0.000000003982271 ], [ -157.246938154874925, -0.000000003976953 ], [ -155.172892979795364, -0.000000003970675 ], [ -153.107440108036144, -0.000000003963492 ], [ -151.051812357665085, -0.000000003955466 ], [ -149.0072060284364, -0.000000003946669 ], [ -146.974777089157641, -0.000000003937176 ], [ -144.955637721293868, -0.00000000392707 ], [ -142.950853239211, -0.000000003916438 ], [ -140.961439401709242, -0.000000003905373 ], [ -138.988360123776118, -0.00000000389397 ], [ -137.032525588871806, -0.000000003393945 ], [ -137.637124119600429, 1.860074669076105 ], [ -138.24835076247453, 3.736338978529376 ], [ -138.867294359874137, 5.627704613376475 ], [ -139.495111110647656, 7.533018356410039 ], [ -140.133033125393325, 9.451062487904132 ], [ -140.782378003613672, 11.380555400483061 ], [ -141.444559584421143, 13.320152399464069 ], [ -142.121100045404006, 15.268446645040786 ], [ -142.813643551756371, 17.223970180832936 ], [ -143.523971689663966, 19.185194980260253 ], [ -144.254020954812347, 21.150533927790793 ], [ -145.00590260935499, 23.118341636205617 ], [ -145.781925269300729, 25.086914983392379 ], [ -146.584620639485337, 27.054493232533723 ], [ -147.416772875225007, 29.019257577506739 ], [ -148.281452118054801, 30.979329930367832 ], [ -149.182052826392663, 32.932770739363512 ], [ -150.12233759786119, 34.877575593273029 ], [ -151.106487253339594, 36.811670330257051 ], [ -152.139158014950084, 38.732904325926881 ], [ -153.225546646764883, 40.639041585306224 ], [ -154.371464415015822, 42.527749206252764 ], [ -155.58342062776785, 44.396582717891782 ], [ -156.86871627641267, 46.242967728062382 ], [ -158.235547837817165, 48.064177242264812 ], [ -159.693120479047025, 49.857303950473074 ], [ -161.251768548664757, 51.619226731034281 ], [ -162.923079069380265, 53.346570616353958 ], [ -164.720010587734123, 55.035659542505549 ], [ -166.656994678339544, 56.682461427429828 ], [ -168.75, 58.282525587730646 ], [ -170.843005324083464, 56.682461425474038 ] ] ] } }
]
}
