{
"type": "FeatureCollection",
"name": "isea4t_grid_1",
"crs": { "type": "name", "properties": { "name": "urn:ogc:def:crs:OGC:1.3:CRS84" } },
"features": [
{ "type": "Feature", "properties": { "isea4t": "000", "resolution": 1, "center_lat": 49.59939256235868, "center_lon": -144.00000000042641, "avg_edge_len": 3999406.9070891142, "cell_area": 7284865871082.043, "cell_perimeter": 11998220.721267343 }, "geometry": { "type": "Polygon", "coordinates": [ [ [ -144.000000001279261, 31.889874757399316 ], [ -180.000000000709178, 58.454151465923289 ], [ -107.999999999290822, 58.454151463753441 ], [ -144.000000001279261, 31.889874757399316 ] ] ] } },
{ "type": "Feature", "properties": { "isea4t": "001", "resolution": 1, "center_lat": 68.969434309892264, "center_lon": -96.0, "avg_edge_len": 3679104.3190419511, "cell_area": 6043043420131.125, "cell_perimeter": 11037312.957125854 }, "geometry": { "type": "Polygon", "coordinates": [ [ [ 0.0, 90.0 ], [ -180.000000000709178, 58.454151465923289 ], [ -107.999999999290822, 58.454151463753441 ], [ 0.0, 90.0 ] ] ] } },
{ "type": "Feature", "properties": { "isea4t": "002", "resolution": 1, "center_lat": 39.02113205987218, "center_lon": -168.00000000078373, "avg_edge_len": 3684561.8478453388, "cell_area": 6064606570293.9424, "cell_perimeter": 11053685.543536017 }, "geometry": { "type": "Polygon", "coordinates": [ [ [ -180.000000000709178, 58.454151465923289 ], [ -180.000000000362746, 26.719369956293946 ], [ -144.000000001279261, 31.889874757399316 ], [ -180.000000000709178, 58.454151465923289 ] ] ] } },
{ "type": "Feature", "properties": { "isea4t": "003", "resolution": 1, "center_lat": 39.021132058573968, "center_lon": -120.00000000006912, "avg_edge_len": 3684561.8479289655, "cell_area": 6064606570623.1758, "cell_perimeter": 11053685.543786896 }, "geometry": { "type": "Polygon", "coordinates": [ [ [ -107.999999999290822, 58.454151463753441 ], [ -144.000000001279261, 31.889874757399316 ], [ -107.999999999637268, 26.719369954569135 ], [ -107.999999999290822, 58.454151463753441 ] ] ] } },
{ "type": "Feature", "properties": { "isea4t": "010", "resolution": 1, "center_lat": 49.59939256235868, "center_lon": -72.000000000426411, "avg_edge_len": 3999406.9070891142, "cell_area": 7284865871082.0352, "cell_perimeter": 11998220.721267343 }, "geometry": { "type": "Polygon", "coordinates": [ [ [ -72.000000001279261, 31.889874757399316 ], [ -108.000000000709178, 58.454151465923289 ], [ -35.999999999290829, 58.454151463753448 ], [ -72.000000001279261, 31.889874757399316 ] ] ] } },
{ "type": "Feature", "properties": { "isea4t": "011", "resolution": 1, "center_lat": 68.96943430989225, "center_lon": -48.000000000000007, "avg_edge_len": 3679104.3190419506, "cell_area": 6043043420131.1797, "cell_perimeter": 11037312.957125852 }, "geometry": { "type": "Polygon", "coordinates": [ [ [ 0.0, 90.0 ], [ -108.000000000709178, 58.454151465923289 ], [ -35.999999999290829, 58.454151463753448 ], [ 0.0, 90.0 ] ] ] } },
{ "type": "Feature", "properties": { "isea4t": "012", "resolution": 1, "center_lat": 39.02113205987218, "center_lon": -96.000000000783714, "avg_edge_len": 3684561.8478453388, "cell_area": 6064606570293.9424, "cell_perimeter": 11053685.543536017 }, "geometry": { "type": "Polygon", "coordinates": [ [ [ -108.000000000709178, 58.454151465923289 ], [ -108.000000000362746, 26.719369956293946 ], [ -72.000000001279261, 31.889874757399316 ], [ -108.000000000709178, 58.454151465923289 ] ] ] } },
{ "type": "Feature", "properties": { "isea4t": "013", "resolution": 1, "center_lat": 39.021132058573961, "center_lon": -48.000000000069122, "avg_edge_len": 3684561.8479289655, "cell_area": 6064606570623.1797, "cell_perimeter": 11053685.543786896 }, "geometry": { "type": "Polygon", "coordinates": [ [ [ -35.999999999290829, 58.454151463753448 ], [ -72.000000001279261, 31.889874757399316 ], [ -35.999999999637268, 26.719369954569135 ], [ -35.999999999290829, 58.454151463753448 ] ] ] } },
{ "type": "Feature", "properties": { "isea4t": "020", "resolution": 1, "center_lat": 49.59939256235868, "center_lon": -4.2642511743906647e-10, "avg_edge_len": 3999406.9070891128, "cell_area": 7284865871082.0312, "cell_perimeter": 11998220.721267339 }, "geometry": { "type": "Polygon", "coordinates": [ [ [ -0.000000001279261, 31.889874757399316 ], [ -36.000000000709171, 58.454151465923289 ], [ 36.000000000709157, 58.454151463753448 ], [ -0.000000001279261, 31.889874757399316 ] ] ] } },
{ "type": "Feature", "properties": { "isea4t": "021", "resolution": 1, "center_lat": 68.96943430989225, "center_lon": -4.7369515717340018e-15, "avg_edge_len": 3679104.3190419502, "cell_area": 6043043420131.1797, "cell_perimeter": 11037312.95712585 }, "geometry": { "type": "Polygon", "coordinates": [ [ [ 0.0, 90.0 ], [ -36.000000000709171, 58.454151465923289 ], [ 36.000000000709157, 58.454151463753448 ], [ 0.0, 90.0 ] ] ] } },
{ "type": "Feature", "properties": { "isea4t": "022", "resolution": 1, "center_lat": 39.021132059872187, "center_lon": -24.000000000783722, "avg_edge_len": 3684561.8478453378, "cell_area": 6064606570293.9414, "cell_perimeter": 11053685.543536013 }, "geometry": { "type": "Polygon", "coordinates": [ [ [ -36.000000000709171, 58.454151465923289 ], [ -36.000000000362725, 26.719369956293946 ], [ -0.000000001279261, 31.889874757399316 ], [ -36.000000000709171, 58.454151465923289 ] ] ] } },
{ "type": "Feature", "properties": { "isea4t": "023", "resolution": 1, "center_lat": 39.021132058573961, "center_lon": 23.999999999930878, "avg_edge_len": 3684561.8479289655, "cell_area": 6064606570623.1787, "cell_perimeter": 11053685.543786896 }, "geometry": { "type": "Polygon", "coordinates": [ [ [ 36.000000000709157, 58.454151463753448 ], [ -0.000000001279261, 31.889874757399316 ], [ 36.000000000362732, 26.719369954569135 ], [ 36.000000000709157, 58.454151463753448 ] ] ] } },
{ "type": "Feature", "properties": { "isea4t": "030", "resolution": 1, "center_lat": 49.599392562358688, "center_lon": 71.999999999573589, "avg_edge_len": 3999406.9070891147, "cell_area": 7284865871082.043, "cell_perimeter": 11998220.721267344 }, "geometry": { "type": "Polygon", "coordinates": [ [ [ 71.999999998720739, 31.889874757399305 ], [ 35.999999999290829, 58.454151465923289 ], [ 108.000000000709178, 58.454151463753448 ], [ 71.999999998720739, 31.889874757399305 ] ] ] } },
{ "type": "Feature", "properties": { "isea4t": "031", "resolution": 1, "center_lat": 68.96943430989225, "center_lon": 48.0, "avg_edge_len": 3679104.3190419506, "cell_area": 6043043420131.1797, "cell_perimeter": 11037312.957125852 }, "geometry": { "type": "Polygon", "coordinates": [ [ [ 0.0, 90.0 ], [ 35.999999999290829, 58.454151465923289 ], [ 108.000000000709178, 58.454151463753448 ], [ 0.0, 90.0 ] ] ] } },
{ "type": "Feature", "properties": { "isea4t": "032", "resolution": 1, "center_lat": 39.021132059872187, "center_lon": 47.999999999216278, "avg_edge_len": 3684561.8478453383, "cell_area": 6064606570293.9434, "cell_perimeter": 11053685.543536015 }, "geometry": { "type": "Polygon", "coordinates": [ [ [ 35.999999999290829, 58.454151465923289 ], [ 35.999999999637268, 26.719369956293946 ], [ 71.999999998720739, 31.889874757399305 ], [ 35.999999999290829, 58.454151465923289 ] ] ] } },
{ "type": "Feature", "properties": { "isea4t": "033", "resolution": 1, "center_lat": 39.021132058573961, "center_lon": 95.999999999930893, "avg_edge_len": 3684561.8479289655, "cell_area": 6064606570623.167, "cell_perimeter": 11053685.543786896 }, "geometry": { "type": "Polygon", "coordinates": [ [ [ 108.000000000709178, 58.454151463753448 ], [ 71.999999998720739, 31.889874757399305 ], [ 108.000000000362718, 26.719369954569135 ], [ 108.000000000709178, 58.454151463753448 ] ] ] } },
{ "type": "Feature", "properties": { "isea4t": "040", "resolution": 1, "center_lat": 49.599392562358688, "center_lon": -216.00000000042638, "avg_edge_len": 3999406.9070891147, "cell_area": 7284865871082.0391, "cell_perimeter": 11998220.721267344 }, "geometry": { "type": "Polygon", "coordinates": [ [ [ -216.000000001279261, 31.889874757399316 ], [ -252.000000000709178, 58.454151465923289 ], [ -179.999999999290822, 58.454151463753448 ], [ -216.000000001279261, 31.889874757399316 ] ] ] } },
{ "type": "Feature", "properties": { "isea4t": "041", "resolution": 1, "center_lat": 68.96943430989225, "center_lon": -144.0, "avg_edge_len": 3679104.3190419506, "cell_area": 6043043420131.125, "cell_perimeter": 11037312.957125852 }, "geometry": { "type": "Polygon", "coordinates": [ [ [ 0.0, 90.0 ], [ -252.000000000709178, 58.454151465923289 ], [ -179.999999999290822, 58.454151463753448 ], [ 0.0, 90.0 ] ] ] } },
{ "type": "Feature", "properties": { "isea4t": "042", "resolution": 1, "center_lat": 39.021132059872187, "center_lon": 119.99999999921629, "avg_edge_len": 3684561.8478453383, "cell_area": 6064606570293.9414, "cell_perimeter": 11053685.543536015 }, "geometry": { "type": "Polygon", "coordinates": [ [ [ 107.999999999290822, 58.454151465923289 ], [ 107.999999999637268, 26.719369956293956 ], [ 143.999999998720739, 31.889874757399316 ], [ 107.999999999290822, 58.454151465923289 ] ] ] } },
{ "type": "Feature", "properties": { "isea4t": "043", "resolution": 1, "center_lat": 39.021132058573968, "center_lon": -192.00000000006912, "avg_edge_len": 3684561.8479289659, "cell_area": 6064606570623.1807, "cell_perimeter": 11053685.543786898 }, "geometry": { "type": "Polygon", "coordinates": [ [ [ -179.999999999290822, 58.454151463753448 ], [ -216.000000001279261, 31.889874757399316 ], [ -179.999999999637254, 26.719369954569135 ], [ -179.999999999290822, 58.454151463753448 ] ] ] } },
{ "type": "Feature", "properties": { "isea4t": "050", "resolution": 1, "center_lat": 10.629958248790388, "center_lon": -143.99999999995498, "avg_edge_len": 4006632.4549463182, "cell_area": 7315545383938.8662, "cell_perimeter": 12019897.364838954 }, "geometry": { "type": "Polygon", "coordinates": [ [ [ -126.000000000531273, -0.000000004377144 ], [ -162.000000000612943, -0.000000002513269 ], [ -143.999999998720739, 31.88987475326158 ], [ -126.000000000531273, -0.000000004377144 ] ] ] } },
{ "type": "Feature", "properties": { "isea4t": "051", "resolution": 1, "center_lat": 19.536414901302276, "center_lon": -161.99999999952064, "avg_edge_len": 3687985.3144744397, "cell_area": 6076536816924.4785, "cell_perimeter": 11063955.94342332 }, "geometry": { "type": "Polygon", "coordinates": [ [ [ -179.999999999228265, 26.719369953158512 ], [ -162.000000000612943, -0.000000002513269 ], [ -143.999999998720739, 31.88987475326158 ], [ -179.999999999228265, 26.719369953158512 ] ] ] } },
{ "type": "Feature", "properties": { "isea4t": "052", "resolution": 1, "center_lat": -8.9064566555725122, "center_lon": -144.00000000038142, "avg_edge_len": 3689137.9209908857, "cell_area": 6080820723093.9268, "cell_perimeter": 11067413.762972657 }, "geometry": { "type": "Polygon", "coordinates": [ [ [ -162.000000000612943, -0.000000002513269 ], [ -144.0, -26.719369959827123 ], [ -126.000000000531273, -0.000000004377144 ], [ -162.000000000612943, -0.000000002513269 ] ] ] } },
{ "type": "Feature", "properties": { "isea4t": "053", "resolution": 1, "center_lat": 19.53641490050331, "center_lon": -125.99999999939899, "avg_edge_len": 3687985.3145579533, "cell_area": 6076536817254.0391, "cell_perimeter": 11063955.94367386 }, "geometry": { "type": "Polygon", "coordinates": [ [ [ -143.999999998720739, 31.88987475326158 ], [ -126.000000000531273, -0.000000004377144 ], [ -107.999999998945015, 26.719369952625495 ], [ -143.999999998720739, 31.88987475326158 ] ] ] } },
{ "type": "Feature", "properties": { "isea4t": "060", "resolution": 1, "center_lat": 10.629958248790388, "center_lon": -71.99999999995498, "avg_edge_len": 4006632.4549463154, "cell_area": 7315545383938.8604, "cell_perimeter": 12019897.364838947 }, "geometry": { "type": "Polygon", "coordinates": [ [ [ -54.000000000531294, -0.000000004377144 ], [ -90.000000000612928, -0.000000002513269 ], [ -71.999999998720725, 31.88987475326158 ], [ -54.000000000531294, -0.000000004377144 ] ] ] } },
{ "type": "Feature", "properties": { "isea4t": "061", "resolution": 1, "center_lat": 19.536414901302276, "center_lon": -89.999999999520639, "avg_edge_len": 3687985.3144744406, "cell_area": 6076536816924.4785, "cell_perimeter": 11063955.943423321 }, "geometry": { "type": "Polygon", "coordinates": [ [ [ -107.99999999922828, 26.719369953158509 ], [ -90.000000000612928, -0.000000002513269 ], [ -71.999999998720725, 31.88987475326158 ], [ -107.99999999922828, 26.719369953158509 ] ] ] } },
{ "type": "Feature", "properties": { "isea4t": "062", "resolution": 1, "center_lat": -8.906456655572514, "center_lon": -72.000000000381419, "avg_edge_len": 3689137.9209908838, "cell_area": 6080820723093.9209, "cell_perimeter": 11067413.762972651 }, "geometry": { "type": "Polygon", "coordinates": [ [ [ -90.000000000612928, -0.000000002513269 ], [ -72.0, -26.719369959827127 ], [ -54.000000000531294, -0.000000004377144 ], [ -90.000000000612928, -0.000000002513269 ] ] ] } },
{ "type": "Feature", "properties": { "isea4t": "063", "resolution": 1, "center_lat": 19.536414900503313, "center_lon": -53.999999999399023, "avg_edge_len": 3687985.3145579514, "cell_area": 6076536817254.0293, "cell_perimeter": 11063955.943673855 }, "geometry": { "type": "Polygon", "coordinates": [ [ [ -71.999999998720725, 31.88987475326158 ], [ -54.000000000531294, -0.000000004377144 ], [ -35.999999998945036, 26.719369952625495 ], [ -71.999999998720725, 31.88987475326158 ] ] ] } },
{ "type": "Feature", "properties": { "isea4t": "070", "resolution": 1, "center_lat": 10.629958248790388, "center_lon": 4.5014650918347979e-11, "avg_edge_len": 4006632.4549463163, "cell_area": 7315545383938.8604, "cell_perimeter": 12019897.364838948 }, "geometry": { "type": "Polygon", "coordinates": [ [ [ 17.999999999468706, -0.000000004377144 ], [ -18.000000000612932, -0.000000002513269 ], [ 0.00000000127927, 31.88987475326158 ], [ 17.999999999468706, -0.000000004377144 ] ] ] } },
{ "type": "Feature", "properties": { "isea4t": "071", "resolution": 1, "center_lat": 19.536414901302273, "center_lon": -17.999999999520643, "avg_edge_len": 3687985.3144744406, "cell_area": 6076536816924.4785, "cell_perimeter": 11063955.943423321 }, "geometry": { "type": "Polygon", "coordinates": [ [ [ -35.999999999228272, 26.719369953158512 ], [ -18.000000000612932, -0.000000002513269 ], [ 0.00000000127927, 31.88987475326158 ], [ -35.999999999228272, 26.719369953158512 ] ] ] } },
{ "type": "Feature", "properties": { "isea4t": "072", "resolution": 1, "center_lat": -8.9064566555725122, "center_lon": -3.8140868241498543e-10, "avg_edge_len": 3689137.9209908838, "cell_area": 6080820723093.9209, "cell_perimeter": 11067413.762972651 }, "geometry": { "type": "Polygon", "coordinates": [ [ [ -18.000000000612932, -0.000000002513269 ], [ 0.0, -26.719369959827123 ], [ 17.999999999468706, -0.000000004377144 ], [ -18.000000000612932, -0.000000002513269 ] ] ] } },
{ "type": "Feature", "properties": { "isea4t": "073", "resolution": 1, "center_lat": 19.53641490050331, "center_lon": 18.000000000600984, "avg_edge_len": 3687985.3145579533, "cell_area": 6076536817254.0361, "cell_perimeter": 11063955.94367386 }, "geometry": { "type": "Polygon", "coordinates": [ [ [ 0.00000000127927, 31.88987475326158 ], [ 17.999999999468706, -0.000000004377144 ], [ 36.000000001054978, 26.719369952625495 ], [ 0.00000000127927, 31.88987475326158 ] ] ] } },
{ "type": "Feature", "properties": { "isea4t": "080", "resolution": 1, "center_lat": 10.629958248790388, "center_lon": 72.00000000004502, "avg_edge_len": 4006632.4549463163, "cell_area": 7315545383938.8613, "cell_perimeter": 12019897.364838948 }, "geometry": { "type": "Polygon", "coordinates": [ [ [ 89.999999999468713, -0.000000004377144 ], [ 53.999999999387072, -0.000000002513269 ], [ 72.000000001279275, 31.88987475326158 ], [ 89.999999999468713, -0.000000004377144 ] ] ] } },
{ "type": "Feature", "properties": { "isea4t": "081", "resolution": 1, "center_lat": 19.536414901302273, "center_lon": 54.000000000479361, "avg_edge_len": 3687985.3144744411, "cell_area": 6076536816924.4863, "cell_perimeter": 11063955.943423323 }, "geometry": { "type": "Polygon", "coordinates": [ [ [ 36.000000000771713, 26.719369953158512 ], [ 53.999999999387072, -0.000000002513269 ], [ 72.000000001279275, 31.88987475326158 ], [ 36.000000000771713, 26.719369953158512 ] ] ] } },
{ "type": "Feature", "properties": { "isea4t": "082", "resolution": 1, "center_lat": -8.906456655572514, "center_lon": 71.999999999618595, "avg_edge_len": 3689137.9209908843, "cell_area": 6080820723093.9229, "cell_perimeter": 11067413.762972653 }, "geometry": { "type": "Polygon", "coordinates": [ [ [ 53.999999999387072, -0.000000002513269 ], [ 72.0, -26.719369959827127 ], [ 89.999999999468713, -0.000000004377144 ], [ 53.999999999387072, -0.000000002513269 ] ] ] } },
{ "type": "Feature", "properties": { "isea4t": "083", "resolution": 1, "center_lat": 19.53641490050331, "center_lon": 90.000000000600991, "avg_edge_len": 3687985.3145579523, "cell_area": 6076536817254.0293, "cell_perimeter": 11063955.943673857 }, "geometry": { "type": "Polygon", "coordinates": [ [ [ 72.000000001279275, 31.88987475326158 ], [ 89.999999999468713, -0.000000004377144 ], [ 108.000000001054971, 26.719369952625495 ], [ 72.000000001279275, 31.88987475326158 ] ] ] } },
{ "type": "Feature", "properties": { "isea4t": "090", "resolution": 1, "center_lat": 10.629958248790388, "center_lon": 144.00000000004502, "avg_edge_len": 4006632.4549463154, "cell_area": 7315545383938.8584, "cell_perimeter": 12019897.364838947 }, "geometry": { "type": "Polygon", "coordinates": [ [ [ 161.999999999468685, -0.000000004377144 ], [ 125.999999999387057, -0.000000002513269 ], [ 144.000000001279261, 31.88987475326158 ], [ 161.999999999468685, -0.000000004377144 ] ] ] } },
{ "type": "Feature", "properties": { "isea4t": "091", "resolution": 1, "center_lat": 19.536414901302273, "center_lon": 126.00000000047933, "avg_edge_len": 3687985.3144744406, "cell_area": 6076536816924.4785, "cell_perimeter": 11063955.943423321 }, "geometry": { "type": "Polygon", "coordinates": [ [ [ 108.00000000077172, 26.719369953158512 ], [ 125.999999999387057, -0.000000002513269 ], [ 144.000000001279261, 31.88987475326158 ], [ 108.00000000077172, 26.719369953158512 ] ] ] } },
{ "type": "Feature", "properties": { "isea4t": "092", "resolution": 1, "center_lat": -8.906456655572514, "center_lon": 143.99999999961858, "avg_edge_len": 3689137.9209908829, "cell_area": 6080820723093.9199, "cell_perimeter": 11067413.762972649 }, "geometry": { "type": "Polygon", "coordinates": [ [ [ 125.999999999387057, -0.000000002513269 ], [ 144.0, -26.719369959827123 ], [ 161.999999999468685, -0.000000004377144 ], [ 125.999999999387057, -0.000000002513269 ] ] ] } },
{ "type": "Feature", "properties": { "isea4t": "093", "resolution": 1, "center_lat": 19.53641490050331, "center_lon": -197.99999999939902, "avg_edge_len": 3687985.3145579533, "cell_area": 6076536817254.0381, "cell_perimeter": 11063955.94367386 }, "geometry": { "type": "Polygon", "coordinates": [ [ [ -215.999999998720739, 31.88987475326158 ], [ -198.000000000531315, -0.000000004377144 ], [ -179.999999998945015, 26.719369952625495 ], [ -215.999999998720739, 31.88987475326158 ] ] ] } },
{ "type": "Feature", "properties": { "isea4t": "100", "resolution": 1, "center_lat": -10.629958248790386, "center_lon": -108.00000000004501, "avg_edge_len": 4006632.4549463168, "cell_area": 7315545383938.8652, "cell_perimeter": 12019897.36483895 }, "geometry": { "type": "Polygon", "coordinates": [ [ [ -108.000000001279261, -31.88987475326158 ], [ -125.999999999468713, 0.000000004377147 ], [ -89.999999999387072, 0.000000002513279 ], [ -108.000000001279261, -31.88987475326158 ] ] ] } },
{ "type": "Feature", "properties": { "isea4t": "101", "resolution": 1, "center_lat": 8.906456655572514, "center_lon": -107.99999999961861, "avg_edge_len": 3689137.9209908829, "cell_area": 6080820723093.9199, "cell_perimeter": 11067413.762972649 }, "geometry": { "type": "Polygon", "coordinates": [ [ [ -108.0, 26.719369959827123 ], [ -125.999999999468713, 0.000000004377147 ], [ -89.999999999387072, 0.000000002513279 ], [ -108.0, 26.719369959827123 ] ] ] } },
{ "type": "Feature", "properties": { "isea4t": "102", "resolution": 1, "center_lat": -19.536414900680985, "center_lon": -125.99999999999208, "avg_edge_len": 3687985.3144745459, "cell_area": 6076536816924.502, "cell_perimeter": 11063955.943423638 }, "geometry": { "type": "Polygon", "coordinates": [ [ [ -125.999999999468713, 0.000000004377147 ], [ -143.999999999228265, -26.719369953158523 ], [ -108.000000001279261, -31.88987475326158 ], [ -125.999999999468713, 0.000000004377147 ] ] ] } },
{ "type": "Feature", "properties": { "isea4t": "103", "resolution": 1, "center_lat": -19.536414901767408, "center_lon": -90.000000000103029, "avg_edge_len": 3687985.314557781, "cell_area": 6076536817253.5176, "cell_perimeter": 11063955.943673342 }, "geometry": { "type": "Polygon", "coordinates": [ [ [ -89.999999999387072, 0.000000002513279 ], [ -108.000000001279261, -31.88987475326158 ], [ -71.999999999642782, -26.71936995455393 ], [ -89.999999999387072, 0.000000002513279 ] ] ] } },
{ "type": "Feature", "properties": { "isea4t": "110", "resolution": 1, "center_lat": -10.629958248790386, "center_lon": -36.000000000045013, "avg_edge_len": 4006632.4549463163, "cell_area": 7315545383938.8633, "cell_perimeter": 12019897.364838948 }, "geometry": { "type": "Polygon", "coordinates": [ [ [ -36.000000001279268, -31.88987475326158 ], [ -53.999999999468706, 0.000000004377147 ], [ -17.999999999387072, 0.000000002513279 ], [ -36.000000001279268, -31.88987475326158 ] ] ] } },
{ "type": "Feature", "properties": { "isea4t": "111", "resolution": 1, "center_lat": 8.9064566555725175, "center_lon": -35.999999999618595, "avg_edge_len": 3689137.9209908824, "cell_area": 6080820723093.9189, "cell_perimeter": 11067413.762972647 }, "geometry": { "type": "Polygon", "coordinates": [ [ [ -36.0, 26.719369959827123 ], [ -53.999999999468706, 0.000000004377147 ], [ -17.999999999387072, 0.000000002513279 ], [ -36.0, 26.719369959827123 ] ] ] } },
{ "type": "Feature", "properties": { "isea4t": "112", "resolution": 1, "center_lat": -19.536414900680988, "center_lon": -53.99999999999207, "avg_edge_len": 3687985.314474545, "cell_area": 6076536816924.502, "cell_perimeter": 11063955.943423634 }, "geometry": { "type": "Polygon", "coordinates": [ [ [ -53.999999999468706, 0.000000004377147 ], [ -71.999999999228251, -26.719369953158523 ], [ -36.000000001279268, -31.88987475326158 ], [ -53.999999999468706, 0.000000004377147 ] ] ] } },
{ "type": "Feature", "properties": { "isea4t": "113", "resolution": 1, "center_lat": -19.536414901767412, "center_lon": -18.000000000103039, "avg_edge_len": 3687985.314557781, "cell_area": 6076536817253.5176, "cell_perimeter": 11063955.943673342 }, "geometry": { "type": "Polygon", "coordinates": [ [ [ -17.999999999387072, 0.000000002513279 ], [ -36.000000001279268, -31.88987475326158 ], [ 0.000000000357221, -26.71936995455393 ], [ -17.999999999387072, 0.000000002513279 ] ] ] } },
{ "type": "Feature", "properties": { "isea4t": "120", "resolution": 1, "center_lat": -10.629958248790386, "center_lon": 35.999999999954987, "avg_edge_len": 4006632.4549463168, "cell_area": 7315545383938.8633, "cell_perimeter": 12019897.36483895 }, "geometry": { "type": "Polygon", "coordinates": [ [ [ 35.999999998720732, -31.88987475326158 ], [ 18.000000000531294, 0.000000004377147 ], [ 54.000000000612935, 0.000000002513279 ], [ 35.999999998720732, -31.88987475326158 ] ] ] } },
{ "type": "Feature", "properties": { "isea4t": "121", "resolution": 1, "center_lat": 8.906456655572514, "center_lon": 36.000000000381412, "avg_edge_len": 3689137.9209908829, "cell_area": 6080820723093.9209, "cell_perimeter": 11067413.762972649 }, "geometry": { "type": "Polygon", "coordinates": [ [ [ 36.0, 26.719369959827123 ], [ 18.000000000531294, 0.000000004377147 ], [ 54.000000000612935, 0.000000002513279 ], [ 36.0, 26.719369959827123 ] ] ] } },
{ "type": "Feature", "properties": { "isea4t": "122", "resolution": 1, "center_lat": -19.536414900680988, "center_lon": 18.000000000007915, "avg_edge_len": 3687985.3144745459, "cell_area": 6076536816924.5068, "cell_perimeter": 11063955.943423638 }, "geometry": { "type": "Polygon", "coordinates": [ [ [ 18.000000000531294, 0.000000004377147 ], [ 0.000000000771723, -26.719369953158523 ], [ 35.999999998720732, -31.88987475326158 ], [ 18.000000000531294, 0.000000004377147 ] ] ] } },
{ "type": "Feature", "properties": { "isea4t": "123", "resolution": 1, "center_lat": -19.536414901767408, "center_lon": 53.999999999896964, "avg_edge_len": 3687985.314557781, "cell_area": 6076536817253.5195, "cell_perimeter": 11063955.943673342 }, "geometry": { "type": "Polygon", "coordinates": [ [ [ 54.000000000612935, 0.000000002513279 ], [ 35.999999998720732, -31.88987475326158 ], [ 72.000000000357218, -26.71936995455393 ], [ 54.000000000612935, 0.000000002513279 ] ] ] } },
{ "type": "Feature", "properties": { "isea4t": "130", "resolution": 1, "center_lat": -10.629958248790386, "center_lon": 107.99999999995498, "avg_edge_len": 4006632.4549463168, "cell_area": 7315545383938.8652, "cell_perimeter": 12019897.36483895 }, "geometry": { "type": "Polygon", "coordinates": [ [ [ 107.999999998720739, -31.88987475326158 ], [ 90.000000000531287, 0.000000004377147 ], [ 126.000000000612928, 0.000000002513279 ], [ 107.999999998720739, -31.88987475326158 ] ] ] } },
{ "type": "Feature", "properties": { "isea4t": "131", "resolution": 1, "center_lat": 8.906456655572514, "center_lon": 108.00000000038141, "avg_edge_len": 3689137.9209908829, "cell_area": 6080820723093.9199, "cell_perimeter": 11067413.762972649 }, "geometry": { "type": "Polygon", "coordinates": [ [ [ 108.0, 26.719369959827123 ], [ 90.000000000531287, 0.000000004377147 ], [ 126.000000000612928, 0.000000002513279 ], [ 108.0, 26.719369959827123 ] ] ] } },
{ "type": "Feature", "properties": { "isea4t": "132", "resolution": 1, "center_lat": -19.536414900680988, "center_lon": 90.000000000007915, "avg_edge_len": 3687985.3144745454, "cell_area": 6076536816924.502, "cell_perimeter": 11063955.943423636 }, "geometry": { "type": "Polygon", "coordinates": [ [ [ 90.000000000531287, 0.000000004377147 ], [ 72.000000000771749, -26.719369953158523 ], [ 107.999999998720739, -31.88987475326158 ], [ 90.000000000531287, 0.000000004377147 ] ] ] } },
{ "type": "Feature", "properties": { "isea4t": "133", "resolution": 1, "center_lat": -19.536414901767412, "center_lon": 125.99999999989697, "avg_edge_len": 3687985.31455778, "cell_area": 6076536817253.5127, "cell_perimeter": 11063955.943673341 }, "geometry": { "type": "Polygon", "coordinates": [ [ [ 126.000000000612928, 0.000000002513279 ], [ 107.999999998720739, -31.88987475326158 ], [ 144.000000000357204, -26.71936995455393 ], [ 126.000000000612928, 0.000000002513279 ] ] ] } },
{ "type": "Feature", "properties": { "isea4t": "140", "resolution": 1, "center_lat": -10.629958248790386, "center_lon": -180.00000000004502, "avg_edge_len": 4006632.4549463149, "cell_area": 7315545383938.8555, "cell_perimeter": 12019897.364838945 }, "geometry": { "type": "Polygon", "coordinates": [ [ [ -180.000000001279261, -31.88987475326158 ], [ -197.999999999468713, 0.000000004377147 ], [ -161.999999999387114, 0.000000002513279 ], [ -180.000000001279261, -31.88987475326158 ] ] ] } },
{ "type": "Feature", "properties": { "isea4t": "141", "resolution": 1, "center_lat": 8.9064566555725158, "center_lon": -179.99999999961861, "avg_edge_len": 3689137.920990881, "cell_area": 6080820723093.9121, "cell_perimeter": 11067413.762972644 }, "geometry": { "type": "Polygon", "coordinates": [ [ [ -180.0, 26.719369959827123 ], [ -197.999999999468713, 0.000000004377147 ], [ -161.999999999387114, 0.000000002513279 ], [ -180.0, 26.719369959827123 ] ] ] } },
{ "type": "Feature", "properties": { "isea4t": "142", "resolution": 1, "center_lat": -19.536414900680985, "center_lon": 162.00000000000793, "avg_edge_len": 3687985.3144745459, "cell_area": 6076536816924.502, "cell_perimeter": 11063955.943423638 }, "geometry": { "type": "Polygon", "coordinates": [ [ [ 162.000000000531287, 0.000000004377147 ], [ 144.000000000771735, -26.719369953158523 ], [ 179.999999998720739, -31.88987475326158 ], [ 162.000000000531287, 0.000000004377147 ] ] ] } },
{ "type": "Feature", "properties": { "isea4t": "143", "resolution": 1, "center_lat": -19.536414901767412, "center_lon": -162.00000000010306, "avg_edge_len": 3687985.314557781, "cell_area": 6076536817253.5146, "cell_perimeter": 11063955.943673342 }, "geometry": { "type": "Polygon", "coordinates": [ [ [ -161.999999999387114, 0.000000002513279 ], [ -180.000000001279261, -31.88987475326158 ], [ -143.999999999642796, -26.71936995455393 ], [ -161.999999999387114, 0.000000002513279 ] ] ] } },
{ "type": "Feature", "properties": { "isea4t": "150", "resolution": 1, "center_lat": -49.59939256235868, "center_lon": -107.99999999957359, "avg_edge_len": 3999406.9070891142, "cell_area": 7284865871082.0352, "cell_perimeter": 11998220.721267343 }, "geometry": { "type": "Polygon", "coordinates": [ [ [ -71.999999999290822, -58.454151465923289 ], [ -144.000000000709178, -58.454151463753441 ], [ -107.999999998720725, -31.889874757399319 ], [ -71.999999999290822, -58.454151465923289 ] ] ] } },
{ "type": "Feature", "properties": { "isea4t": "151", "resolution": 1, "center_lat": -39.021132059148904, "center_lon": -131.99999999993088, "avg_edge_len": 3684561.8478455287, "cell_area": 6064606570294.2041, "cell_perimeter": 11053685.543536587 }, "geometry": { "type": "Polygon", "coordinates": [ [ [ -144.000000000362718, -26.719369956293967 ], [ -144.000000000709178, -58.454151463753441 ], [ -107.999999998720725, -31.889874757399319 ], [ -144.000000000362718, -26.719369956293967 ] ] ] } },
{ "type": "Feature", "properties": { "isea4t": "152", "resolution": 1, "center_lat": -68.969434309892236, "center_lon": -72.0, "avg_edge_len": 3679104.3190419511, "cell_area": 6043043420131.1719, "cell_perimeter": 11037312.957125854 }, "geometry": { "type": "Polygon", "coordinates": [ [ [ -144.000000000709178, -58.454151463753441 ], [ 0.0, -90.0 ], [ -71.999999999290822, -58.454151465923289 ], [ -144.000000000709178, -58.454151463753441 ] ] ] } },
{ "type": "Feature", "properties": { "isea4t": "153", "resolution": 1, "center_lat": -39.02113205969453, "center_lon": -83.999999998607365, "avg_edge_len": 3684561.8479287247, "cell_area": 6064606570622.4658, "cell_perimeter": 11053685.543786174 }, "geometry": { "type": "Polygon", "coordinates": [ [ [ -107.999999998720725, -31.889874757399319 ], [ -71.999999999290822, -58.454151465923289 ], [ -71.999999997810562, -26.719369955760975 ], [ -107.999999998720725, -31.889874757399319 ] ] ] } },
{ "type": "Feature", "properties": { "isea4t": "160", "resolution": 1, "center_lat": -49.59939256235868, "center_lon": -35.999999999573568, "avg_edge_len": 3999406.9070891128, "cell_area": 7284865871082.0391, "cell_perimeter": 11998220.721267339 }, "geometry": { "type": "Polygon", "coordinates": [ [ [ 0.000000000709175, -58.454151465923289 ], [ -72.000000000709164, -58.454151463753441 ], [ -35.999999998720732, -31.889874757399316 ], [ 0.000000000709175, -58.454151465923289 ] ] ] } },
{ "type": "Feature", "properties": { "isea4t": "161", "resolution": 1, "center_lat": -39.021132059148904, "center_lon": -59.999999999930878, "avg_edge_len": 3684561.8478455297, "cell_area": 6064606570294.1963, "cell_perimeter": 11053685.543536589 }, "geometry": { "type": "Polygon", "coordinates": [ [ [ -72.000000000362746, -26.719369956293967 ], [ -72.000000000709164, -58.454151463753441 ], [ -35.999999998720732, -31.889874757399316 ], [ -72.000000000362746, -26.719369956293967 ] ] ] } },
{ "type": "Feature", "properties": { "isea4t": "162", "resolution": 1, "center_lat": -68.969434309892236, "center_lon": -23.999999999999996, "avg_edge_len": 3679104.3190419502, "cell_area": 6043043420131.1855, "cell_perimeter": 11037312.95712585 }, "geometry": { "type": "Polygon", "coordinates": [ [ [ -72.000000000709164, -58.454151463753441 ], [ 0.0, -90.0 ], [ 0.000000000709175, -58.454151465923289 ], [ -72.000000000709164, -58.454151463753441 ] ] ] } },
{ "type": "Feature", "properties": { "isea4t": "163", "resolution": 1, "center_lat": -39.02113205969453, "center_lon": -11.99999999860737, "avg_edge_len": 3684561.8479287252, "cell_area": 6064606570622.4619, "cell_perimeter": 11053685.543786176 }, "geometry": { "type": "Polygon", "coordinates": [ [ [ -35.999999998720732, -31.889874757399316 ], [ 0.000000000709175, -58.454151465923289 ], [ 0.000000002189443, -26.719369955760975 ], [ -35.999999998720732, -31.889874757399316 ] ] ] } },
{ "type": "Feature", "properties": { "isea4t": "170", "resolution": 1, "center_lat": -49.59939256235868, "center_lon": 36.000000000426432, "avg_edge_len": 3999406.9070891142, "cell_area": 7284865871082.0273, "cell_perimeter": 11998220.721267343 }, "geometry": { "type": "Polygon", "coordinates": [ [ [ 72.000000000709178, -58.454151465923289 ], [ -0.000000000709168, -58.454151463753441 ], [ 36.000000001279275, -31.889874757399316 ], [ 72.000000000709178, -58.454151465923289 ] ] ] } },
{ "type": "Feature", "properties": { "isea4t": "171", "resolution": 1, "center_lat": -39.021132059148904, "center_lon": 12.000000000069118, "avg_edge_len": 3684561.8478455301, "cell_area": 6064606570294.2031, "cell_perimeter": 11053685.54353659 }, "geometry": { "type": "Polygon", "coordinates": [ [ [ -0.000000000362749, -26.719369956293967 ], [ -0.000000000709168, -58.454151463753441 ], [ 36.000000001279275, -31.889874757399316 ], [ -0.000000000362749, -26.719369956293967 ] ] ] } },
{ "type": "Feature", "properties": { "isea4t": "172", "resolution": 1, "center_lat": -68.969434309892236, "center_lon": 24.000000000000004, "avg_edge_len": 3679104.3190419511, "cell_area": 6043043420131.1885, "cell_perimeter": 11037312.957125854 }, "geometry": { "type": "Polygon", "coordinates": [ [ [ -0.000000000709168, -58.454151463753441 ], [ 0.0, -90.0 ], [ 72.000000000709178, -58.454151465923289 ], [ -0.000000000709168, -58.454151463753441 ] ] ] } },
{ "type": "Feature", "properties": { "isea4t": "173", "resolution": 1, "center_lat": -39.02113205969453, "center_lon": 60.000000001392621, "avg_edge_len": 3684561.8479287247, "cell_area": 6064606570622.4678, "cell_perimeter": 11053685.543786174 }, "geometry": { "type": "Polygon", "coordinates": [ [ [ 36.000000001279275, -31.889874757399316 ], [ 72.000000000709178, -58.454151465923289 ], [ 72.000000002189438, -26.719369955760975 ], [ 36.000000001279275, -31.889874757399316 ] ] ] } },
{ "type": "Feature", "properties": { "isea4t": "180", "resolution": 1, "center_lat": -49.599392562358666, "center_lon": 108.00000000042641, "avg_edge_len": 3999406.9070891142, "cell_area": 7284865871082.043, "cell_perimeter": 11998220.721267343 }, "geometry": { "type": "Polygon", "coordinates": [ [ [ 144.000000000709178, -58.454151465923289 ], [ 71.999999999290836, -58.454151463753441 ], [ 108.000000001279261, -31.889874757399305 ], [ 144.000000000709178, -58.454151465923289 ] ] ] } },
{ "type": "Feature", "properties": { "isea4t": "181", "resolution": 1, "center_lat": -39.021132059148904, "center_lon": 84.000000000069107, "avg_edge_len": 3684561.8478455283, "cell_area": 6064606570294.2002, "cell_perimeter": 11053685.543536585 }, "geometry": { "type": "Polygon", "coordinates": [ [ [ 71.999999999637254, -26.719369956293974 ], [ 71.999999999290836, -58.454151463753441 ], [ 108.000000001279261, -31.889874757399305 ], [ 71.999999999637254, -26.719369956293974 ] ] ] } },
{ "type": "Feature", "properties": { "isea4t": "182", "resolution": 1, "center_lat": -68.96943430989225, "center_lon": 72.0, "avg_edge_len": 3679104.3190419511, "cell_area": 6043043420131.1797, "cell_perimeter": 11037312.957125854 }, "geometry": { "type": "Polygon", "coordinates": [ [ [ 71.999999999290836, -58.454151463753441 ], [ 0.0, -90.0 ], [ 144.000000000709178, -58.454151465923289 ], [ 71.999999999290836, -58.454151463753441 ] ] ] } },
{ "type": "Feature", "properties": { "isea4t": "183", "resolution": 1, "center_lat": -39.02113205969453, "center_lon": 132.00000000139264, "avg_edge_len": 3684561.8479287256, "cell_area": 6064606570622.46, "cell_perimeter": 11053685.543786177 }, "geometry": { "type": "Polygon", "coordinates": [ [ [ 108.000000001279261, -31.889874757399305 ], [ 144.000000000709178, -58.454151465923289 ], [ 144.000000002189438, -26.719369955760975 ], [ 108.000000001279261, -31.889874757399305 ] ] ] } },
{ "type": "Feature", "properties": { "isea4t": "190", "resolution": 1, "center_lat": -49.599392562358688, "center_lon": -179.99999999957359, "avg_edge_len": 3999406.9070891147, "cell_area": 7284865871082.0508, "cell_perimeter": 11998220.721267344 }, "geometry": { "type": "Polygon", "coordinates": [ [ [ -143.999999999290793, -58.454151465923289 ], [ -216.000000000709178, -58.454151463753441 ], [ -179.999999998720739, -31.889874757399316 ], [ -143.999999999290793, -58.454151465923289 ] ] ] } },
{ "type": "Feature", "properties": { "isea4t": "191", "resolution": 1, "center_lat": -39.021132059148904, "center_lon": -203.99999999993088, "avg_edge_len": 3684561.8478455283, "cell_area": 6064606570294.1963, "cell_perimeter": 11053685.543536585 }, "geometry": { "type": "Polygon", "coordinates": [ [ [ -216.000000000362718, -26.719369956293967 ], [ -216.000000000709178, -58.454151463753441 ], [ -179.999999998720739, -31.889874757399316 ], [ -216.000000000362718, -26.719369956293967 ] ] ] } },
{ "type": "Feature", "properties": { "isea4t": "192", "resolution": 1, "center_lat": -68.969434309892236, "center_lon": -120.0, "avg_edge_len": 3679104.3190419511, "cell_area": 6043043420131.1875, "cell_perimeter": 11037312.957125854 }, "geometry": { "type": "Polygon", "coordinates": [ [ [ -216.000000000709178, -58.454151463753441 ], [ 0.0, -90.0 ], [ -143.999999999290793, -58.454151465923289 ], [ -216.000000000709178, -58.454151463753441 ] ] ] } },
{ "type": "Feature", "properties": { "isea4t": "193", "resolution": 1, "center_lat": -39.02113205969453, "center_lon": -155.99999999860736, "avg_edge_len": 3684561.8479287266, "cell_area": 6064606570622.4639, "cell_perimeter": 11053685.543786179 }, "geometry": { "type": "Polygon", "coordinates": [ [ [ -179.999999998720739, -31.889874757399316 ], [ -143.999999999290793, -58.454151465923289 ], [ -143.999999997810562, -26.719369955760975 ], [ -179.999999998720739, -31.889874757399316 ] ] ] } }
]
}
