{
"type": "FeatureCollection",
"name": "planetrisk_0",
"crs": { "type": "name", "properties": { "name": "urn:ogc:def:crs:OGC:1.3:CRS84" } },
"features": [
{ "type": "Feature", "properties": { "global_id": "1" }, "geometry": { "type": "MultiPolygon", "coordinates": [ [ [ [ -34.381483972556644, 36.504268272253178 ], [ -35.033588562135357, 37.740879777207184 ], [ -35.708008390584695, 38.974114439139932 ], [ -36.406588887529125, 40.20383499342487 ], [ -37.131344079838193, 41.429873320367612 ], [ -37.88447664731963, 42.652026574694162 ], [ -38.668400550617768, 43.87005270913901 ], [ -39.48576657252125, 45.083665289630581 ], [ -40.339491148456844, 46.292527480857792 ], [ -41.232788893683626, 47.496245058882941 ], [ -42.169209259342921, 48.694358281428656 ], [ -43.152677760421476, 49.886332416001636 ], [ -44.187542205713484, 51.071546690677948 ], [ -45.278624307809643, 52.249281391894293 ], [ -46.431276937481542, 53.418702788055093 ], [ -47.650758332605243, 54.57821209671868 ], [ -48.939177010973175, 55.722957405974171 ], [ -50.302147815535221, 56.851197139437019 ], [ -51.746537111132078, 57.961662893982776 ], [ -53.279851307482041, 59.052896927544353 ], [ -54.91026845272421, 60.123227054635265 ], [ -56.646655454431219, 61.170738711492724 ], [ -58.498562517049798, 62.193244331204781 ], [ -60.476183375649683, 63.188250461036482 ], [ -62.59026625473151, 64.152923494859337 ], [ -64.851956331169546, 65.084055530677034 ], [ -67.272546251462842, 65.978032744845621 ], [ -69.86310781987973, 66.830809835446459 ], [ -72.633976883184417, 67.637895522655185 ], [ -75.594067101272188, 68.394355717304137 ], [ -78.749999999982492, 69.094842552902293 ], [ -78.75000000006672, 70.436124239652003 ], [ -78.750000000342524, 71.777589731950258 ], [ -78.750000000658574, 73.119423062380733 ], [ -78.750000001025398, 74.461808717833748 ], [ -78.750000001457536, 75.804931868772826 ], [ -78.750000001975621, 77.148978600748066 ], [ -78.750000002610037, 78.494136149075047 ], [ -78.750000003407322, 79.840593137510112 ], [ -78.750000004442697, 81.188539821781276 ], [ -78.750000005846005, 82.538168338866669 ], [ -78.75000000786261, 83.889672962953284 ], [ -78.750000011018173, 85.243250369054948 ], [ -78.750000016679465, 86.59909990532401 ], [ -78.750000029857929, 87.957423875153268 ], [ -78.750000095656532, 89.318427830237013 ], [ 101.249999913262698, 89.318427830237013 ], [ 101.249999972926688, 87.957423875153268 ], [ 101.249999984856743, 86.59909990532401 ], [ 101.249999989967662, 85.243250369054948 ], [ 101.249999992805513, 83.889672962953284 ], [ 101.249999994610135, 82.538168338866669 ], [ 101.249999995858403, 81.188539821781262 ], [ 101.249999996772843, 79.840593137510112 ], [ 101.249999997471278, 78.494136149075047 ], [ 101.249999998021892, 77.148978600748066 ], [ 101.249999998466933, 75.804931868772826 ], [ 101.249999998833914, 74.461808717833748 ], [ 101.249999999141579, 73.119423062380719 ], [ 101.249999999403087, 71.777589731950258 ], [ 101.249999999627974, 70.436124239651988 ], [ 101.249999999982492, 69.094842552902293 ], [ 98.094067101489145, 68.394355717180844 ], [ 95.133976883634844, 67.637895522416571 ], [ 92.363107820572736, 66.830809835100482 ], [ 89.772546252401625, 65.978032744399997 ], [ 87.351956332352714, 65.084055530139111 ], [ 85.090266256154351, 64.152923494236035 ], [ 82.976183377305077, 63.188250460334253 ], [ 80.998562518929049, 62.193244330429579 ], [ 79.146655456524655, 61.170738710650035 ], [ 77.410268455021679, 60.123227053730083 ], [ 75.779851309973225, 59.052896926581255 ], [ 74.246537113806752, 57.961662892965926 ], [ 72.802147818383418, 56.851197138370189 ], [ 71.439177013985329, 55.722957404860807 ], [ 70.15075833577221, 54.578212095561902 ], [ 68.931276934368611, 53.418702789180088 ], [ 67.778624304948451, 52.24928139291849 ], [ 66.68754220309755, 51.071546691606343 ], [ 65.652677758044106, 49.886332416838862 ], [ 64.669209257197338, 48.694358282178982 ], [ 63.732788891763086, 47.496245059550319 ], [ 62.839491146754703, 46.292527481445873 ], [ 61.985766571031021, 45.08366529014274 ], [ 61.168400549333178, 43.870052709578381 ], [ 60.384476646234639, 42.65202657506363 ], [ 59.631344078947009, 41.42987332066987 ], [ 58.906588886826206, 40.203834993662397 ], [ 58.208008390064762, 38.974114439315024 ], [ 57.533588561793408, 37.740879777321979 ], [ 56.881483972387919, 36.504268272309652 ], [ 56.249999999543114, 35.264389685039362 ], [ 54.626089835112936, 35.072398675269369 ], [ 53.0100072935738, 34.858837934581011 ], [ 51.402269494556322, 34.623946361400243 ], [ 49.803354918646413, 34.367974899932236 ], [ 48.213701650436448, 34.091185335895638 ], [ 46.633705965818571, 33.793849061303924 ], [ 45.063721255303427, 33.476245820620612 ], [ 43.504057270614453, 33.138662449994193 ], [ 41.954979677712174, 32.781391620542031 ], [ 40.416709895933316, 32.40473059578968 ], [ 38.889425200109379, 32.008980012411328 ], [ 37.373259060358613, 31.594442692388494 ], [ 35.868301692705238, 31.161422493635772 ], [ 34.374600792733432, 30.710223205059986 ], [ 32.892162424081612, 30.241147490946535 ], [ 31.421755689782703, 29.754767502288527 ], [ 29.968058606245226, 29.253089375511934 ], [ 28.531588251727872, 28.736875276053901 ], [ 27.112022157732948, 28.206610941983261 ], [ 25.709012347293193, 27.662768110870839 ], [ 24.322187691560124, 27.105804391272969 ], [ 22.951156147850579, 26.536163206825741 ], [ 21.595506869237635, 25.954273806813848 ], [ 20.254812178601021, 25.360551337150401 ], [ 18.928629402534838, 24.75539696586188 ], [ 17.616502562655789, 24.139198057398318 ], [ 16.31796392367853, 23.512328390367923 ], [ 15.032535399145772, 22.875148413614241 ], [ 13.759729816943118, 22.228005535901122 ], [ 12.499052047716553, 21.571234444835952 ], [ 11.25, 20.905157450933491 ], [ 10.000947952205539, 21.571234444708143 ], [ 8.740270182902652, 22.228005535644378 ], [ 7.467464600625442, 22.875148413227446 ], [ 6.182036076020092, 23.51232838984998 ], [ 4.883497436972403, 24.13919805674816 ], [ 3.571370597025303, 24.755396965078457 ], [ 2.245187820893662, 25.360551336232703 ], [ 0.904493130194419, 25.954273805760909 ], [ -0.451156148478098, 26.536163205636637 ], [ -1.822187692243915, 27.105804389946833 ], [ -3.209012348029699, 27.662768109406869 ], [ -4.612022158518358, 28.206610940380713 ], [ -6.031588252558113, 28.736875274312126 ], [ -7.46805860711596, 29.25308937363036 ], [ -8.921755690689322, 29.754767500266677 ], [ -10.392162423200649, 30.241147492978314 ], [ -11.874600791934611, 30.710223206969374 ], [ -13.368301691986439, 31.161422495420545 ], [ -14.873259059717437, 31.594442694046489 ], [ -16.389425199543133, 32.008980013940437 ], [ -17.916709895439023, 32.404730597187886 ], [ -19.454979677286573, 32.78139162180738 ], [ -21.004057270253988, 33.138662451124837 ], [ -22.56372125500425, 33.476245821614789 ], [ -24.13370596557656, 33.793849062159985 ], [ -25.713701650247213, 34.091185336612071 ], [ -27.303354918505292, 34.367974900507619 ], [ -28.902269494458412, 34.623946361833319 ], [ -30.510007293513958, 34.85883793487065 ], [ -32.126089835085793, 35.072398675414597 ], [ -33.749999999543114, 35.264389685039362 ], [ -34.381483972556644, 36.504268272253178 ] ] ] ] } },
{ "type": "Feature", "properties": { "global_id": "10" }, "geometry": { "type": "MultiPolygon", "coordinates": [ [ [ [ 122.825890183682404, -1.161557485246024 ], [ 123.497266637047417, -2.323114840668896 ], [ 124.169932908110951, -3.484671409201721 ], [ 124.844539883583636, -4.64622547946125 ], [ 125.5217456706729, -5.807773743323762 ], [ 126.202218082842194, -6.969310738094584 ], [ 126.886637194201356, -8.13082826629244 ], [ 127.575697980918932, -9.292314786872341 ], [ 128.270113068881841, -10.453754771308851 ], [ 128.97061560784249, -11.615128017463917 ], [ 129.677962293492186, -12.776408913560772 ], [ 130.392936560290138, -13.937565643867192 ], [ 131.116351969462499, -15.098559326844132 ], [ 131.849055818372136, -16.259343075524814 ], [ 132.591932999444367, -17.419860968735957 ], [ 133.345493488046657, -18.579410855751313 ], [ 134.108156329641446, -19.734113141394971 ], [ 134.880377039927907, -20.883278099114342 ], [ 135.663050382024892, -22.026839735820939 ], [ 136.457102492235094, -23.164717157337467 ], [ 137.263494327036966, -24.296813507069288 ], [ 138.0832252390571, -25.423014802843642 ], [ 138.917336692349068, -26.54318866156013 ], [ 139.766916125173481, -27.657182900448966 ], [ 140.633100965751112, -28.76482400282908 ], [ 141.517082802972965, -29.865915435307187 ], [ 142.420111709585683, -30.960235802377028 ], [ 143.343500709678949, -32.0475368233881 ], [ 144.28863037507287, -33.127541115886459 ], [ 145.256953526076387, -34.199939768430575 ], [ 146.250000000456879, -35.264389685039362 ], [ 145.618516027612088, -36.504268272309659 ], [ 144.966411438206592, -37.740879777321979 ], [ 144.291991609935252, -38.974114439315031 ], [ 143.593411113173801, -40.203834993662397 ], [ 142.868655921053005, -41.429873320669877 ], [ 142.115523353765354, -42.652026575063637 ], [ 141.331599450666829, -43.870052709578381 ], [ 140.514233428968993, -45.08366529014274 ], [ 139.660508853245318, -46.292527481445873 ], [ 138.767211108236921, -47.496245059550319 ], [ 137.830790742802662, -48.694358282178982 ], [ 136.847322241955908, -49.886332416838862 ], [ 135.812457796902464, -51.071546691606351 ], [ 134.721375695051563, -52.24928139291849 ], [ 133.568723065631389, -53.418702789180095 ], [ 132.349241664227804, -54.578212095561902 ], [ 131.060822986014671, -55.722957404860807 ], [ 129.697852181616582, -56.851197138370189 ], [ 128.253462886193262, -57.961662892965926 ], [ 126.720148690026789, -59.052896926581255 ], [ 125.089731544978321, -60.123227053730083 ], [ 123.353344543475345, -61.170738710650035 ], [ 121.501437481070965, -62.193244330429586 ], [ 119.523816622694937, -63.188250460334253 ], [ 117.409733743845649, -64.152923494236035 ], [ 115.148043667647286, -65.084055530139111 ], [ 112.727453747598389, -65.978032744399997 ], [ 110.136892179427264, -66.830809835100482 ], [ 107.36602311636517, -67.637895522416585 ], [ 104.405932898510855, -68.394355717180844 ], [ 101.250000000017522, -69.094842552902293 ], [ 98.094067102167941, -68.394355717413319 ], [ 95.133976884076546, -67.637895522759862 ], [ 92.3631078207722, -66.830809835546489 ], [ 89.772546252359106, -65.97803274494099 ], [ 87.351956332072604, -65.084055530767813 ], [ 85.09026625564394, -64.152923494945682 ], [ 82.97618337657363, -63.188250461118642 ], [ 80.998562517987082, -62.193244331283033 ], [ 79.146655455383353, -61.170738711567395 ], [ 77.410268453692453, -60.123227054706703 ], [ 75.779851308467414, -59.052896927612956 ], [ 74.246537112135442, -57.961662894048935 ], [ 72.80214781655728, -56.85119713950116 ], [ 71.439177012014554, -55.72295740603672 ], [ 70.150758333666403, -54.578212096780092 ], [ 68.931276933708432, -53.418702783339576 ], [ 67.778624304318782, -52.249281387129237 ], [ 66.687542202482717, -51.071546685867453 ], [ 65.652677757430794, -49.886332411149304 ], [ 64.669209256574234, -48.694358276537649 ], [ 63.732788891120549, -47.496245053956052 ], [ 62.839491146084562, -46.292527475897465 ], [ 61.985766570326305, -45.083665284638982 ], [ 61.168400548587968, -43.870052704118052 ], [ 60.384476645443875, -42.652026569645521 ], [ 59.631344078106366, -41.429873315292774 ], [ 58.906588885932017, -40.203834988325127 ], [ 58.208008389113878, -38.974114434016435 ], [ 57.533588560783137, -37.740879772060936 ], [ 56.881483971315951, -36.50426826708506 ], [ 56.249999998493813, -35.264389680172599 ], [ 57.243046472910045, -34.199939763214502 ], [ 58.211369623767389, -33.127541110615184 ], [ 59.156499289021866, -32.047536818063705 ], [ 60.079888288982012, -30.960235797001445 ], [ 60.982917195467699, -29.865915429882193 ], [ 61.866899032568284, -28.764823997356316 ], [ 62.733083873030161, -27.657182894929935 ], [ 63.582663305744035, -26.543188655996225 ], [ 64.416774758930487, -25.423014797236135 ], [ 65.236505670849851, -24.296813501419351 ], [ 66.04289750555553, -23.164717151646169 ], [ 66.83694961567393, -22.026839730089264 ], [ 67.619622957683262, -20.88327809334319 ], [ 68.391843667886107, -19.734113135585154 ], [ 69.154506509401159, -18.579410849903578 ], [ 69.908067001450164, -17.419860971581485 ], [ 70.650944182459781, -16.259343078320349 ], [ 71.383648031305995, -15.098559329590508 ], [ 72.107063440414265, -13.937565646565186 ], [ 72.822037707147416, -12.776408916211137 ], [ 73.5293843927317, -11.615128020067361 ], [ 74.229886931626297, -10.453754773866057 ], [ 74.924302019522543, -9.292314789383948 ], [ 75.613362806172873, -8.130828268759057 ], [ 76.297781917464206, -6.969310740516783 ], [ 76.978254329565061, -5.807773745702086 ], [ 77.655460116585303, -4.646225481796202 ], [ 78.330067091988369, -3.484671411493774 ], [ 79.002733362981644, -2.323114842918487 ], [ 79.674109816275774, -1.161557487453559 ], [ 80.344842552947426, -0.000000000927932 ], [ 81.686124239697136, -0.000000000943241 ], [ 83.027589731995391, -0.000000000901848 ], [ 84.369423062425867, -0.000000000860555 ], [ 85.711808717878895, -0.00000000081938 ], [ 87.05493186881796, -0.000000000778338 ], [ 88.398978600793214, -0.000000000737448 ], [ 89.74413614912018, -0.000000000696726 ], [ 91.09059313755526, -0.000000000656188 ], [ 92.43853982182641, -0.000000000615852 ], [ 93.788168338911817, -0.000000000575734 ], [ 95.139672962998418, -0.000000000535851 ], [ 96.493250369100082, -0.000000000496219 ], [ 97.849099905369144, -0.000000000456856 ], [ 99.207423875198401, -0.000000000417779 ], [ 100.568427830282147, -0.000000000379004 ], [ 101.931572169717853, 0.000000000379 ], [ 103.292576124801599, 0.000000000417775 ], [ 104.65090009463087, 0.000000000456852 ], [ 106.006749630899918, 0.000000000496215 ], [ 107.360327037001582, 0.000000000535846 ], [ 108.711831661088198, 0.000000000575729 ], [ 110.061460178173604, 0.000000000615847 ], [ 111.409406862444754, 0.000000000656184 ], [ 112.75586385087982, 0.000000000696721 ], [ 114.1010213992068, 0.000000000737444 ], [ 115.445068131182055, 0.000000000778334 ], [ 116.788191282121119, 0.000000000819375 ], [ 118.130576937574148, 0.00000000086055 ], [ 119.472410268004623, 0.000000000901843 ], [ 120.813875760302878, 0.000000000943237 ], [ 122.155157447052574, 0.000000000927928 ], [ 122.825890183682404, -1.161557485246024 ] ] ] ] } },
{ "type": "Feature", "properties": { "global_id": "11" }, "geometry": { "type": "MultiPolygon", "coordinates": [ [ [ [ 179.548843852149417, -26.536163206825744 ], [ 178.177812308439883, -27.105804391272972 ], [ 176.790987652706804, -27.662768110870843 ], [ 175.387977842267048, -28.206610941983264 ], [ 173.968411748272132, -28.736875276053905 ], [ 172.531941393754778, -29.253089375511937 ], [ 171.078244310217286, -29.754767502288527 ], [ 169.607837575918381, -30.241147490946535 ], [ 168.125399207266582, -30.710223205059989 ], [ 166.631698307294755, -31.161422493635776 ], [ 165.126740939641394, -31.594442692388498 ], [ 163.610574799890628, -32.008980012411328 ], [ 162.083290104066691, -32.40473059578968 ], [ 160.545020322287826, -32.781391620542031 ], [ 158.995942729385547, -33.138662449994193 ], [ 157.43627874469658, -33.476245820620612 ], [ 155.866294034181436, -33.793849061303924 ], [ 154.286298349563566, -34.091185335895645 ], [ 152.69664508135358, -34.367974899932236 ], [ 151.097730505443678, -34.62394636140025 ], [ 149.489992706426193, -34.858837934581018 ], [ 147.873910164887064, -35.072398675269376 ], [ 146.250000000456879, -35.264389685039362 ], [ 145.256953526076359, -34.199939768430568 ], [ 144.28863037507287, -33.127541115886459 ], [ 143.343500709678921, -32.0475368233881 ], [ 142.420111709585683, -30.960235802377028 ], [ 141.517082802972965, -29.865915435307187 ], [ 140.633100965751112, -28.76482400282908 ], [ 139.766916125173481, -27.657182900448966 ], [ 138.917336692349068, -26.54318866156013 ], [ 138.083225239057072, -25.423014802843646 ], [ 137.263494327036966, -24.296813507069288 ], [ 136.457102492235094, -23.164717157337467 ], [ 135.663050382024892, -22.026839735820939 ], [ 134.880377039927907, -20.883278099114342 ], [ 134.108156329641446, -19.734113141394968 ], [ 133.345493488046657, -18.579410855751313 ], [ 132.591932999444367, -17.419860968735961 ], [ 131.849055818372136, -16.259343075524811 ], [ 131.116351969462499, -15.098559326844132 ], [ 130.392936560290138, -13.937565643867192 ], [ 129.677962293492186, -12.776408913560774 ], [ 128.97061560784249, -11.615128017463915 ], [ 128.270113068881841, -10.453754771308851 ], [ 127.575697980918932, -9.292314786872341 ], [ 126.886637194201356, -8.13082826629244 ], [ 126.202218082842194, -6.969310738094582 ], [ 125.5217456706729, -5.807773743323762 ], [ 124.844539883583636, -4.64622547946125 ], [ 124.169932908110951, -3.48467140920172 ], [ 123.497266637047417, -2.323114840668895 ], [ 122.825890183682404, -1.161557485246023 ], [ 122.155157447052574, 0.000000000927928 ], [ 122.825890183724241, 1.161557487453555 ], [ 123.49726663701837, 2.323114842918484 ], [ 124.169932908011646, 3.48467141149377 ], [ 124.844539883414697, 4.646225481796199 ], [ 125.521745670434953, 5.807773745702082 ], [ 126.202218082535808, 6.96931074051678 ], [ 126.886637193827141, 8.130828268759053 ], [ 127.575697980477457, 9.292314789383944 ], [ 128.270113068373718, 10.453754773866054 ], [ 128.970615607268314, 11.615128020067358 ], [ 129.677962292852584, 12.776408916211134 ], [ 130.392936559585735, 13.937565646565185 ], [ 131.116351968694005, 15.098559329590504 ], [ 131.849055817540233, 16.259343078320349 ], [ 132.591932998549851, 17.419860971581482 ], [ 133.345493490598841, 18.579410849903574 ], [ 134.108156332113907, 19.734113135585151 ], [ 134.880377042316752, 20.883278093343183 ], [ 135.663050384326084, 22.026839730089261 ], [ 136.457102494444484, 23.164717151646165 ], [ 137.263494329150149, 24.296813501419347 ], [ 138.083225241069528, 25.423014797236132 ], [ 138.917336694255965, 26.543188655996222 ], [ 139.766916126969846, 27.657182894929932 ], [ 140.633100967431716, 28.764823997356309 ], [ 141.517082804532293, 29.86591542988219 ], [ 142.420111711017995, 30.960235797001442 ], [ 143.343500710978134, 32.047536818063698 ], [ 144.288630376232618, 33.127541110615176 ], [ 145.256953527089962, 34.199939763214495 ], [ 146.25000000150618, 35.264389680172599 ], [ 147.873910165835696, 35.072398670383905 ], [ 149.489992707298285, 34.858837929791619 ], [ 151.097730506244744, 34.623946356709013 ], [ 152.696645082089248, 34.367974895341106 ], [ 154.286298350239463, 34.091185331406393 ], [ 155.866294034803275, 33.79384905691817 ], [ 157.436278745270045, 33.476245816339834 ], [ 158.995942729916322, 33.138662445819705 ], [ 160.545020322781568, 32.781391616474991 ], [ 162.083290104528942, 32.404730591831118 ], [ 163.61057480032693, 32.008980008562133 ], [ 165.12674094005709, 31.594442688649409 ], [ 166.63169830769516, 31.161422490007411 ], [ 168.125399207656812, 30.710223201542842 ], [ 169.607837576303439, 30.241147487540978 ], [ 171.078244309868893, 29.754767497608618 ], [ 172.531941393393026, 29.253089370948381 ], [ 173.968411747903161, 28.736875271608209 ], [ 175.38797784189677, 28.206610937656787 ], [ 176.790987652340931, 27.66276810666481 ], [ 178.177812308083929, 27.105804387188464 ], [ 179.548843851808698, 26.536163202863733 ], [ 179.995, 26.344658263186886 ], [ 179.995, -26.344658267251681 ], [ 179.548843852149417, -26.536163206825744 ] ] ], [ [ [ -179.095506869558051, 25.954273802975194 ], [ -177.754812178896259, 25.360551333435854 ], [ -176.428629402800226, 24.755396962272098 ], [ -175.116502562886865, 24.139198053933871 ], [ -173.817963923871076, 23.512328387029299 ], [ -172.532535399295739, 22.875148410401863 ], [ -171.259729817046662, 22.228005532815342 ], [ -169.99905204777005, 21.571234441877063 ], [ -168.75, 20.90515744810174 ], [ -168.749999999922039, 19.563875761677384 ], [ -168.749999999845357, 18.222410269379701 ], [ -168.749999999769841, 16.880576938950181 ], [ -168.749999999695348, 15.538191283498492 ], [ -168.749999999621764, 14.195068132561145 ], [ -168.749999999549004, 12.851021400588003 ], [ -168.749999999476984, 11.505863852263523 ], [ -168.74999999940556, 10.159406863831347 ], [ -168.749999999334648, 8.811460179563483 ], [ -168.74999999926419, 7.461831662481766 ], [ -168.749999999194046, 6.110327038399246 ], [ -168.749999999124157, 4.756749632302086 ], [ -168.749999999054438, 3.400900096037952 ], [ -168.749999998984777, 2.042576126214034 ], [ -168.749999998915087, 0.681572171136064 ], [ -168.750000001084885, -0.68157217396782 ], [ -168.750000001015223, -2.04257612904579 ], [ -168.750000000945562, -3.400900098869708 ], [ -168.750000000875815, -4.756749635133843 ], [ -168.750000000805954, -6.110327041231002 ], [ -168.75000000073581, -7.461831665313522 ], [ -168.750000000665324, -8.811460182395239 ], [ -168.75000000059444, -10.159406866663101 ], [ -168.750000000523016, -11.505863855095278 ], [ -168.750000000450996, -12.851021403419759 ], [ -168.750000000378236, -14.1950681353929 ], [ -168.750000000304652, -15.538191286330246 ], [ -168.750000000230159, -16.880576941781936 ], [ -168.750000000154643, -18.222410272211455 ], [ -168.750000000077961, -19.563875764509142 ], [ -168.75, -20.905157450933494 ], [ -169.99905204771656, -21.571234444835955 ], [ -171.259729816943121, -22.228005535901126 ], [ -172.532535399145786, -22.875148413614244 ], [ -173.817963923678519, -23.512328390367927 ], [ -175.116502562655796, -24.139198057398321 ], [ -176.428629402534852, -24.755396965861884 ], [ -177.754812178601014, -25.360551337150405 ], [ -179.095506869237624, -25.954273806813852 ], [ -179.995, -26.340365937301808 ], [ -179.995, 26.340365933237987 ], [ -179.095506869558051, 25.954273802975194 ] ] ] ] } },
{ "type": "Feature", "properties": { "global_id": "12" }, "geometry": { "type": "MultiPolygon", "coordinates": [ [ [ [ 101.250000086737629, -89.318427830237013 ], [ 101.250000027073426, -87.957423875153268 ], [ 101.250000015143314, -86.59909990532401 ], [ 101.250000010032394, -85.243250369054948 ], [ 101.250000007194529, -83.889672962953284 ], [ 101.250000005389893, -82.538168338866669 ], [ 101.250000004141626, -81.188539821781276 ], [ 101.250000003227171, -79.840593137510126 ], [ 101.250000002528751, -78.494136149075047 ], [ 101.250000001978123, -77.148978600748066 ], [ 101.250000001533095, -75.804931868772826 ], [ 101.2500000011661, -74.461808717833748 ], [ 101.250000000858449, -73.119423062380733 ], [ 101.250000000596927, -71.777589731950258 ], [ 101.25000000037204, -70.436124239652003 ], [ 101.250000000017522, -69.094842552902293 ], [ 104.405932898510869, -68.394355717180844 ], [ 107.36602311636517, -67.637895522416585 ], [ 110.136892179427264, -66.830809835100482 ], [ 112.727453747598389, -65.978032744399997 ], [ 115.148043667647286, -65.084055530139111 ], [ 117.409733743845663, -64.152923494236035 ], [ 119.523816622694937, -63.188250460334253 ], [ 121.501437481070965, -62.193244330429579 ], [ 123.353344543475345, -61.170738710650035 ], [ 125.089731544978321, -60.123227053730083 ], [ 126.720148690026789, -59.052896926581255 ], [ 128.253462886193262, -57.961662892965926 ], [ 129.697852181616582, -56.851197138370189 ], [ 131.060822986014671, -55.722957404860807 ], [ 132.349241664227804, -54.578212095561902 ], [ 133.568723065631389, -53.418702789180095 ], [ 134.721375695051563, -52.24928139291849 ], [ 135.812457796902464, -51.071546691606351 ], [ 136.847322241955908, -49.886332416838862 ], [ 137.830790742802662, -48.694358282178982 ], [ 138.767211108236921, -47.496245059550319 ], [ 139.660508853245318, -46.292527481445873 ], [ 140.514233428968993, -45.08366529014274 ], [ 141.331599450666829, -43.870052709578381 ], [ 142.115523353765354, -42.652026575063637 ], [ 142.868655921053005, -41.429873320669877 ], [ 143.593411113173801, -40.203834993662397 ], [ 144.291991609935252, -38.974114439315031 ], [ 144.966411438206592, -37.740879777321979 ], [ 145.618516027612088, -36.504268272309659 ], [ 146.250000000456879, -35.264389685039362 ], [ 147.873910164887064, -35.072398675269376 ], [ 149.489992706426193, -34.858837934581018 ], [ 151.097730505443678, -34.62394636140025 ], [ 152.696645081353608, -34.367974899932236 ], [ 154.286298349563566, -34.091185335895645 ], [ 155.866294034181436, -33.793849061303924 ], [ 157.43627874469658, -33.476245820620612 ], [ 158.995942729385547, -33.138662449994193 ], [ 160.545020322287826, -32.781391620542031 ], [ 162.083290104066691, -32.40473059578968 ], [ 163.610574799890628, -32.008980012411328 ], [ 165.126740939641394, -31.594442692388498 ], [ 166.631698307294755, -31.161422493635776 ], [ 168.125399207266582, -30.710223205059989 ], [ 169.607837575918381, -30.241147490946535 ], [ 171.078244310217286, -29.754767502288527 ], [ 172.531941393754778, -29.253089375511937 ], [ 173.968411748272132, -28.736875276053905 ], [ 175.387977842267048, -28.206610941983261 ], [ 176.790987652706804, -27.662768110870843 ], [ 178.177812308439883, -27.105804391272972 ], [ 179.548843852149417, -26.536163206825741 ], [ 179.995, -26.344658267251678 ], [ 179.995, -89.318427830237013 ], [ 101.250000086737629, -89.318427830237013 ] ] ], [ [ [ -179.095506869237624, -25.954273806813848 ], [ -177.754812178601014, -25.360551337150405 ], [ -176.428629402534852, -24.755396965861884 ], [ -175.116502562655796, -24.139198057398321 ], [ -173.817963923678519, -23.512328390367927 ], [ -172.532535399145758, -22.875148413614244 ], [ -171.259729816943121, -22.228005535901126 ], [ -169.99905204771656, -21.571234444835955 ], [ -168.75, -20.905157450933494 ], [ -167.500947952205536, -21.571234444708146 ], [ -166.240270182902663, -22.228005535644382 ], [ -164.967464600625448, -22.87514841322745 ], [ -163.682036076020097, -23.512328389849984 ], [ -162.383497436972391, -24.139198056748164 ], [ -161.071370597025293, -24.755396965078461 ], [ -159.745187820893676, -25.360551336232707 ], [ -158.404493130194425, -25.954273805760913 ], [ -157.048843851521895, -26.53616320563664 ], [ -155.677812307756085, -27.105804389946837 ], [ -154.290987651970312, -27.662768109406873 ], [ -152.887977841481643, -28.206610940380717 ], [ -151.468411747441877, -28.73687527431213 ], [ -150.03194139288405, -29.253089373630363 ], [ -148.578244309310691, -29.754767500266681 ], [ -147.107837576799369, -30.241147492978314 ], [ -145.625399208065403, -30.710223206969378 ], [ -144.131698308013569, -31.161422495420549 ], [ -142.626740940282559, -31.594442694046492 ], [ -141.110574800456874, -32.008980013940445 ], [ -139.583290104560973, -32.404730597187886 ], [ -138.045020322713441, -32.78139162180738 ], [ -136.495942729746019, -33.138662451124837 ], [ -134.936278744995747, -33.476245821614789 ], [ -133.366294034423447, -33.793849062159993 ], [ -131.786298349752798, -34.091185336612071 ], [ -130.196645081494722, -34.367974900507619 ], [ -128.597730505541591, -34.623946361833319 ], [ -126.989992706486049, -34.85883793487065 ], [ -125.373910164914207, -35.072398675414604 ], [ -123.750000000456907, -35.264389685039362 ], [ -123.118516027443377, -36.504268272253178 ], [ -122.46641143786465, -37.740879777207184 ], [ -121.791991609415305, -38.974114439139932 ], [ -121.093411112470875, -40.203834993424877 ], [ -120.368655920161814, -41.429873320367619 ], [ -119.615523352680384, -42.652026574694162 ], [ -118.831599449382225, -43.87005270913901 ], [ -118.014233427478757, -45.083665289630581 ], [ -117.16050885154317, -46.292527480857792 ], [ -116.267211106316381, -47.496245058882948 ], [ -115.330790740657079, -48.694358281428663 ], [ -114.347322239578546, -49.886332416001643 ], [ -113.312457794286502, -51.071546690677948 ], [ -112.22137569219035, -52.249281391894293 ], [ -111.068723062518472, -53.418702788055093 ], [ -109.849241667394779, -54.57821209671868 ], [ -108.560822989026832, -55.722957405974171 ], [ -107.197852184464807, -56.851197139437019 ], [ -105.753462888867944, -57.961662893982776 ], [ -104.220148692517967, -59.052896927544353 ], [ -102.58973154727579, -60.123227054635265 ], [ -100.853344545568802, -61.170738711492724 ], [ -99.001437482950223, -62.193244331204781 ], [ -97.023816624350331, -63.188250461036482 ], [ -94.909733745268511, -64.152923494859337 ], [ -92.648043668830496, -65.084055530677034 ], [ -90.227453748537187, -65.978032744845621 ], [ -87.636892180120299, -66.830809835446459 ], [ -84.866023116815597, -67.637895522655185 ], [ -81.905932898727826, -68.394355717304137 ], [ -78.750000000017508, -69.094842552902293 ], [ -78.749999999933266, -70.436124239652003 ], [ -78.749999999657462, -71.777589731950258 ], [ -78.749999999341412, -73.119423062380733 ], [ -78.749999998974602, -74.461808717833762 ], [ -78.749999998542478, -75.804931868772826 ], [ -78.749999998024407, -77.14897860074808 ], [ -78.749999997389978, -78.494136149075047 ], [ -78.749999996592692, -79.840593137510126 ], [ -78.749999995557346, -81.188539821781276 ], [ -78.749999994153995, -82.538168338866683 ], [ -78.749999992137418, -83.889672962953284 ], [ -78.74999998898187, -85.243250369054948 ], [ -78.749999983320606, -86.59909990532401 ], [ -78.749999970142198, -87.957423875153268 ], [ -78.749999904343781, -89.318427830237013 ], [ -179.995, -89.318427830237013 ], [ -179.995, -26.340365937301804 ], [ -179.095506869237624, -25.954273806813848 ] ] ] ] } },
{ "type": "Feature", "properties": { "global_id": "2" }, "geometry": { "type": "MultiPolygon", "coordinates": [ [ [ [ -78.75000009565656, 89.318427830237013 ], [ -78.750000029857915, 87.957423875153268 ], [ -78.750000016679451, 86.59909990532401 ], [ -78.750000011018187, 85.243250369054948 ], [ -78.750000007862582, 83.889672962953284 ], [ -78.750000005846005, 82.538168338866669 ], [ -78.750000004442711, 81.188539821781262 ], [ -78.750000003407308, 79.840593137510112 ], [ -78.750000002610022, 78.494136149075047 ], [ -78.75000000197565, 77.148978600748066 ], [ -78.750000001457522, 75.804931868772826 ], [ -78.750000001025398, 74.461808717833748 ], [ -78.750000000658588, 73.119423062380719 ], [ -78.750000000342538, 71.777589731950258 ], [ -78.750000000066734, 70.436124239651988 ], [ -78.749999999982492, 69.094842552902293 ], [ -81.905932897615116, 68.394355717290026 ], [ -84.866023115473013, 67.637895522521248 ], [ -87.636892178534822, 66.830809835200512 ], [ -90.22745374670211, 65.978032744495351 ], [ -92.648043666744229, 65.084055530229875 ], [ -94.909733742933213, 64.15292349432238 ], [ -97.023816621770948, 63.188250460416405 ], [ -99.001437480133632, 62.193244330507824 ], [ -100.853344542523189, 61.170738710724692 ], [ -102.589731544010078, 60.123227053801514 ], [ -104.220148689041423, 59.052896926649851 ], [ -105.75346288518989, 57.961662893032077 ], [ -107.197852180594509, 56.851197138434323 ], [ -108.560822984973299, 55.722957404923356 ], [ -109.849241663166652, 54.578212095623307 ], [ -111.068723069404513, 53.418702784464564 ], [ -112.221375698542431, 52.249281388153427 ], [ -113.312457800133217, 51.071546686795841 ], [ -114.347322244946554, 49.886332411986515 ], [ -115.330790745571335, 48.694358277287961 ], [ -116.267211110799991, 47.496245054623415 ], [ -117.160508855617593, 46.292527476485539 ], [ -118.014233431163916, 45.083665285151142 ], [ -118.831599452696622, 43.870052704557416 ], [ -119.61552335564113, 42.652026570014989 ], [ -120.368655922784825, 41.429873315595025 ], [ -121.093411114770902, 40.203834988562647 ], [ -121.791991611406047, 38.974114434191527 ], [ -122.46641143955884, 37.740879772175724 ], [ -123.118516028852781, 36.504268267141533 ], [ -123.75000000150618, 35.264389680172599 ], [ -125.373910165808525, 35.072398670238677 ], [ -126.989992707238457, 34.858837929501981 ], [ -128.59773050614686, 34.623946356275944 ], [ -130.196645081948134, 34.367974894765723 ], [ -131.786298350050231, 34.09118533068996 ], [ -133.366294034561264, 33.793849056062108 ], [ -134.936278744970849, 33.476245815345656 ], [ -136.49594272955585, 33.138662444689061 ], [ -138.045020322355953, 32.781391615209643 ], [ -139.58329010403466, 32.404730590432919 ], [ -141.110574799760684, 32.008980007033017 ], [ -142.626740939415924, 31.594442686991414 ], [ -144.131698306976375, 31.161422488222637 ], [ -145.625399206857992, 30.710223199633454 ], [ -147.107837575422479, 30.241147485509199 ], [ -148.578244310775517, 29.754767499630464 ], [ -150.031941394263754, 29.253089372829958 ], [ -151.468411748733388, 28.736875273349984 ], [ -152.887977842682176, 28.206610939259335 ], [ -154.290987653077423, 27.66276810812878 ], [ -155.677812308767699, 27.105804388514599 ], [ -157.048843852436221, 26.536163204052833 ], [ -158.4044931310099, 25.954273804028134 ], [ -159.745187821609051, 25.360551334353548 ], [ -161.071370597639628, 24.755396963055521 ], [ -162.38349743748492, 24.139198054584032 ], [ -163.682036076430308, 23.512328387547242 ], [ -164.967464600933056, 22.875148410788658 ], [ -166.240270183107555, 22.228005533072086 ], [ -167.500947952307854, 21.571234442004872 ], [ -168.75, 20.90515744810174 ], [ -169.99905204777005, 21.571234441877063 ], [ -171.259729817046662, 22.228005532815342 ], [ -172.532535399295739, 22.875148410401863 ], [ -173.817963923871076, 23.512328387029299 ], [ -175.116502562886865, 24.139198053933871 ], [ -176.428629402800226, 24.755396962272098 ], [ -177.754812178896259, 25.360551333435854 ], [ -179.095506869558051, 25.954273802975194 ], [ -179.995, 26.340365933237987 ], [ -179.995, 89.318427830237013 ], [ -78.75000009565656, 89.318427830237013 ] ] ], [ [ [ 179.548843851808698, 26.536163202863733 ], [ 178.177812308083929, 27.105804387188464 ], [ 176.790987652340931, 27.66276810666481 ], [ 175.38797784189677, 28.206610937656787 ], [ 173.968411747903133, 28.736875271608209 ], [ 172.531941393393026, 29.253089370948384 ], [ 171.078244309868893, 29.754767497608618 ], [ 169.607837576303439, 30.241147487540978 ], [ 168.125399207656812, 30.710223201542842 ], [ 166.63169830769516, 31.161422490007411 ], [ 165.12674094005709, 31.594442688649409 ], [ 163.610574800326901, 32.008980008562133 ], [ 162.083290104528942, 32.404730591831118 ], [ 160.545020322781568, 32.781391616474991 ], [ 158.995942729916322, 33.138662445819705 ], [ 157.436278745270045, 33.476245816339834 ], [ 155.866294034803275, 33.79384905691817 ], [ 154.286298350239463, 34.091185331406393 ], [ 152.696645082089248, 34.367974895341106 ], [ 151.097730506244744, 34.623946356709013 ], [ 149.489992707298285, 34.858837929791619 ], [ 147.873910165835667, 35.072398670383905 ], [ 146.25000000150618, 35.264389680172599 ], [ 145.618516028684041, 36.504268267085052 ], [ 144.96641143921687, 37.740879772060929 ], [ 144.291991610886129, 38.974114434016428 ], [ 143.593411114067976, 40.203834988325127 ], [ 142.868655921893634, 41.429873315292767 ], [ 142.115523354556132, 42.652026569645514 ], [ 141.331599451412046, 43.870052704118045 ], [ 140.514233429673709, 45.083665284638982 ], [ 139.660508853915445, 46.292527475897465 ], [ 138.767211108879451, 47.496245053956045 ], [ 137.83079074342578, 48.694358276537642 ], [ 136.84732224256922, 49.886332411149297 ], [ 135.812457797517283, 51.071546685867446 ], [ 134.721375695681218, 52.24928138712923 ], [ 133.568723066291568, 53.418702783339569 ], [ 132.349241666333597, 54.578212096780085 ], [ 131.06082298798546, 55.72295740603672 ], [ 129.697852183442706, 56.851197139501153 ], [ 128.253462887864572, 57.961662894048935 ], [ 126.720148691532586, 59.052896927612949 ], [ 125.089731546307561, 60.123227054706696 ], [ 123.353344544616647, 61.170738711567388 ], [ 121.501437482012918, 62.193244331283026 ], [ 119.52381662342637, 63.188250461118635 ], [ 117.40973374435606, 64.152923494945682 ], [ 115.148043667927396, 65.084055530767813 ], [ 112.727453747640908, 65.978032744940975 ], [ 110.136892179227814, 66.830809835546489 ], [ 107.366023115923468, 67.637895522759862 ], [ 104.405932897832074, 68.394355717413319 ], [ 101.249999999982492, 69.094842552902293 ], [ 101.249999999627974, 70.436124239652003 ], [ 101.249999999403087, 71.777589731950258 ], [ 101.249999999141579, 73.119423062380733 ], [ 101.249999998833914, 74.461808717833748 ], [ 101.249999998466933, 75.804931868772826 ], [ 101.249999998021892, 77.148978600748066 ], [ 101.249999997471278, 78.494136149075047 ], [ 101.249999996772843, 79.840593137510112 ], [ 101.249999995858403, 81.188539821781276 ], [ 101.249999994610135, 82.538168338866669 ], [ 101.249999992805513, 83.889672962953284 ], [ 101.249999989967662, 85.243250369054948 ], [ 101.249999984856743, 86.59909990532401 ], [ 101.249999972926688, 87.957423875153268 ], [ 101.249999913262698, 89.318427830237013 ], [ 179.995, 89.318427830237013 ], [ 179.995, 26.344658263186886 ], [ 179.548843851808698, 26.536163202863733 ] ] ] ] } },
{ "type": "Feature", "properties": { "global_id": "3" }, "geometry": { "type": "MultiPolygon", "coordinates": [ [ [ [ -34.743046473782137, 34.19993976834175 ], [ -35.711369624645727, 33.127541115711061 ], [ -36.656499289901426, 32.047536823128247 ], [ -37.57988828985814, 30.960235802034727 ], [ -38.482917196336082, 29.865915434884343 ], [ -39.366899033424914, 28.764824002327497 ], [ -40.233083873871308, 27.657182899870339 ], [ -41.082663306566211, 26.543188660906068 ], [ -41.91677475973043, 25.423014802115659 ], [ -42.736505671624499, 24.296813506268808 ], [ -43.542897506301969, 23.164717156465827 ], [ -44.33694961638944, 22.026839734879399 ], [ -45.119622958365248, 20.883278098104078 ], [ -45.891843668532097, 19.734113140317088 ], [ -46.654506510008758, 18.579410854606838 ], [ -47.408067002492352, 17.419860969872921 ], [ -48.150944183432252, 16.259343076581651 ], [ -48.883648032210154, 15.09855932782177 ], [ -49.607063441251412, 13.937565644766476 ], [ -50.322037707918803, 12.776408914382476 ], [ -51.029384393438491, 11.61512801820874 ], [ -51.729886932269601, 10.45375477197743 ], [ -52.424302020103418, 9.292314787465235 ], [ -53.113362806692301, 8.130828266810148 ], [ -53.797781917923132, 6.969310738537538 ], [ -54.478254329964393, 5.807773743692332 ], [ -55.155460116925887, 4.64622547975574 ], [ -55.830067092271015, 3.484671409422375 ], [ -56.502733363207142, 2.323114840815896 ], [ -57.174109816444854, 1.161557485319491 ], [ -57.844842552947426, -0.000000000927932 ], [ -59.186124239697129, -0.000000001090157 ], [ -60.527589731995384, -0.000000001195618 ], [ -61.869423062425859, -0.000000001301059 ], [ -63.211808717878888, -0.000000001406436 ], [ -64.55493186881796, -0.000000001511706 ], [ -65.898978600793214, -0.000000001616824 ], [ -67.24413614912018, -0.000000001721745 ], [ -68.59059313755526, -0.000000001826427 ], [ -69.93853982182641, -0.000000001930823 ], [ -71.288168338911817, -0.000000002034888 ], [ -72.639672962998418, -0.000000002138578 ], [ -73.993250369100082, -0.000000002241845 ], [ -75.349099905369144, -0.000000002344645 ], [ -76.707423875198401, -0.000000002446929 ], [ -78.068427830282147, -0.000000002548651 ], [ -79.431572169717853, 0.000000002548647 ], [ -80.792576124801599, 0.000000002446925 ], [ -82.15090009463087, 0.000000002344641 ], [ -83.506749630899918, 0.000000002241841 ], [ -84.860327037001582, 0.000000002138573 ], [ -86.211831661088198, 0.000000002034884 ], [ -87.561460178173604, 0.000000001930818 ], [ -88.909406862444754, 0.000000001826422 ], [ -90.25586385087982, 0.000000001721741 ], [ -91.6010213992068, 0.000000001616819 ], [ -92.945068131182055, 0.000000001511701 ], [ -94.288191282121119, 0.000000001406432 ], [ -95.630576937574148, 0.000000001301055 ], [ -96.972410268004623, 0.000000001195614 ], [ -98.313875760302878, 0.000000001090152 ], [ -99.655157447052574, 0.000000000927928 ], [ -100.325890183851484, 1.161557487380082 ], [ -100.997266637272915, 2.323114842771478 ], [ -101.669932908393605, 3.48467141127311 ], [ -102.344539883924227, 4.646225481501703 ], [ -103.021745671072239, 5.807773745333507 ], [ -103.702218083301119, 6.969310740073819 ], [ -104.386637194720791, 8.13082826824134 ], [ -105.0756979814998, 9.292314788791046 ], [ -105.770113069525138, 10.45375477319747 ], [ -106.470615608549267, 11.615128019322528 ], [ -107.17796229426358, 12.776408915389425 ], [ -107.892936561127286, 13.937565645665895 ], [ -108.616351970366665, 15.098559328612861 ], [ -109.349055819344599, 16.259343077263502 ], [ -110.091933000486549, 17.41986097044451 ], [ -110.845493488654256, 18.579410851048042 ], [ -111.608156330287429, 19.73411313666303 ], [ -112.380377040609901, 20.883278094353443 ], [ -113.163050382740394, 22.026839731030798 ], [ -113.957102492981548, 23.164717152517802 ], [ -114.7634943278116, 24.296813502219823 ], [ -115.583225239857029, 25.423014797964111 ], [ -116.417336693171251, 26.54318865665028 ], [ -117.266916126014621, 27.657182895508555 ], [ -118.133100966607742, 28.764823997857892 ], [ -119.017082803841348, 29.86591543030503 ], [ -119.920111710461825, 30.960235797343739 ], [ -120.843500710558487, 32.04753681832355 ], [ -121.788630375951215, 33.127541110790574 ], [ -122.756953526948465, 34.199939763303313 ], [ -123.750000001506194, 35.264389680172599 ], [ -123.118516028852781, 36.504268267141533 ], [ -122.466411439558826, 37.740879772175731 ], [ -121.791991611406061, 38.974114434191527 ], [ -121.093411114770916, 40.203834988562647 ], [ -120.368655922784825, 41.429873315595025 ], [ -119.615523355641116, 42.652026570014989 ], [ -118.831599452696622, 43.870052704557416 ], [ -118.01423343116393, 45.083665285151142 ], [ -117.160508855617593, 46.292527476485539 ], [ -116.267211110799991, 47.496245054623415 ], [ -115.330790745571349, 48.694358277287968 ], [ -114.347322244946568, 49.886332411986515 ], [ -113.312457800133217, 51.071546686795841 ], [ -112.221375698542417, 52.249281388153427 ], [ -111.068723069404513, 53.418702784464564 ], [ -109.849241663166637, 54.578212095623314 ], [ -108.560822984973314, 55.722957404923356 ], [ -107.197852180594523, 56.851197138434323 ], [ -105.75346288518989, 57.961662893032077 ], [ -104.220148689041409, 59.052896926649851 ], [ -102.589731544010093, 60.123227053801521 ], [ -100.853344542523203, 61.170738710724699 ], [ -99.001437480133674, 62.193244330507831 ], [ -97.023816621770976, 63.188250460416413 ], [ -94.909733742933227, 64.15292349432238 ], [ -92.648043666744229, 65.084055530229875 ], [ -90.227453746702125, 65.978032744495351 ], [ -87.636892178534808, 66.830809835200512 ], [ -84.866023115473041, 67.637895522521248 ], [ -81.905932897615116, 68.394355717290026 ], [ -78.749999999982492, 69.094842552902293 ], [ -75.594067101272188, 68.394355717304137 ], [ -72.633976883184417, 67.637895522655185 ], [ -69.86310781987973, 66.830809835446459 ], [ -67.272546251462842, 65.978032744845621 ], [ -64.851956331169546, 65.084055530677034 ], [ -62.59026625473151, 64.152923494859337 ], [ -60.476183375649676, 63.188250461036482 ], [ -58.498562517049791, 62.193244331204781 ], [ -56.646655454431219, 61.170738711492724 ], [ -54.91026845272421, 60.123227054635258 ], [ -53.279851307482041, 59.052896927544353 ], [ -51.746537111132071, 57.961662893982776 ], [ -50.302147815535214, 56.851197139437019 ], [ -48.939177010973175, 55.722957405974171 ], [ -47.650758332605243, 54.57821209671868 ], [ -46.431276937481542, 53.418702788055093 ], [ -45.278624307809643, 52.249281391894293 ], [ -44.187542205713484, 51.071546690677948 ], [ -43.152677760421476, 49.886332416001636 ], [ -42.169209259342921, 48.694358281428656 ], [ -41.232788893683626, 47.496245058882941 ], [ -40.339491148456844, 46.292527480857792 ], [ -39.48576657252125, 45.083665289630574 ], [ -38.668400550617768, 43.87005270913901 ], [ -37.88447664731963, 42.652026574694155 ], [ -37.131344079838193, 41.429873320367612 ], [ -36.406588887529125, 40.20383499342487 ], [ -35.708008390584695, 38.974114439139932 ], [ -35.033588562135357, 37.740879777207184 ], [ -34.381483972556644, 36.504268272253171 ], [ -33.749999999543114, 35.264389685039362 ], [ -34.743046473782137, 34.19993976834175 ] ] ] ] } },
{ "type": "Feature", "properties": { "global_id": "4" }, "geometry": { "type": "MultiPolygon", "coordinates": [ [ [ [ 11.250000000077959, 19.563875764509138 ], [ 11.250000000154641, 18.222410272211452 ], [ 11.25000000023017, 16.880576941781932 ], [ 11.250000000304665, 15.538191286330242 ], [ 11.250000000378233, 14.195068135392896 ], [ 11.250000000450983, 12.851021403419756 ], [ 11.250000000523022, 11.505863855095274 ], [ 11.25000000059444, 10.159406866663097 ], [ 11.25000000066534, 8.811460182395233 ], [ 11.250000000735806, 7.461831665313518 ], [ 11.250000000805944, 6.110327041230998 ], [ 11.250000000875831, 4.756749635133838 ], [ 11.250000000945562, 3.400900098869704 ], [ 11.250000001015218, 2.042576129045786 ], [ 11.250000001084903, 0.681572173967816 ], [ 11.249999998915102, -0.681572171136072 ], [ 11.249999998984782, -2.042576126214043 ], [ 11.249999999054442, -3.400900096037961 ], [ 11.249999999124173, -4.756749632302095 ], [ 11.24999999919406, -6.110327038399255 ], [ 11.249999999264194, -7.461831662481775 ], [ 11.249999999334664, -8.811460179563491 ], [ 11.249999999405562, -10.159406863831354 ], [ 11.24999999947698, -11.505863852263531 ], [ 11.249999999549017, -12.851021400588012 ], [ 11.249999999621767, -14.195068132561152 ], [ 11.249999999695337, -15.538191283498499 ], [ 11.24999999976983, -16.880576938950188 ], [ 11.249999999845359, -18.222410269379708 ], [ 11.249999999922041, -19.563875761677394 ], [ 11.25, -20.905157448101747 ], [ 10.00094795230785, -21.571234442004879 ], [ 8.740270183107556, -22.228005533072096 ], [ 7.467464600933044, -22.875148410788665 ], [ 6.1820360764303, -23.51232838754725 ], [ 4.883497437484928, -24.139198054584039 ], [ 3.571370597639634, -24.755396963055528 ], [ 2.245187821609057, -25.360551334353559 ], [ 0.904493131009892, -25.954273804028141 ], [ -0.451156147563792, -26.536163204052844 ], [ -1.822187691232294, -27.105804388514606 ], [ -3.209012346922571, -27.662768108128788 ], [ -4.61202215731783, -28.206610939259342 ], [ -6.031588251266613, -28.736875273349991 ], [ -7.468058605736243, -29.253089372829965 ], [ -8.92175568922449, -29.754767499630471 ], [ -10.392162424577522, -30.241147485509202 ], [ -11.874600793142028, -30.710223199633457 ], [ -13.368301693023641, -31.161422488222641 ], [ -14.873259060584088, -31.594442686991421 ], [ -16.389425200239337, -32.008980007033024 ], [ -17.916709895965344, -32.404730590432926 ], [ -19.454979677644047, -32.78139161520965 ], [ -21.00405727044415, -33.138662444689068 ], [ -22.563721255029147, -33.476245815345663 ], [ -24.133705965438754, -33.793849056062115 ], [ -25.713701649949787, -34.091185330689967 ], [ -27.303354918051877, -34.367974894765723 ], [ -28.902269493853161, -34.623946356275951 ], [ -30.510007292761561, -34.858837929501988 ], [ -32.126089834191468, -35.072398670238684 ], [ -33.749999998493813, -35.264389680172599 ], [ -34.743046473051542, -34.19993976330332 ], [ -35.711369624048793, -33.127541110790581 ], [ -36.656499289441513, -32.047536818323557 ], [ -37.579888289538189, -30.960235797343742 ], [ -38.48291719615866, -29.865915430305034 ], [ -39.366899033392258, -28.764823997857896 ], [ -40.233083873985386, -27.657182895508559 ], [ -41.082663306828763, -26.543188656650283 ], [ -41.916774760142978, -25.423014797964118 ], [ -42.7365056721884, -24.29681350221983 ], [ -43.542897507018459, -23.164717152517806 ], [ -44.336949617259606, -22.026839731030805 ], [ -45.119622959390099, -20.883278094353447 ], [ -45.891843669712571, -19.734113136663034 ], [ -46.654506511345751, -18.579410851048049 ], [ -47.408066999513458, -17.419860970444514 ], [ -48.150944180655401, -16.259343077263505 ], [ -48.883648029633342, -15.098559328612865 ], [ -49.607063438872714, -13.937565645665899 ], [ -50.322037705736427, -12.776408915389428 ], [ -51.029384391450733, -11.615128019322531 ], [ -51.729886930474862, -10.453754773197474 ], [ -52.424302018500207, -9.292314788791048 ], [ -53.113362805279216, -8.130828268241343 ], [ -53.797781916698881, -6.969310740073823 ], [ -54.478254328927768, -5.80777374533351 ], [ -55.15546011607578, -4.646225481501706 ], [ -55.830067091606402, -3.484671411273113 ], [ -56.502733362727092, -2.323114842771481 ], [ -57.174109816148516, -1.161557487380086 ], [ -57.844842552947426, -0.000000000927932 ], [ -57.174109816444854, 1.161557485319492 ], [ -56.502733363207142, 2.323114840815897 ], [ -55.830067092271015, 3.484671409422376 ], [ -55.155460116925887, 4.646225479755742 ], [ -54.478254329964393, 5.807773743692333 ], [ -53.797781917923132, 6.969310738537539 ], [ -53.113362806692301, 8.130828266810148 ], [ -52.424302020103418, 9.292314787465235 ], [ -51.729886932269601, 10.45375477197743 ], [ -51.029384393438491, 11.61512801820874 ], [ -50.322037707918803, 12.776408914382477 ], [ -49.607063441251412, 13.937565644766476 ], [ -48.883648032210154, 15.098559327821771 ], [ -48.150944183432252, 16.259343076581651 ], [ -47.408067002492352, 17.419860969872921 ], [ -46.654506510008765, 18.579410854606841 ], [ -45.891843668532097, 19.734113140317092 ], [ -45.119622958365248, 20.883278098104082 ], [ -44.336949616389447, 22.026839734879402 ], [ -43.542897506301976, 23.16471715646583 ], [ -42.736505671624499, 24.296813506268808 ], [ -41.91677475973043, 25.423014802115663 ], [ -41.082663306566211, 26.543188660906072 ], [ -40.233083873871308, 27.657182899870339 ], [ -39.366899033424914, 28.764824002327497 ], [ -38.482917196336082, 29.865915434884343 ], [ -37.57988828985814, 30.960235802034727 ], [ -36.656499289901419, 32.047536823128247 ], [ -35.711369624645727, 33.127541115711061 ], [ -34.743046473782137, 34.199939768341757 ], [ -33.749999999543114, 35.264389685039362 ], [ -32.126089835085793, 35.072398675414597 ], [ -30.510007293513954, 34.85883793487065 ], [ -28.902269494458409, 34.623946361833319 ], [ -27.303354918505292, 34.367974900507619 ], [ -25.713701650247209, 34.091185336612071 ], [ -24.13370596557656, 33.793849062159985 ], [ -22.563721255004246, 33.476245821614789 ], [ -21.004057270253984, 33.138662451124837 ], [ -19.45497967728657, 32.78139162180738 ], [ -17.916709895439023, 32.404730597187886 ], [ -16.389425199543133, 32.008980013940437 ], [ -14.873259059717435, 31.594442694046489 ], [ -13.368301691986437, 31.161422495420545 ], [ -11.874600791934611, 30.710223206969374 ], [ -10.392162423200649, 30.241147492978314 ], [ -8.921755690689322, 29.754767500266677 ], [ -7.468058607115958, 29.25308937363036 ], [ -6.031588252558112, 28.736875274312126 ], [ -4.612022158518357, 28.206610940380713 ], [ -3.209012348029698, 27.662768109406869 ], [ -1.822187692243914, 27.105804389946833 ], [ -0.451156148478097, 26.536163205636637 ], [ 0.90449313019442, 25.954273805760909 ], [ 2.245187820893664, 25.360551336232703 ], [ 3.571370597025305, 24.755396965078457 ], [ 4.883497436972404, 24.13919805674816 ], [ 6.182036076020093, 23.51232838984998 ], [ 7.467464600625444, 22.875148413227446 ], [ 8.740270182902652, 22.228005535644378 ], [ 10.000947952205539, 21.571234444708143 ], [ 11.25, 20.905157450933491 ], [ 11.250000000077959, 19.563875764509138 ] ] ] ] } },
{ "type": "Feature", "properties": { "global_id": "5" }, "geometry": { "type": "MultiPolygon", "coordinates": [ [ [ [ 57.243046473923634, 34.199939768430568 ], [ 58.21136962492713, 33.127541115886459 ], [ 59.156499290321072, 32.047536823388093 ], [ 60.079888290414317, 30.960235802377024 ], [ 60.982917197027042, 29.865915435307183 ], [ 61.866899034248888, 28.764824002829076 ], [ 62.733083874826534, 27.657182900448962 ], [ 63.58266330765094, 26.54318866156013 ], [ 64.416774760942914, 25.423014802843642 ], [ 65.236505672963034, 24.296813507069285 ], [ 66.042897507764906, 23.164717157337467 ], [ 66.836949617975122, 22.026839735820939 ], [ 67.619622960072093, 20.883278099114342 ], [ 68.391843670358554, 19.734113141394968 ], [ 69.154506511953358, 18.579410855751313 ], [ 69.908067000555647, 17.419860968735957 ], [ 70.650944181627878, 16.259343075524807 ], [ 71.383648030537501, 15.098559326844128 ], [ 72.107063439709876, 13.937565643867188 ], [ 72.822037706507814, 12.776408913560768 ], [ 73.529384392157525, 11.615128017463912 ], [ 74.229886931118173, 10.453754771308848 ], [ 74.924302019081082, 9.292314786872337 ], [ 75.613362805798644, 8.130828266292434 ], [ 76.29778191715782, 6.969310738094578 ], [ 76.9782543293271, 5.807773743323757 ], [ 77.655460116416364, 4.646225479461245 ], [ 78.330067091889049, 3.484671409201715 ], [ 79.002733362952583, 2.32311484066889 ], [ 79.67410981631761, 1.161557485246019 ], [ 80.344842552947426, -0.000000000927932 ], [ 79.674109816275774, -1.161557487453559 ], [ 79.002733362981644, -2.323114842918488 ], [ 78.330067091988354, -3.484671411493775 ], [ 77.655460116585303, -4.646225481796204 ], [ 76.978254329565061, -5.807773745702087 ], [ 76.297781917464192, -6.969310740516784 ], [ 75.613362806172873, -8.130828268759057 ], [ 74.924302019522543, -9.29231478938395 ], [ 74.229886931626297, -10.453754773866057 ], [ 73.5293843927317, -11.615128020067361 ], [ 72.822037707147416, -12.776408916211137 ], [ 72.107063440414265, -13.937565646565188 ], [ 71.383648031305995, -15.098559329590508 ], [ 70.650944182459781, -16.259343078320352 ], [ 69.908067001450164, -17.419860971581485 ], [ 69.154506509401159, -18.579410849903578 ], [ 68.391843667886107, -19.734113135585154 ], [ 67.619622957683262, -20.88327809334319 ], [ 66.83694961567393, -22.026839730089268 ], [ 66.04289750555553, -23.164717151646169 ], [ 65.236505670849851, -24.296813501419351 ], [ 64.416774758930487, -25.423014797236139 ], [ 63.582663305744035, -26.543188655996225 ], [ 62.733083873030161, -27.657182894929935 ], [ 61.866899032568284, -28.764823997356316 ], [ 60.982917195467699, -29.865915429882193 ], [ 60.079888288982012, -30.960235797001445 ], [ 59.156499289021866, -32.047536818063705 ], [ 58.211369623767389, -33.127541110615184 ], [ 57.243046472910045, -34.199939763214502 ], [ 56.249999998493813, -35.264389680172599 ], [ 54.626089834164326, -35.072398670383905 ], [ 53.010007292701715, -34.858837929791619 ], [ 51.402269493755249, -34.62394635670902 ], [ 49.803354917910752, -34.367974895341106 ], [ 48.213701649760552, -34.091185331406393 ], [ 46.633705965196739, -33.793849056918177 ], [ 45.063721254729963, -33.476245816339841 ], [ 43.504057270083678, -33.138662445819705 ], [ 41.954979677218439, -32.781391616474998 ], [ 40.416709895471051, -32.404730591831125 ], [ 38.889425199673092, -32.008980008562133 ], [ 37.37325905994291, -31.594442688649412 ], [ 35.86830169230484, -31.161422490007414 ], [ 34.374600792343202, -30.710223201542846 ], [ 32.892162423696554, -30.241147487540982 ], [ 31.421755690131107, -29.754767497608626 ], [ 29.968058606606977, -29.253089370948388 ], [ 28.531588252096853, -28.736875271608216 ], [ 27.11202215810324, -28.206610937656794 ], [ 25.709012347659073, -27.662768106664814 ], [ 24.322187691916081, -27.105804387188471 ], [ 22.951156148191309, -26.53616320286374 ], [ 21.595506869558054, -25.954273802975202 ], [ 20.254812178896255, -25.360551333435861 ], [ 18.928629402800222, -24.755396962272105 ], [ 17.616502562886875, -24.139198053933878 ], [ 16.317963923871076, -23.512328387029306 ], [ 15.032535399295741, -22.87514841040187 ], [ 13.759729817046674, -22.228005532815349 ], [ 12.499052047770055, -21.571234441877071 ], [ 11.25, -20.905157448101747 ], [ 11.249999999922041, -19.563875761677391 ], [ 11.249999999845359, -18.222410269379708 ], [ 11.24999999976983, -16.880576938950188 ], [ 11.249999999695337, -15.538191283498499 ], [ 11.249999999621767, -14.195068132561152 ], [ 11.249999999549017, -12.85102140058801 ], [ 11.24999999947698, -11.505863852263531 ], [ 11.249999999405562, -10.159406863831354 ], [ 11.249999999334664, -8.81146017956349 ], [ 11.249999999264194, -7.461831662481774 ], [ 11.24999999919406, -6.110327038399253 ], [ 11.249999999124173, -4.756749632302093 ], [ 11.249999999054442, -3.400900096037959 ], [ 11.249999998984782, -2.042576126214041 ], [ 11.249999998915102, -0.681572171136071 ], [ 11.250000001084898, 0.681572173967817 ], [ 11.250000001015218, 2.042576129045787 ], [ 11.250000000945558, 3.400900098869705 ], [ 11.250000000875827, 4.756749635133839 ], [ 11.25000000080594, 6.110327041230999 ], [ 11.250000000735806, 7.461831665313519 ], [ 11.250000000665336, 8.811460182395235 ], [ 11.250000000594438, 10.159406866663099 ], [ 11.25000000052302, 11.505863855095276 ], [ 11.250000000450983, 12.851021403419756 ], [ 11.250000000378233, 14.195068135392898 ], [ 11.250000000304663, 15.538191286330244 ], [ 11.25000000023017, 16.880576941781932 ], [ 11.250000000154641, 18.222410272211455 ], [ 11.250000000077959, 19.563875764509138 ], [ 11.25, 20.905157450933491 ], [ 12.499052047716553, 21.571234444835952 ], [ 13.759729816943118, 22.228005535901122 ], [ 15.032535399145772, 22.875148413614241 ], [ 16.31796392367853, 23.512328390367923 ], [ 17.616502562655793, 24.139198057398321 ], [ 18.928629402534838, 24.75539696586188 ], [ 20.254812178601025, 25.360551337150401 ], [ 21.595506869237635, 25.954273806813848 ], [ 22.951156147850579, 26.536163206825741 ], [ 24.322187691560128, 27.105804391272969 ], [ 25.709012347293193, 27.662768110870839 ], [ 27.112022157732948, 28.206610941983261 ], [ 28.531588251727872, 28.736875276053901 ], [ 29.968058606245226, 29.253089375511937 ], [ 31.421755689782707, 29.754767502288527 ], [ 32.892162424081619, 30.241147490946535 ], [ 34.374600792733439, 30.710223205059986 ], [ 35.868301692705238, 31.161422493635772 ], [ 37.373259060358613, 31.594442692388498 ], [ 38.889425200109379, 32.008980012411328 ], [ 40.416709895933316, 32.40473059578968 ], [ 41.954979677712174, 32.781391620542031 ], [ 43.50405727061446, 33.138662449994193 ], [ 45.063721255303427, 33.476245820620612 ], [ 46.633705965818571, 33.793849061303924 ], [ 48.213701650436448, 34.091185335895638 ], [ 49.803354918646413, 34.367974899932236 ], [ 51.402269494556322, 34.623946361400243 ], [ 53.0100072935738, 34.858837934581011 ], [ 54.626089835112936, 35.072398675269369 ], [ 56.249999999543114, 35.264389685039362 ], [ 57.243046473923634, 34.199939768430568 ] ] ] ] } },
{ "type": "Feature", "properties": { "global_id": "6" }, "geometry": { "type": "MultiPolygon", "coordinates": [ [ [ [ 104.405932897832074, 68.394355717413319 ], [ 107.366023115923468, 67.637895522759862 ], [ 110.136892179227814, 66.830809835546489 ], [ 112.727453747640908, 65.978032744940975 ], [ 115.148043667927396, 65.084055530767813 ], [ 117.40973374435606, 64.152923494945682 ], [ 119.52381662342637, 63.188250461118642 ], [ 121.501437482012918, 62.193244331283026 ], [ 123.353344544616661, 61.170738711567388 ], [ 125.089731546307561, 60.123227054706696 ], [ 126.7201486915326, 59.052896927612949 ], [ 128.253462887864572, 57.961662894048935 ], [ 129.697852183442734, 56.851197139501153 ], [ 131.06082298798546, 55.72295740603672 ], [ 132.349241666333597, 54.578212096780092 ], [ 133.568723066291568, 53.418702783339569 ], [ 134.721375695681218, 52.24928138712923 ], [ 135.812457797517283, 51.071546685867446 ], [ 136.84732224256922, 49.886332411149297 ], [ 137.83079074342578, 48.694358276537642 ], [ 138.767211108879451, 47.496245053956045 ], [ 139.660508853915445, 46.292527475897465 ], [ 140.514233429673709, 45.083665284638975 ], [ 141.331599451412046, 43.870052704118045 ], [ 142.115523354556132, 42.652026569645514 ], [ 142.868655921893634, 41.429873315292767 ], [ 143.593411114067976, 40.203834988325127 ], [ 144.291991610886129, 38.974114434016428 ], [ 144.96641143921687, 37.740879772060929 ], [ 145.618516028684041, 36.504268267085052 ], [ 146.25000000150618, 35.264389680172599 ], [ 145.256953527089962, 34.199939763214495 ], [ 144.288630376232618, 33.127541110615176 ], [ 143.343500710978134, 32.047536818063698 ], [ 142.420111711017995, 30.960235797001438 ], [ 141.517082804532293, 29.86591542988219 ], [ 140.633100967431716, 28.764823997356309 ], [ 139.766916126969846, 27.657182894929928 ], [ 138.917336694255965, 26.543188655996218 ], [ 138.083225241069528, 25.423014797236132 ], [ 137.263494329150149, 24.296813501419344 ], [ 136.457102494444484, 23.164717151646165 ], [ 135.663050384326084, 22.026839730089261 ], [ 134.880377042316752, 20.883278093343183 ], [ 134.108156332113907, 19.734113135585147 ], [ 133.345493490598841, 18.579410849903571 ], [ 132.591932998549851, 17.419860971581478 ], [ 131.849055817540233, 16.259343078320345 ], [ 131.116351968694005, 15.098559329590502 ], [ 130.392936559585735, 13.937565646565183 ], [ 129.677962292852584, 12.776408916211132 ], [ 128.970615607268314, 11.615128020067356 ], [ 128.270113068373718, 10.453754773866052 ], [ 127.575697980477457, 9.292314789383944 ], [ 126.886637193827141, 8.130828268759052 ], [ 126.202218082535808, 6.969310740516779 ], [ 125.521745670434953, 5.807773745702081 ], [ 124.844539883414697, 4.646225481796198 ], [ 124.169932908011646, 3.484671411493769 ], [ 123.49726663701837, 2.323114842918483 ], [ 122.825890183724241, 1.161557487453554 ], [ 122.155157447052574, 0.000000000927928 ], [ 120.813875760302878, 0.000000000943237 ], [ 119.472410268004623, 0.000000000901843 ], [ 118.130576937574148, 0.00000000086055 ], [ 116.788191282121119, 0.000000000819375 ], [ 115.445068131182055, 0.000000000778334 ], [ 114.1010213992068, 0.000000000737444 ], [ 112.75586385087982, 0.000000000696721 ], [ 111.409406862444754, 0.000000000656184 ], [ 110.061460178173604, 0.000000000615847 ], [ 108.711831661088198, 0.000000000575729 ], [ 107.360327037001582, 0.000000000535846 ], [ 106.006749630899918, 0.000000000496215 ], [ 104.650900094630856, 0.000000000456852 ], [ 103.292576124801599, 0.000000000417775 ], [ 101.931572169717853, 0.000000000379 ], [ 100.568427830282147, -0.000000000379004 ], [ 99.207423875198401, -0.000000000417779 ], [ 97.849099905369144, -0.000000000456856 ], [ 96.493250369100082, -0.000000000496219 ], [ 95.139672962998418, -0.000000000535851 ], [ 93.788168338911802, -0.000000000575734 ], [ 92.43853982182641, -0.000000000615852 ], [ 91.09059313755526, -0.000000000656188 ], [ 89.74413614912018, -0.000000000696726 ], [ 88.3989786007932, -0.000000000737448 ], [ 87.05493186881796, -0.000000000778338 ], [ 85.711808717878881, -0.00000000081938 ], [ 84.369423062425867, -0.000000000860555 ], [ 83.027589731995391, -0.000000000901848 ], [ 81.686124239697136, -0.000000000943241 ], [ 80.344842552947426, -0.000000000927932 ], [ 79.67410981631761, 1.16155748524602 ], [ 79.002733362952583, 2.323114840668891 ], [ 78.330067091889049, 3.484671409201717 ], [ 77.655460116416364, 4.646225479461246 ], [ 76.9782543293271, 5.807773743323758 ], [ 76.29778191715782, 6.969310738094579 ], [ 75.613362805798644, 8.130828266292436 ], [ 74.924302019081082, 9.292314786872337 ], [ 74.229886931118173, 10.453754771308848 ], [ 73.529384392157525, 11.615128017463912 ], [ 72.822037706507814, 12.77640891356077 ], [ 72.107063439709876, 13.93756564386719 ], [ 71.383648030537501, 15.09855932684413 ], [ 70.650944181627878, 16.259343075524807 ], [ 69.908067000555647, 17.419860968735957 ], [ 69.154506511953358, 18.579410855751309 ], [ 68.391843670358554, 19.734113141394968 ], [ 67.619622960072093, 20.883278099114339 ], [ 66.836949617975122, 22.026839735820936 ], [ 66.042897507764906, 23.164717157337464 ], [ 65.236505672963034, 24.296813507069288 ], [ 64.416774760942914, 25.423014802843642 ], [ 63.582663307650932, 26.54318866156013 ], [ 62.733083874826534, 27.657182900448962 ], [ 61.866899034248888, 28.764824002829076 ], [ 60.982917197027042, 29.865915435307183 ], [ 60.07988829041431, 30.960235802377024 ], [ 59.156499290321072, 32.047536823388093 ], [ 58.21136962492713, 33.127541115886459 ], [ 57.243046473923634, 34.199939768430568 ], [ 56.249999999543114, 35.264389685039362 ], [ 56.881483972387919, 36.504268272309652 ], [ 57.533588561793408, 37.740879777321979 ], [ 58.208008390064762, 38.974114439315024 ], [ 58.906588886826206, 40.203834993662397 ], [ 59.631344078947009, 41.429873320669877 ], [ 60.384476646234646, 42.652026575063637 ], [ 61.168400549333178, 43.870052709578381 ], [ 61.985766571031021, 45.08366529014274 ], [ 62.839491146754703, 46.292527481445873 ], [ 63.732788891763086, 47.496245059550319 ], [ 64.669209257197338, 48.694358282178982 ], [ 65.652677758044106, 49.886332416838862 ], [ 66.68754220309755, 51.071546691606351 ], [ 67.778624304948451, 52.24928139291849 ], [ 68.931276934368611, 53.418702789180088 ], [ 70.15075833577221, 54.578212095561909 ], [ 71.439177013985329, 55.722957404860807 ], [ 72.802147818383418, 56.851197138370189 ], [ 74.246537113806752, 57.961662892965926 ], [ 75.779851309973225, 59.052896926581255 ], [ 77.410268455021679, 60.123227053730083 ], [ 79.14665545652467, 61.170738710650035 ], [ 80.998562518929049, 62.193244330429586 ], [ 82.976183377305077, 63.188250460334253 ], [ 85.090266256154351, 64.152923494236035 ], [ 87.351956332352728, 65.084055530139111 ], [ 89.772546252401625, 65.978032744399997 ], [ 92.36310782057275, 66.830809835100482 ], [ 95.133976883634844, 67.637895522416585 ], [ 98.094067101489159, 68.394355717180844 ], [ 101.249999999982492, 69.094842552902293 ], [ 104.405932897832074, 68.394355717413319 ] ] ] ] } },
{ "type": "Feature", "properties": { "global_id": "7" }, "geometry": { "type": "MultiPolygon", "coordinates": [ [ [ [ -100.325890183555146, -1.161557485319497 ], [ -100.997266636792872, -2.323114840815902 ], [ -101.669932907728992, -3.484671409422381 ], [ -102.34453988307412, -4.646225479755747 ], [ -103.021745670035614, -5.807773743692338 ], [ -103.702218082076868, -6.969310738537543 ], [ -104.386637193307706, -8.130828266810155 ], [ -105.075697979896589, -9.292314787465243 ], [ -105.770113067730406, -10.453754771977437 ], [ -106.470615606561509, -11.615128018208745 ], [ -107.177962292081205, -12.776408914382483 ], [ -107.892936558748588, -13.937565644766483 ], [ -108.616351967789853, -15.098559327821777 ], [ -109.349055816567756, -16.259343076581654 ], [ -110.091932997507655, -17.419860969872929 ], [ -110.845493489991242, -18.579410854606845 ], [ -111.60815633146791, -19.734113140317092 ], [ -112.380377041634759, -20.883278098104086 ], [ -113.163050383610567, -22.026839734879402 ], [ -113.957102493698031, -23.164717156465834 ], [ -114.763494328375515, -24.296813506268812 ], [ -115.58322524026957, -25.423014802115663 ], [ -116.417336693433796, -26.543188660906075 ], [ -117.266916126128692, -27.657182899870342 ], [ -118.133100966575086, -28.764824002327501 ], [ -119.017082803663925, -29.865915434884347 ], [ -119.920111710141867, -30.960235802034731 ], [ -120.843500710098581, -32.047536823128247 ], [ -121.788630375354273, -33.127541115711068 ], [ -122.75695352621787, -34.199939768341757 ], [ -123.750000000456893, -35.264389685039362 ], [ -125.373910164914221, -35.072398675414604 ], [ -126.989992706486049, -34.85883793487065 ], [ -128.597730505541591, -34.623946361833319 ], [ -130.196645081494722, -34.367974900507619 ], [ -131.786298349752798, -34.091185336612071 ], [ -133.366294034423447, -33.793849062159993 ], [ -134.936278744995747, -33.476245821614789 ], [ -136.495942729746019, -33.138662451124837 ], [ -138.045020322713441, -32.78139162180738 ], [ -139.583290104560973, -32.404730597187886 ], [ -141.110574800456874, -32.008980013940445 ], [ -142.626740940282559, -31.594442694046492 ], [ -144.131698308013569, -31.161422495420549 ], [ -145.625399208065403, -30.710223206969378 ], [ -147.107837576799369, -30.241147492978314 ], [ -148.578244309310691, -29.754767500266681 ], [ -150.03194139288405, -29.253089373630363 ], [ -151.468411747441877, -28.73687527431213 ], [ -152.887977841481643, -28.206610940380717 ], [ -154.290987651970312, -27.662768109406873 ], [ -155.677812307756085, -27.105804389946837 ], [ -157.048843851521895, -26.53616320563664 ], [ -158.404493130194425, -25.954273805760913 ], [ -159.745187820893676, -25.360551336232707 ], [ -161.071370597025293, -24.755396965078461 ], [ -162.383497436972391, -24.13919805674816 ], [ -163.682036076020097, -23.512328389849984 ], [ -164.967464600625448, -22.87514841322745 ], [ -166.240270182902663, -22.228005535644382 ], [ -167.500947952205536, -21.571234444708146 ], [ -168.75, -20.905157450933494 ], [ -168.750000000077961, -19.563875764509138 ], [ -168.750000000154643, -18.222410272211455 ], [ -168.750000000230159, -16.880576941781936 ], [ -168.750000000304652, -15.538191286330246 ], [ -168.750000000378236, -14.1950681353929 ], [ -168.750000000450996, -12.851021403419757 ], [ -168.750000000523016, -11.505863855095278 ], [ -168.75000000059444, -10.159406866663101 ], [ -168.750000000665352, -8.811460182395237 ], [ -168.75000000073581, -7.461831665313521 ], [ -168.750000000805954, -6.110327041231001 ], [ -168.750000000875843, -4.756749635133841 ], [ -168.750000000945562, -3.400900098869707 ], [ -168.750000001015223, -2.042576129045789 ], [ -168.750000001084913, -0.681572173967819 ], [ -168.749999998915115, 0.681572171136065 ], [ -168.749999998984777, 2.042576126214036 ], [ -168.749999999054438, 3.400900096037954 ], [ -168.749999999124185, 4.756749632302087 ], [ -168.749999999194046, 6.110327038399248 ], [ -168.74999999926419, 7.461831662481767 ], [ -168.749999999334676, 8.811460179563484 ], [ -168.74999999940556, 10.159406863831347 ], [ -168.749999999476984, 11.505863852263523 ], [ -168.749999999549004, 12.851021400588005 ], [ -168.749999999621764, 14.195068132561145 ], [ -168.749999999695348, 15.538191283498492 ], [ -168.749999999769841, 16.880576938950181 ], [ -168.749999999845357, 18.222410269379701 ], [ -168.749999999922039, 19.563875761677387 ], [ -168.75, 20.90515744810174 ], [ -167.500947952307854, 21.571234442004872 ], [ -166.240270183107555, 22.228005533072089 ], [ -164.967464600933056, 22.875148410788658 ], [ -163.682036076430308, 23.512328387547242 ], [ -162.38349743748492, 24.139198054584032 ], [ -161.071370597639628, 24.755396963055521 ], [ -159.745187821609051, 25.360551334353552 ], [ -158.4044931310099, 25.954273804028134 ], [ -157.048843852436221, 26.536163204052837 ], [ -155.677812308767699, 27.105804388514599 ], [ -154.290987653077423, 27.66276810812878 ], [ -152.887977842682176, 28.206610939259335 ], [ -151.468411748733388, 28.736875273349987 ], [ -150.031941394263754, 29.253089372829958 ], [ -148.578244310775517, 29.754767499630464 ], [ -147.107837575422479, 30.241147485509199 ], [ -145.625399206857963, 30.710223199633454 ], [ -144.131698306976375, 31.161422488222637 ], [ -142.626740939415924, 31.594442686991414 ], [ -141.110574799760656, 32.008980007033017 ], [ -139.58329010403466, 32.404730590432919 ], [ -138.045020322355953, 32.781391615209643 ], [ -136.49594272955585, 33.138662444689061 ], [ -134.936278744970849, 33.476245815345656 ], [ -133.366294034561264, 33.793849056062108 ], [ -131.786298350050231, 34.09118533068996 ], [ -130.196645081948134, 34.367974894765723 ], [ -128.597730506146831, 34.623946356275944 ], [ -126.989992707238443, 34.858837929501981 ], [ -125.373910165808539, 35.072398670238677 ], [ -123.750000001506194, 35.264389680172599 ], [ -122.756953526948465, 34.199939763303313 ], [ -121.788630375951215, 33.127541110790574 ], [ -120.843500710558487, 32.04753681832355 ], [ -119.920111710461825, 30.960235797343735 ], [ -119.017082803841348, 29.865915430305026 ], [ -118.133100966607742, 28.764823997857892 ], [ -117.266916126014621, 27.657182895508551 ], [ -116.417336693171251, 26.543188656650276 ], [ -115.583225239857029, 25.423014797964111 ], [ -114.7634943278116, 24.296813502219823 ], [ -113.957102492981548, 23.164717152517799 ], [ -113.163050382740394, 22.026839731030798 ], [ -112.380377040609901, 20.883278094353443 ], [ -111.608156330287429, 19.734113136663026 ], [ -110.845493488654256, 18.579410851048042 ], [ -110.091933000486549, 17.41986097044451 ], [ -109.349055819344599, 16.259343077263502 ], [ -108.616351970366665, 15.098559328612859 ], [ -107.892936561127286, 13.937565645665893 ], [ -107.17796229426358, 12.776408915389423 ], [ -106.470615608549267, 11.615128019322526 ], [ -105.770113069525138, 10.45375477319747 ], [ -105.0756979814998, 9.292314788791044 ], [ -104.386637194720791, 8.130828268241338 ], [ -103.702218083301119, 6.969310740073818 ], [ -103.021745671072239, 5.807773745333505 ], [ -102.344539883924227, 4.646225481501702 ], [ -101.669932908393605, 3.484671411273109 ], [ -100.997266637272915, 2.323114842771477 ], [ -100.325890183851484, 1.161557487380081 ], [ -99.655157447052574, 0.000000000927928 ], [ -100.325890183555146, -1.161557485319497 ] ] ] ] } },
{ "type": "Feature", "properties": { "global_id": "8" }, "geometry": { "type": "MultiPolygon", "coordinates": [ [ [ [ -34.381483971147226, -36.504268267141541 ], [ -35.033588560441189, -37.740879772175731 ], [ -35.708008388593953, -38.974114434191534 ], [ -36.406588885229098, -40.203834988562654 ], [ -37.131344077215182, -41.429873315595032 ], [ -37.884476644358884, -42.652026570014996 ], [ -38.668400547303378, -43.870052704557423 ], [ -39.485766568836077, -45.083665285151149 ], [ -40.339491144382414, -46.292527476485546 ], [ -41.232788889200016, -47.496245054623422 ], [ -42.169209254428651, -48.694358277287975 ], [ -43.152677755053432, -49.886332411986523 ], [ -44.18754219986679, -51.071546686795848 ], [ -45.27862430145759, -52.249281388153435 ], [ -46.431276930595494, -53.418702784464571 ], [ -47.65075833683337, -54.578212095623314 ], [ -48.939177015026694, -55.722957404923363 ], [ -50.302147819405491, -56.85119713843433 ], [ -51.74653711481011, -57.961662893032084 ], [ -53.279851310958598, -59.052896926649858 ], [ -54.910268455989922, -60.123227053801521 ], [ -56.646655457476804, -61.170738710724699 ], [ -58.49856251986634, -62.193244330507831 ], [ -60.476183378229031, -63.188250460416413 ], [ -62.590266257066787, -64.15292349432238 ], [ -64.851956333255785, -65.08405553022989 ], [ -67.27254625329789, -65.978032744495351 ], [ -69.863107821465206, -66.830809835200512 ], [ -72.633976884526973, -67.637895522521248 ], [ -75.594067102384898, -68.394355717290026 ], [ -78.750000000017522, -69.094842552902293 ], [ -81.905932898727826, -68.394355717304137 ], [ -84.866023116815597, -67.637895522655185 ], [ -87.636892180120284, -66.830809835446459 ], [ -90.227453748537172, -65.978032744845621 ], [ -92.648043668830468, -65.084055530677034 ], [ -94.909733745268497, -64.152923494859337 ], [ -97.023816624350331, -63.188250461036482 ], [ -99.001437482950223, -62.193244331204781 ], [ -100.853344545568788, -61.170738711492724 ], [ -102.589731547275804, -60.123227054635258 ], [ -104.220148692517967, -59.052896927544353 ], [ -105.753462888867929, -57.961662893982776 ], [ -107.197852184464793, -56.851197139437019 ], [ -108.560822989026832, -55.722957405974171 ], [ -109.849241667394764, -54.57821209671868 ], [ -111.068723062518458, -53.418702788055093 ], [ -112.221375692190364, -52.249281391894293 ], [ -113.312457794286516, -51.071546690677948 ], [ -114.347322239578531, -49.886332416001643 ], [ -115.330790740657079, -48.694358281428656 ], [ -116.267211106316381, -47.496245058882948 ], [ -117.160508851543156, -46.292527480857792 ], [ -118.014233427478757, -45.083665289630581 ], [ -118.831599449382239, -43.87005270913901 ], [ -119.61552335268037, -42.652026574694162 ], [ -120.368655920161814, -41.429873320367619 ], [ -121.093411112470875, -40.20383499342487 ], [ -121.791991609415319, -38.974114439139932 ], [ -122.46641143786465, -37.740879777207184 ], [ -123.118516027443363, -36.504268272253178 ], [ -123.750000000456893, -35.264389685039362 ], [ -122.75695352621787, -34.199939768341757 ], [ -121.788630375354273, -33.127541115711068 ], [ -120.843500710098581, -32.047536823128247 ], [ -119.920111710141867, -30.960235802034727 ], [ -119.017082803663925, -29.865915434884347 ], [ -118.133100966575086, -28.764824002327497 ], [ -117.266916126128706, -27.657182899870342 ], [ -116.417336693433796, -26.543188660906072 ], [ -115.583225240269584, -25.423014802115663 ], [ -114.763494328375515, -24.296813506268812 ], [ -113.957102493698031, -23.16471715646583 ], [ -113.163050383610567, -22.026839734879402 ], [ -112.380377041634759, -20.883278098104082 ], [ -111.60815633146791, -19.734113140317092 ], [ -110.845493489991242, -18.579410854606841 ], [ -110.091932997507655, -17.419860969872925 ], [ -109.349055816567756, -16.259343076581654 ], [ -108.616351967789853, -15.098559327821775 ], [ -107.892936558748602, -13.93756564476648 ], [ -107.177962292081205, -12.776408914382481 ], [ -106.470615606561509, -11.615128018208743 ], [ -105.770113067730406, -10.453754771977433 ], [ -105.075697979896589, -9.292314787465239 ], [ -104.386637193307706, -8.130828266810152 ], [ -103.702218082076868, -6.969310738537542 ], [ -103.021745670035614, -5.807773743692336 ], [ -102.34453988307412, -4.646225479755745 ], [ -101.669932907728992, -3.48467140942238 ], [ -100.997266636792872, -2.3231148408159 ], [ -100.325890183555146, -1.161557485319496 ], [ -99.655157447052574, 0.000000000927928 ], [ -98.313875760302878, 0.000000001090152 ], [ -96.972410268004623, 0.000000001195614 ], [ -95.630576937574148, 0.000000001301055 ], [ -94.288191282121119, 0.000000001406432 ], [ -92.945068131182055, 0.000000001511701 ], [ -91.6010213992068, 0.000000001616819 ], [ -90.25586385087982, 0.000000001721741 ], [ -88.909406862444754, 0.000000001826422 ], [ -87.561460178173604, 0.000000001930818 ], [ -86.211831661088198, 0.000000002034884 ], [ -84.860327037001582, 0.000000002138573 ], [ -83.506749630899918, 0.000000002241841 ], [ -82.150900094630856, 0.000000002344641 ], [ -80.792576124801599, 0.000000002446925 ], [ -79.431572169717853, 0.000000002548647 ], [ -78.068427830282147, -0.000000002548651 ], [ -76.707423875198401, -0.000000002446929 ], [ -75.349099905369144, -0.000000002344645 ], [ -73.993250369100082, -0.000000002241845 ], [ -72.639672962998418, -0.000000002138578 ], [ -71.288168338911802, -0.000000002034888 ], [ -69.93853982182641, -0.000000001930823 ], [ -68.59059313755526, -0.000000001826427 ], [ -67.24413614912018, -0.000000001721745 ], [ -65.8989786007932, -0.000000001616824 ], [ -64.55493186881796, -0.000000001511706 ], [ -63.211808717878888, -0.000000001406436 ], [ -61.869423062425859, -0.000000001301059 ], [ -60.527589731995384, -0.000000001195618 ], [ -59.186124239697129, -0.000000001090157 ], [ -57.844842552947426, -0.000000000927932 ], [ -57.174109816148516, -1.161557487380087 ], [ -56.502733362727092, -2.323114842771482 ], [ -55.830067091606402, -3.484671411273115 ], [ -55.15546011607578, -4.646225481501707 ], [ -54.478254328927768, -5.807773745333511 ], [ -53.797781916698881, -6.969310740073824 ], [ -53.113362805279216, -8.130828268241343 ], [ -52.424302018500207, -9.29231478879105 ], [ -51.729886930474862, -10.453754773197476 ], [ -51.029384391450733, -11.615128019322531 ], [ -50.322037705736427, -12.776408915389428 ], [ -49.607063438872714, -13.937565645665899 ], [ -48.883648029633342, -15.098559328612865 ], [ -48.150944180655401, -16.259343077263505 ], [ -47.408066999513458, -17.419860970444518 ], [ -46.654506511345751, -18.579410851048049 ], [ -45.891843669712571, -19.734113136663034 ], [ -45.119622959390099, -20.88327809435345 ], [ -44.336949617259606, -22.026839731030805 ], [ -43.542897507018459, -23.164717152517806 ], [ -42.7365056721884, -24.29681350221983 ], [ -41.916774760142978, -25.423014797964118 ], [ -41.082663306828756, -26.543188656650283 ], [ -40.233083873985386, -27.657182895508559 ], [ -39.366899033392258, -28.764823997857899 ], [ -38.48291719615866, -29.865915430305034 ], [ -37.579888289538189, -30.960235797343742 ], [ -36.656499289441513, -32.047536818323557 ], [ -35.711369624048793, -33.127541110790581 ], [ -34.743046473051535, -34.19993976330332 ], [ -33.749999998493813, -35.264389680172599 ], [ -34.381483971147226, -36.504268267141541 ] ] ] ] } },
{ "type": "Feature", "properties": { "global_id": "9" }, "geometry": { "type": "MultiPolygon", "coordinates": [ [ [ [ 56.881483971315951, -36.50426826708506 ], [ 57.533588560783137, -37.740879772060936 ], [ 58.208008389113878, -38.974114434016435 ], [ 58.906588885932017, -40.203834988325134 ], [ 59.631344078106373, -41.429873315292774 ], [ 60.384476645443875, -42.652026569645521 ], [ 61.168400548587968, -43.870052704118052 ], [ 61.985766570326312, -45.083665284638982 ], [ 62.839491146084562, -46.292527475897465 ], [ 63.732788891120556, -47.496245053956052 ], [ 64.669209256574234, -48.694358276537649 ], [ 65.652677757430808, -49.886332411149297 ], [ 66.687542202482732, -51.071546685867453 ], [ 67.778624304318782, -52.249281387129237 ], [ 68.931276933708432, -53.418702783339576 ], [ 70.150758333666403, -54.578212096780092 ], [ 71.439177012014554, -55.722957406036727 ], [ 72.802147816557294, -56.85119713950116 ], [ 74.246537112135442, -57.961662894048935 ], [ 75.779851308467414, -59.052896927612949 ], [ 77.410268453692453, -60.123227054706703 ], [ 79.146655455383353, -61.170738711567388 ], [ 80.998562517987096, -62.193244331283033 ], [ 82.976183376573644, -63.188250461118642 ], [ 85.09026625564394, -64.152923494945682 ], [ 87.351956332072618, -65.084055530767813 ], [ 89.772546252359106, -65.97803274494099 ], [ 92.3631078207722, -66.830809835546489 ], [ 95.133976884076546, -67.637895522759862 ], [ 98.094067102167941, -68.394355717413319 ], [ 101.250000000017522, -69.094842552902293 ], [ 101.25000000037204, -70.436124239652003 ], [ 101.250000000596927, -71.777589731950258 ], [ 101.250000000858449, -73.119423062380733 ], [ 101.2500000011661, -74.461808717833762 ], [ 101.250000001533095, -75.804931868772826 ], [ 101.250000001978123, -77.14897860074808 ], [ 101.250000002528751, -78.494136149075047 ], [ 101.250000003227171, -79.840593137510126 ], [ 101.250000004141626, -81.188539821781276 ], [ 101.250000005389893, -82.538168338866683 ], [ 101.250000007194529, -83.889672962953284 ], [ 101.250000010032394, -85.243250369054948 ], [ 101.250000015143314, -86.59909990532401 ], [ 101.250000027073426, -87.957423875153268 ], [ 101.250000086737629, -89.318427830237013 ], [ -78.749999904343781, -89.318427830237013 ], [ -78.749999970142184, -87.957423875153268 ], [ -78.749999983320606, -86.59909990532401 ], [ -78.749999988981884, -85.243250369054948 ], [ -78.749999992137433, -83.889672962953284 ], [ -78.749999994154024, -82.538168338866669 ], [ -78.749999995557332, -81.188539821781276 ], [ -78.749999996592692, -79.840593137510126 ], [ -78.749999997389992, -78.494136149075047 ], [ -78.749999998024393, -77.148978600748066 ], [ -78.749999998542492, -75.804931868772826 ], [ -78.749999998974616, -74.461808717833748 ], [ -78.749999999341441, -73.119423062380733 ], [ -78.74999999965749, -71.777589731950258 ], [ -78.749999999933294, -70.436124239652003 ], [ -78.750000000017522, -69.094842552902293 ], [ -75.594067102384898, -68.394355717290026 ], [ -72.633976884526973, -67.637895522521248 ], [ -69.863107821465206, -66.830809835200512 ], [ -67.27254625329789, -65.978032744495351 ], [ -64.851956333255785, -65.084055530229875 ], [ -62.59026625706678, -64.15292349432238 ], [ -60.476183378229031, -63.188250460416413 ], [ -58.49856251986634, -62.193244330507831 ], [ -56.646655457476804, -61.170738710724699 ], [ -54.910268455989922, -60.123227053801521 ], [ -53.279851310958598, -59.052896926649851 ], [ -51.746537114810117, -57.961662893032077 ], [ -50.302147819405491, -56.85119713843433 ], [ -48.939177015026694, -55.722957404923363 ], [ -47.65075833683337, -54.578212095623314 ], [ -46.431276930595502, -53.418702784464571 ], [ -45.27862430145759, -52.249281388153427 ], [ -44.18754219986679, -51.071546686795848 ], [ -43.152677755053432, -49.886332411986523 ], [ -42.169209254428651, -48.694358277287968 ], [ -41.232788889200016, -47.496245054623422 ], [ -40.339491144382414, -46.292527476485546 ], [ -39.485766568836084, -45.083665285151142 ], [ -38.668400547303378, -43.870052704557423 ], [ -37.884476644358884, -42.652026570014996 ], [ -37.131344077215182, -41.429873315595032 ], [ -36.406588885229098, -40.203834988562654 ], [ -35.708008388593946, -38.974114434191527 ], [ -35.033588560441189, -37.740879772175731 ], [ -34.381483971147226, -36.504268267141541 ], [ -33.749999998493813, -35.264389680172599 ], [ -32.126089834191468, -35.072398670238684 ], [ -30.510007292761561, -34.858837929501988 ], [ -28.902269493853158, -34.623946356275951 ], [ -27.303354918051873, -34.367974894765723 ], [ -25.713701649949787, -34.091185330689967 ], [ -24.133705965438754, -33.793849056062108 ], [ -22.563721255029144, -33.476245815345663 ], [ -21.00405727044415, -33.138662444689068 ], [ -19.454979677644044, -32.78139161520965 ], [ -17.91670989596534, -32.404730590432926 ], [ -16.389425200239334, -32.008980007033024 ], [ -14.873259060584086, -31.594442686991421 ], [ -13.368301693023639, -31.161422488222641 ], [ -11.874600793142026, -30.710223199633457 ], [ -10.392162424577521, -30.241147485509202 ], [ -8.921755689224488, -29.754767499630471 ], [ -7.468058605736243, -29.253089372829965 ], [ -6.031588251266612, -28.736875273349991 ], [ -4.612022157317829, -28.206610939259342 ], [ -3.209012346922569, -27.662768108128788 ], [ -1.822187691232293, -27.105804388514606 ], [ -0.451156147563791, -26.536163204052841 ], [ 0.904493131009893, -25.954273804028141 ], [ 2.245187821609058, -25.360551334353556 ], [ 3.571370597639635, -24.755396963055528 ], [ 4.883497437484929, -24.139198054584039 ], [ 6.182036076430302, -23.51232838754725 ], [ 7.467464600933045, -22.875148410788665 ], [ 8.740270183107556, -22.228005533072096 ], [ 10.00094795230785, -21.571234442004879 ], [ 11.25, -20.905157448101747 ], [ 12.499052047770057, -21.571234441877074 ], [ 13.759729817046674, -22.228005532815349 ], [ 15.032535399295741, -22.87514841040187 ], [ 16.317963923871076, -23.512328387029306 ], [ 17.616502562886875, -24.139198053933878 ], [ 18.928629402800222, -24.755396962272105 ], [ 20.254812178896255, -25.360551333435861 ], [ 21.595506869558054, -25.954273802975202 ], [ 22.951156148191313, -26.53616320286374 ], [ 24.322187691916085, -27.105804387188471 ], [ 25.709012347659076, -27.662768106664817 ], [ 27.11202215810324, -28.206610937656794 ], [ 28.531588252096853, -28.736875271608216 ], [ 29.968058606606977, -29.253089370948388 ], [ 31.421755690131107, -29.754767497608626 ], [ 32.892162423696554, -30.241147487540982 ], [ 34.374600792343202, -30.710223201542846 ], [ 35.86830169230484, -31.161422490007414 ], [ 37.37325905994291, -31.594442688649412 ], [ 38.889425199673092, -32.008980008562141 ], [ 40.416709895471051, -32.404730591831125 ], [ 41.954979677218439, -32.781391616474998 ], [ 43.504057270083678, -33.138662445819705 ], [ 45.063721254729963, -33.476245816339841 ], [ 46.633705965196739, -33.793849056918177 ], [ 48.213701649760552, -34.091185331406393 ], [ 49.803354917910752, -34.367974895341113 ], [ 51.402269493755249, -34.62394635670902 ], [ 53.010007292701715, -34.858837929791619 ], [ 54.626089834164326, -35.072398670383905 ], [ 56.249999998493813, -35.264389680172599 ], [ 56.881483971315951, -36.50426826708506 ] ] ] ] } }
]
}
