{
"type": "FeatureCollection",
"name": "qtm_grid_2",
"crs": { "type": "name", "properties": { "name": "urn:ogc:def:crs:OGC:1.3:CRS84" } },
"features": [
{ "type": "Feature", "properties": { "qtm": "10", "resolution": 2, "center_lat": 30.0, "center_lon": -135.0, "avg_edge_len": 6671726.1229877723, "cell_area": 22376467110321.418, "cell_perimeter": 20015178.368963316 }, "geometry": { "type": "Polygon", "coordinates": [ [ [ -135.0, 0.0 ], [ -90.0, 45.0 ], [ -180.0, 45.0 ], [ -135.0, 0.0 ] ] ] } },
{ "type": "Feature", "properties": { "qtm": "11", "resolution": 2, "center_lat": 67.5, "center_lon": -135.0, "avg_edge_len": 5574758.5450708913, "cell_area": 13866200975385.594, "cell_perimeter": 16724275.635212673 }, "geometry": { "type": "Polygon", "coordinates": [ [ [ -180.0, 45.0 ], [ -90.0, 45.0 ], [ -90.0, 90.0 ], [ -180.0, 90.0 ], [ -180.0, 45.0 ] ] ] } },
{ "type": "Feature", "properties": { "qtm": "12", "resolution": 2, "center_lat": 15.0, "center_lon": -165.0, "avg_edge_len": 5552264.7272951184, "cell_area": 13757767314902.021, "cell_perimeter": 16656794.181885354 }, "geometry": { "type": "Polygon", "coordinates": [ [ [ -180.0, 0.0 ], [ -135.0, 0.0 ], [ -180.0, 45.0 ], [ -180.0, 0.0 ] ] ] } },
{ "type": "Feature", "properties": { "qtm": "13", "resolution": 2, "center_lat": 15.0, "center_lon": -105.0, "avg_edge_len": 5552264.7272951184, "cell_area": 13757767314902.021, "cell_perimeter": 16656794.181885354 }, "geometry": { "type": "Polygon", "coordinates": [ [ [ -135.0, 0.0 ], [ -90.0, 0.0 ], [ -90.0, 45.0 ], [ -135.0, 0.0 ] ] ] } },
{ "type": "Feature", "properties": { "qtm": "20", "resolution": 2, "center_lat": 30.0, "center_lon": -45.0, "avg_edge_len": 6671726.1229877723, "cell_area": 22376467110321.418, "cell_perimeter": 20015178.368963316 }, "geometry": { "type": "Polygon", "coordinates": [ [ [ -45.0, 0.0 ], [ 0.0, 45.0 ], [ -90.0, 45.0 ], [ -45.0, 0.0 ] ] ] } },
{ "type": "Feature", "properties": { "qtm": "21", "resolution": 2, "center_lat": 67.5, "center_lon": -45.0, "avg_edge_len": 5574758.5450708913, "cell_area": 13866200975385.594, "cell_perimeter": 16724275.635212673 }, "geometry": { "type": "Polygon", "coordinates": [ [ [ -90.0, 45.0 ], [ 0.0, 45.0 ], [ 0.0, 90.0 ], [ -90.0, 90.0 ], [ -90.0, 45.0 ] ] ] } },
{ "type": "Feature", "properties": { "qtm": "22", "resolution": 2, "center_lat": 15.0, "center_lon": -75.0, "avg_edge_len": 5552264.7272951184, "cell_area": 13757767314902.021, "cell_perimeter": 16656794.181885354 }, "geometry": { "type": "Polygon", "coordinates": [ [ [ -90.0, 0.0 ], [ -45.0, 0.0 ], [ -90.0, 45.0 ], [ -90.0, 0.0 ] ] ] } },
{ "type": "Feature", "properties": { "qtm": "23", "resolution": 2, "center_lat": 15.0, "center_lon": -15.0, "avg_edge_len": 5552264.7272951184, "cell_area": 13757767314902.021, "cell_perimeter": 16656794.181885354 }, "geometry": { "type": "Polygon", "coordinates": [ [ [ -45.0, 0.0 ], [ 0.0, 0.0 ], [ 0.0, 45.0 ], [ -45.0, 0.0 ] ] ] } },
{ "type": "Feature", "properties": { "qtm": "30", "resolution": 2, "center_lat": 30.0, "center_lon": 45.0, "avg_edge_len": 6671726.1229877723, "cell_area": 22376467110321.418, "cell_perimeter": 20015178.368963316 }, "geometry": { "type": "Polygon", "coordinates": [ [ [ 45.0, 0.0 ], [ 90.0, 45.0 ], [ 0.0, 45.0 ], [ 45.0, 0.0 ] ] ] } },
{ "type": "Feature", "properties": { "qtm": "31", "resolution": 2, "center_lat": 67.5, "center_lon": 45.0, "avg_edge_len": 5574758.5450708913, "cell_area": 13866200975385.594, "cell_perimeter": 16724275.635212673 }, "geometry": { "type": "Polygon", "coordinates": [ [ [ 0.0, 45.0 ], [ 90.0, 45.0 ], [ 90.0, 90.0 ], [ 0.0, 90.0 ], [ 0.0, 45.0 ] ] ] } },
{ "type": "Feature", "properties": { "qtm": "32", "resolution": 2, "center_lat": 15.0, "center_lon": 15.0, "avg_edge_len": 5552264.7272951184, "cell_area": 13757767314902.021, "cell_perimeter": 16656794.181885354 }, "geometry": { "type": "Polygon", "coordinates": [ [ [ 0.0, 0.0 ], [ 45.0, 0.0 ], [ 0.0, 45.0 ], [ 0.0, 0.0 ] ] ] } },
{ "type": "Feature", "properties": { "qtm": "33", "resolution": 2, "center_lat": 15.0, "center_lon": 75.0, "avg_edge_len": 5552264.7272951184, "cell_area": 13757767314902.021, "cell_perimeter": 16656794.181885354 }, "geometry": { "type": "Polygon", "coordinates": [ [ [ 45.0, 0.0 ], [ 90.0, 0.0 ], [ 90.0, 45.0 ], [ 45.0, 0.0 ] ] ] } },
{ "type": "Feature", "properties": { "qtm": "40", "resolution": 2, "center_lat": 30.0, "center_lon": 135.0, "avg_edge_len": 6671726.1229877723, "cell_area": 22376467110321.418, "cell_perimeter": 20015178.368963316 }, "geometry": { "type": "Polygon", "coordinates": [ [ [ 135.0, 0.0 ], [ 180.0, 45.0 ], [ 90.0, 45.0 ], [ 135.0, 0.0 ] ] ] } },
{ "type": "Feature", "properties": { "qtm": "41", "resolution": 2, "center_lat": 67.5, "center_lon": 135.0, "avg_edge_len": 5574758.5450708913, "cell_area": 13866200975385.594, "cell_perimeter": 16724275.635212673 }, "geometry": { "type": "Polygon", "coordinates": [ [ [ 90.0, 45.0 ], [ 180.0, 45.0 ], [ 180.0, 90.0 ], [ 90.0, 90.0 ], [ 90.0, 45.0 ] ] ] } },
{ "type": "Feature", "properties": { "qtm": "42", "resolution": 2, "center_lat": 15.0, "center_lon": 105.0, "avg_edge_len": 5552264.7272951184, "cell_area": 13757767314902.021, "cell_perimeter": 16656794.181885354 }, "geometry": { "type": "Polygon", "coordinates": [ [ [ 90.0, 0.0 ], [ 135.0, 0.0 ], [ 90.0, 45.0 ], [ 90.0, 0.0 ] ] ] } },
{ "type": "Feature", "properties": { "qtm": "43", "resolution": 2, "center_lat": 15.0, "center_lon": 165.0, "avg_edge_len": 5552264.7272951184, "cell_area": 13757767314902.021, "cell_perimeter": 16656794.181885354 }, "geometry": { "type": "Polygon", "coordinates": [ [ [ 135.0, 0.0 ], [ 180.0, 0.0 ], [ 180.0, 45.0 ], [ 135.0, 0.0 ] ] ] } },
{ "type": "Feature", "properties": { "qtm": "50", "resolution": 2, "center_lat": -30.0, "center_lon": -135.0, "avg_edge_len": 6671726.1229877723, "cell_area": 22376467110321.418, "cell_perimeter": 20015178.368963316 }, "geometry": { "type": "Polygon", "coordinates": [ [ [ -180.0, -45.0 ], [ -90.0, -45.0 ], [ -135.0, 0.0 ], [ -180.0, -45.0 ] ] ] } },
{ "type": "Feature", "properties": { "qtm": "51", "resolution": 2, "center_lat": -67.5, "center_lon": -135.0, "avg_edge_len": 5574758.5450708913, "cell_area": 13866200975385.594, "cell_perimeter": 16724275.635212673 }, "geometry": { "type": "Polygon", "coordinates": [ [ [ -180.0, -90.0 ], [ -90.0, -90.0 ], [ -90.0, -45.0 ], [ -180.0, -45.0 ], [ -180.0, -90.0 ] ] ] } },
{ "type": "Feature", "properties": { "qtm": "52", "resolution": 2, "center_lat": -15.0, "center_lon": -165.0, "avg_edge_len": 5552264.7272951184, "cell_area": 13757767314902.021, "cell_perimeter": 16656794.181885354 }, "geometry": { "type": "Polygon", "coordinates": [ [ [ -180.0, -45.0 ], [ -135.0, 0.0 ], [ -180.0, 0.0 ], [ -180.0, -45.0 ] ] ] } },
{ "type": "Feature", "properties": { "qtm": "53", "resolution": 2, "center_lat": -15.0, "center_lon": -105.0, "avg_edge_len": 5552264.7272951184, "cell_area": 13757767314902.021, "cell_perimeter": 16656794.181885354 }, "geometry": { "type": "Polygon", "coordinates": [ [ [ -135.0, 0.0 ], [ -90.0, -45.0 ], [ -90.0, 0.0 ], [ -135.0, 0.0 ] ] ] } },
{ "type": "Feature", "properties": { "qtm": "60", "resolution": 2, "center_lat": -30.0, "center_lon": -45.0, "avg_edge_len": 6671726.1229877723, "cell_area": 22376467110321.418, "cell_perimeter": 20015178.368963316 }, "geometry": { "type": "Polygon", "coordinates": [ [ [ -90.0, -45.0 ], [ 0.0, -45.0 ], [ -45.0, 0.0 ], [ -90.0, -45.0 ] ] ] } },
{ "type": "Feature", "properties": { "qtm": "61", "resolution": 2, "center_lat": -67.5, "center_lon": -45.0, "avg_edge_len": 5574758.5450708913, "cell_area": 13866200975385.594, "cell_perimeter": 16724275.635212673 }, "geometry": { "type": "Polygon", "coordinates": [ [ [ -90.0, -90.0 ], [ 0.0, -90.0 ], [ 0.0, -45.0 ], [ -90.0, -45.0 ], [ -90.0, -90.0 ] ] ] } },
{ "type": "Feature", "properties": { "qtm": "62", "resolution": 2, "center_lat": -15.0, "center_lon": -75.0, "avg_edge_len": 5552264.7272951184, "cell_area": 13757767314902.021, "cell_perimeter": 16656794.181885354 }, "geometry": { "type": "Polygon", "coordinates": [ [ [ -90.0, -45.0 ], [ -45.0, 0.0 ], [ -90.0, 0.0 ], [ -90.0, -45.0 ] ] ] } },
{ "type": "Feature", "properties": { "qtm": "63", "resolution": 2, "center_lat": -15.0, "center_lon": -15.0, "avg_edge_len": 5552264.7272951184, "cell_area": 13757767314902.021, "cell_perimeter": 16656794.181885354 }, "geometry": { "type": "Polygon", "coordinates": [ [ [ -45.0, 0.0 ], [ 0.0, -45.0 ], [ 0.0, 0.0 ], [ -45.0, 0.0 ] ] ] } },
{ "type": "Feature", "properties": { "qtm": "70", "resolution": 2, "center_lat": -30.0, "center_lon": 45.0, "avg_edge_len": 6671726.1229877723, "cell_area": 22376467110321.418, "cell_perimeter": 20015178.368963316 }, "geometry": { "type": "Polygon", "coordinates": [ [ [ 0.0, -45.0 ], [ 90.0, -45.0 ], [ 45.0, 0.0 ], [ 0.0, -45.0 ] ] ] } },
{ "type": "Feature", "properties": { "qtm": "71", "resolution": 2, "center_lat": -67.5, "center_lon": 45.0, "avg_edge_len": 5574758.5450708913, "cell_area": 13866200975385.594, "cell_perimeter": 16724275.635212673 }, "geometry": { "type": "Polygon", "coordinates": [ [ [ 0.0, -90.0 ], [ 90.0, -90.0 ], [ 90.0, -45.0 ], [ 0.0, -45.0 ], [ 0.0, -90.0 ] ] ] } },
{ "type": "Feature", "properties": { "qtm": "72", "resolution": 2, "center_lat": -15.0, "center_lon": 15.0, "avg_edge_len": 5552264.7272951184, "cell_area": 13757767314902.021, "cell_perimeter": 16656794.181885354 }, "geometry": { "type": "Polygon", "coordinates": [ [ [ 0.0, -45.0 ], [ 45.0, 0.0 ], [ 0.0, 0.0 ], [ 0.0, -45.0 ] ] ] } },
{ "type": "Feature", "properties": { "qtm": "73", "resolution": 2, "center_lat": -15.0, "center_lon": 75.0, "avg_edge_len": 5552264.7272951184, "cell_area": 13757767314902.021, "cell_perimeter": 16656794.181885354 }, "geometry": { "type": "Polygon", "coordinates": [ [ [ 45.0, 0.0 ], [ 90.0, -45.0 ], [ 90.0, 0.0 ], [ 45.0, 0.0 ] ] ] } },
{ "type": "Feature", "properties": { "qtm": "80", "resolution": 2, "center_lat": -30.0, "center_lon": 135.0, "avg_edge_len": 6671726.1229877723, "cell_area": 22376467110321.418, "cell_perimeter": 20015178.368963316 }, "geometry": { "type": "Polygon", "coordinates": [ [ [ 90.0, -45.0 ], [ 180.0, -45.0 ], [ 135.0, 0.0 ], [ 90.0, -45.0 ] ] ] } },
{ "type": "Feature", "properties": { "qtm": "81", "resolution": 2, "center_lat": -67.5, "center_lon": 135.0, "avg_edge_len": 5574758.5450708913, "cell_area": 13866200975385.594, "cell_perimeter": 16724275.635212673 }, "geometry": { "type": "Polygon", "coordinates": [ [ [ 90.0, -90.0 ], [ 180.0, -90.0 ], [ 180.0, -45.0 ], [ 90.0, -45.0 ], [ 90.0, -90.0 ] ] ] } },
{ "type": "Feature", "properties": { "qtm": "82", "resolution": 2, "center_lat": -15.0, "center_lon": 105.0, "avg_edge_len": 5552264.7272951184, "cell_area": 13757767314902.021, "cell_perimeter": 16656794.181885354 }, "geometry": { "type": "Polygon", "coordinates": [ [ [ 90.0, -45.0 ], [ 135.0, 0.0 ], [ 90.0, 0.0 ], [ 90.0, -45.0 ] ] ] } },
{ "type": "Feature", "properties": { "qtm": "83", "resolution": 2, "center_lat": -15.0, "center_lon": 165.0, "avg_edge_len": 5552264.7272951184, "cell_area": 13757767314902.021, "cell_perimeter": 16656794.181885354 }, "geometry": { "type": "Polygon", "coordinates": [ [ [ 135.0, 0.0 ], [ 180.0, -45.0 ], [ 180.0, 0.0 ], [ 135.0, 0.0 ] ] ] } }
]
}
