{
"type": "FeatureCollection",
"name": "qtm_grid_3",
"crs": { "type": "name", "properties": { "name": "urn:ogc:def:crs:OGC:1.3:CRS84" } },
"features": [
{ "type": "Feature", "properties": { "qtm": "100", "resolution": 3, "center_lat": 30.000000000000004, "center_lon": -135.0, "avg_edge_len": 3125039.7635980216, "cell_area": 4260019209434.8438, "cell_perimeter": 9375119.2907940652 }, "geometry": { "type": "Polygon", "coordinates": [ [ [ -152.031248458223445, 22.5 ], [ -117.968751541776555, 22.5 ], [ -135.0, 45.0 ], [ -152.031248458223445, 22.5 ] ] ] } },
{ "type": "Feature", "properties": { "qtm": "101", "resolution": 3, "center_lat": 15.000000000000002, "center_lon": -135.0, "avg_edge_len": 3231702.1407145076, "cell_area": 4623910213408.9971, "cell_perimeter": 9695106.4221435227 }, "geometry": { "type": "Polygon", "coordinates": [ [ [ -135.0, 0.0 ], [ -117.968751541776555, 22.5 ], [ -152.031248458223445, 22.5 ], [ -135.0, 0.0 ] ] ] } },
{ "type": "Feature", "properties": { "qtm": "102", "resolution": 3, "center_lat": 37.5, "center_lon": -155.67708281940781, "avg_edge_len": 3334579.9722870351, "cell_area": 4888151955777.7832, "cell_perimeter": 10003739.916861106 }, "geometry": { "type": "Polygon", "coordinates": [ [ [ -152.031248458223445, 22.5 ], [ -135.0, 45.0 ], [ -180.0, 45.0 ], [ -152.031248458223445, 22.5 ] ] ] } },
{ "type": "Feature", "properties": { "qtm": "103", "resolution": 3, "center_lat": 37.5, "center_lon": -114.3229171805922, "avg_edge_len": 3334579.9722870351, "cell_area": 4888151955777.7832, "cell_perimeter": 10003739.916861106 }, "geometry": { "type": "Polygon", "coordinates": [ [ [ -117.968751541776555, 22.5 ], [ -90.0, 45.0 ], [ -135.0, 45.0 ], [ -117.968751541776555, 22.5 ] ] ] } },
{ "type": "Feature", "properties": { "qtm": "110", "resolution": 3, "center_lat": 60.0, "center_lon": -135.0, "avg_edge_len": 3573641.2164832503, "cell_area": 5752503262204.3359, "cell_perimeter": 10720923.649449751 }, "geometry": { "type": "Polygon", "coordinates": [ [ [ -135.0, 45.0 ], [ -90.0, 67.5 ], [ -180.0, 67.5 ], [ -135.0, 45.0 ] ] ] } },
{ "type": "Feature", "properties": { "qtm": "111", "resolution": 3, "center_lat": 78.75, "center_lon": -135.0, "avg_edge_len": 2843040.0068593533, "cell_area": 3235870812910.4609, "cell_perimeter": 8529120.0205780603 }, "geometry": { "type": "Polygon", "coordinates": [ [ [ -180.0, 67.5 ], [ -90.0, 67.5 ], [ -90.0, 90.0 ], [ -180.0, 90.0 ], [ -180.0, 67.5 ] ] ] } },
{ "type": "Feature", "properties": { "qtm": "112", "resolution": 3, "center_lat": 52.5, "center_lon": -165.0, "avg_edge_len": 3204727.7746952102, "cell_area": 4302105220978.3906, "cell_perimeter": 9614183.3240856305 }, "geometry": { "type": "Polygon", "coordinates": [ [ [ -180.0, 45.0 ], [ -135.0, 45.0 ], [ -180.0, 67.5 ], [ -180.0, 45.0 ] ] ] } },
{ "type": "Feature", "properties": { "qtm": "113", "resolution": 3, "center_lat": 52.5, "center_lon": -105.0, "avg_edge_len": 3204727.7746952102, "cell_area": 4302105220978.3906, "cell_perimeter": 9614183.3240856305 }, "geometry": { "type": "Polygon", "coordinates": [ [ [ -135.0, 45.0 ], [ -90.0, 45.0 ], [ -90.0, 67.5 ], [ -135.0, 45.0 ] ] ] } },
{ "type": "Feature", "properties": { "qtm": "120", "resolution": 3, "center_lat": 15.0, "center_lon": -163.17708281940781, "avg_edge_len": 2972325.3456460028, "cell_area": 3719206450654.6533, "cell_perimeter": 8916976.0369380079 }, "geometry": { "type": "Polygon", "coordinates": [ [ [ -157.5, 0.0 ], [ -152.031248458223445, 22.5 ], [ -180.0, 22.5 ], [ -157.5, 0.0 ] ] ] } },
{ "type": "Feature", "properties": { "qtm": "121", "resolution": 3, "center_lat": 30.0, "center_lon": -170.67708281940781, "avg_edge_len": 2977621.244450374, "cell_area": 3660484109152.4648, "cell_perimeter": 8932863.7333511226 }, "geometry": { "type": "Polygon", "coordinates": [ [ [ -180.0, 22.5 ], [ -152.031248458223445, 22.5 ], [ -180.0, 45.0 ], [ -180.0, 22.5 ] ] ] } },
{ "type": "Feature", "properties": { "qtm": "122", "resolution": 3, "center_lat": 7.5, "center_lon": -172.5, "avg_edge_len": 2826143.1934202197, "cell_area": 3197547469578.8218, "cell_perimeter": 8478429.5802606586 }, "geometry": { "type": "Polygon", "coordinates": [ [ [ -180.0, 0.0 ], [ -157.5, 0.0 ], [ -180.0, 22.5 ], [ -180.0, 0.0 ] ] ] } },
{ "type": "Feature", "properties": { "qtm": "123", "resolution": 3, "center_lat": 7.5, "center_lon": -148.17708281940781, "avg_edge_len": 2720825.8370741033, "cell_area": 3175454402634.0947, "cell_perimeter": 8162477.5112223104 }, "geometry": { "type": "Polygon", "coordinates": [ [ [ -157.5, 0.0 ], [ -135.0, 0.0 ], [ -152.031248458223445, 22.5 ], [ -157.5, 0.0 ] ] ] } },
{ "type": "Feature", "properties": { "qtm": "130", "resolution": 3, "center_lat": 15.0, "center_lon": -106.82291718059219, "avg_edge_len": 2972325.3456460028, "cell_area": 3719206450654.6533, "cell_perimeter": 8916976.0369380079 }, "geometry": { "type": "Polygon", "coordinates": [ [ [ -112.5, 0.0 ], [ -90.0, 22.5 ], [ -117.968751541776555, 22.5 ], [ -112.5, 0.0 ] ] ] } },
{ "type": "Feature", "properties": { "qtm": "131", "resolution": 3, "center_lat": 30.0, "center_lon": -99.322917180592185, "avg_edge_len": 2977621.244450374, "cell_area": 3660484109152.4648, "cell_perimeter": 8932863.7333511226 }, "geometry": { "type": "Polygon", "coordinates": [ [ [ -117.968751541776555, 22.5 ], [ -90.0, 22.5 ], [ -90.0, 45.0 ], [ -117.968751541776555, 22.5 ] ] ] } },
{ "type": "Feature", "properties": { "qtm": "132", "resolution": 3, "center_lat": 7.5, "center_lon": -121.8229171805922, "avg_edge_len": 2720825.8370741033, "cell_area": 3175454402634.0947, "cell_perimeter": 8162477.5112223104 }, "geometry": { "type": "Polygon", "coordinates": [ [ [ -135.0, 0.0 ], [ -112.5, 0.0 ], [ -117.968751541776555, 22.5 ], [ -135.0, 0.0 ] ] ] } },
{ "type": "Feature", "properties": { "qtm": "133", "resolution": 3, "center_lat": 7.5, "center_lon": -97.5, "avg_edge_len": 2826143.1934202197, "cell_area": 3197547469578.8218, "cell_perimeter": 8478429.5802606586 }, "geometry": { "type": "Polygon", "coordinates": [ [ [ -112.5, 0.0 ], [ -90.0, 0.0 ], [ -90.0, 22.5 ], [ -112.5, 0.0 ] ] ] } },
{ "type": "Feature", "properties": { "qtm": "200", "resolution": 3, "center_lat": 30.000000000000004, "center_lon": -44.999999999999993, "avg_edge_len": 3125039.7635980216, "cell_area": 4260019209434.8438, "cell_perimeter": 9375119.2907940652 }, "geometry": { "type": "Polygon", "coordinates": [ [ [ -62.031248458223445, 22.5 ], [ -27.968751541776555, 22.5 ], [ -45.0, 45.0 ], [ -62.031248458223445, 22.5 ] ] ] } },
{ "type": "Feature", "properties": { "qtm": "201", "resolution": 3, "center_lat": 15.000000000000002, "center_lon": -44.999999999999993, "avg_edge_len": 3231702.1407145076, "cell_area": 4623910213408.9971, "cell_perimeter": 9695106.4221435227 }, "geometry": { "type": "Polygon", "coordinates": [ [ [ -45.0, 0.0 ], [ -27.968751541776555, 22.5 ], [ -62.031248458223445, 22.5 ], [ -45.0, 0.0 ] ] ] } },
{ "type": "Feature", "properties": { "qtm": "202", "resolution": 3, "center_lat": 37.5, "center_lon": -65.677082819407815, "avg_edge_len": 3334579.9722870351, "cell_area": 4888151955777.7832, "cell_perimeter": 10003739.916861106 }, "geometry": { "type": "Polygon", "coordinates": [ [ [ -62.031248458223445, 22.5 ], [ -45.0, 45.0 ], [ -90.0, 45.0 ], [ -62.031248458223445, 22.5 ] ] ] } },
{ "type": "Feature", "properties": { "qtm": "203", "resolution": 3, "center_lat": 37.5, "center_lon": -24.322917180592185, "avg_edge_len": 3334579.9722870351, "cell_area": 4888151955777.7832, "cell_perimeter": 10003739.916861106 }, "geometry": { "type": "Polygon", "coordinates": [ [ [ -27.968751541776555, 22.5 ], [ 0.0, 45.0 ], [ -45.0, 45.0 ], [ -27.968751541776555, 22.5 ] ] ] } },
{ "type": "Feature", "properties": { "qtm": "210", "resolution": 3, "center_lat": 60.0, "center_lon": -45.0, "avg_edge_len": 3573641.2164832503, "cell_area": 5752503262204.3359, "cell_perimeter": 10720923.649449751 }, "geometry": { "type": "Polygon", "coordinates": [ [ [ -45.0, 45.0 ], [ 0.0, 67.5 ], [ -90.0, 67.5 ], [ -45.0, 45.0 ] ] ] } },
{ "type": "Feature", "properties": { "qtm": "211", "resolution": 3, "center_lat": 78.75, "center_lon": -45.0, "avg_edge_len": 2843040.0068593533, "cell_area": 3235870812910.4609, "cell_perimeter": 8529120.0205780603 }, "geometry": { "type": "Polygon", "coordinates": [ [ [ -90.0, 67.5 ], [ 0.0, 67.5 ], [ 0.0, 90.0 ], [ -90.0, 90.0 ], [ -90.0, 67.5 ] ] ] } },
{ "type": "Feature", "properties": { "qtm": "212", "resolution": 3, "center_lat": 52.5, "center_lon": -75.0, "avg_edge_len": 3204727.7746952102, "cell_area": 4302105220978.3906, "cell_perimeter": 9614183.3240856305 }, "geometry": { "type": "Polygon", "coordinates": [ [ [ -90.0, 45.0 ], [ -45.0, 45.0 ], [ -90.0, 67.5 ], [ -90.0, 45.0 ] ] ] } },
{ "type": "Feature", "properties": { "qtm": "213", "resolution": 3, "center_lat": 52.5, "center_lon": -15.0, "avg_edge_len": 3204727.7746952102, "cell_area": 4302105220978.3906, "cell_perimeter": 9614183.3240856305 }, "geometry": { "type": "Polygon", "coordinates": [ [ [ -45.0, 45.0 ], [ 0.0, 45.0 ], [ 0.0, 67.5 ], [ -45.0, 45.0 ] ] ] } },
{ "type": "Feature", "properties": { "qtm": "220", "resolution": 3, "center_lat": 15.0, "center_lon": -73.177082819407815, "avg_edge_len": 2972325.3456460028, "cell_area": 3719206450654.6533, "cell_perimeter": 8916976.0369380079 }, "geometry": { "type": "Polygon", "coordinates": [ [ [ -67.5, 0.0 ], [ -62.031248458223445, 22.5 ], [ -90.0, 22.5 ], [ -67.5, 0.0 ] ] ] } },
{ "type": "Feature", "properties": { "qtm": "221", "resolution": 3, "center_lat": 30.0, "center_lon": -80.677082819407815, "avg_edge_len": 2977621.244450374, "cell_area": 3660484109152.4648, "cell_perimeter": 8932863.7333511226 }, "geometry": { "type": "Polygon", "coordinates": [ [ [ -90.0, 22.5 ], [ -62.031248458223445, 22.5 ], [ -90.0, 45.0 ], [ -90.0, 22.5 ] ] ] } },
{ "type": "Feature", "properties": { "qtm": "222", "resolution": 3, "center_lat": 7.5, "center_lon": -82.5, "avg_edge_len": 2826143.1934202197, "cell_area": 3197547469578.8218, "cell_perimeter": 8478429.5802606586 }, "geometry": { "type": "Polygon", "coordinates": [ [ [ -90.0, 0.0 ], [ -67.5, 0.0 ], [ -90.0, 22.5 ], [ -90.0, 0.0 ] ] ] } },
{ "type": "Feature", "properties": { "qtm": "223", "resolution": 3, "center_lat": 7.5, "center_lon": -58.177082819407815, "avg_edge_len": 2720825.8370741033, "cell_area": 3175454402634.0947, "cell_perimeter": 8162477.5112223104 }, "geometry": { "type": "Polygon", "coordinates": [ [ [ -67.5, 0.0 ], [ -45.0, 0.0 ], [ -62.031248458223445, 22.5 ], [ -67.5, 0.0 ] ] ] } },
{ "type": "Feature", "properties": { "qtm": "230", "resolution": 3, "center_lat": 15.0, "center_lon": -16.822917180592185, "avg_edge_len": 2972325.3456460028, "cell_area": 3719206450654.6533, "cell_perimeter": 8916976.0369380079 }, "geometry": { "type": "Polygon", "coordinates": [ [ [ -22.5, 0.0 ], [ 0.0, 22.5 ], [ -27.968751541776555, 22.5 ], [ -22.5, 0.0 ] ] ] } },
{ "type": "Feature", "properties": { "qtm": "231", "resolution": 3, "center_lat": 30.0, "center_lon": -9.3229171805921851, "avg_edge_len": 2977621.244450374, "cell_area": 3660484109152.4648, "cell_perimeter": 8932863.7333511226 }, "geometry": { "type": "Polygon", "coordinates": [ [ [ -27.968751541776555, 22.5 ], [ 0.0, 22.5 ], [ 0.0, 45.0 ], [ -27.968751541776555, 22.5 ] ] ] } },
{ "type": "Feature", "properties": { "qtm": "232", "resolution": 3, "center_lat": 7.5, "center_lon": -31.822917180592185, "avg_edge_len": 2720825.8370741033, "cell_area": 3175454402634.0947, "cell_perimeter": 8162477.5112223104 }, "geometry": { "type": "Polygon", "coordinates": [ [ [ -45.0, 0.0 ], [ -22.5, 0.0 ], [ -27.968751541776555, 22.5 ], [ -45.0, 0.0 ] ] ] } },
{ "type": "Feature", "properties": { "qtm": "233", "resolution": 3, "center_lat": 7.5, "center_lon": -7.5, "avg_edge_len": 2826143.1934202197, "cell_area": 3197547469578.8218, "cell_perimeter": 8478429.5802606586 }, "geometry": { "type": "Polygon", "coordinates": [ [ [ -22.5, 0.0 ], [ 0.0, 0.0 ], [ 0.0, 22.5 ], [ -22.5, 0.0 ] ] ] } },
{ "type": "Feature", "properties": { "qtm": "300", "resolution": 3, "center_lat": 30.000000000000004, "center_lon": 44.999999999999993, "avg_edge_len": 3125039.7635980216, "cell_area": 4260019209434.8438, "cell_perimeter": 9375119.2907940652 }, "geometry": { "type": "Polygon", "coordinates": [ [ [ 27.968751541776555, 22.5 ], [ 62.031248458223445, 22.5 ], [ 45.0, 45.0 ], [ 27.968751541776555, 22.5 ] ] ] } },
{ "type": "Feature", "properties": { "qtm": "301", "resolution": 3, "center_lat": 15.000000000000002, "center_lon": 44.999999999999993, "avg_edge_len": 3231702.1407145076, "cell_area": 4623910213408.9971, "cell_perimeter": 9695106.4221435227 }, "geometry": { "type": "Polygon", "coordinates": [ [ [ 45.0, 0.0 ], [ 62.031248458223445, 22.5 ], [ 27.968751541776555, 22.5 ], [ 45.0, 0.0 ] ] ] } },
{ "type": "Feature", "properties": { "qtm": "302", "resolution": 3, "center_lat": 37.5, "center_lon": 24.322917180592185, "avg_edge_len": 3334579.9722870351, "cell_area": 4888151955777.7832, "cell_perimeter": 10003739.916861106 }, "geometry": { "type": "Polygon", "coordinates": [ [ [ 27.968751541776555, 22.5 ], [ 45.0, 45.0 ], [ 0.0, 45.0 ], [ 27.968751541776555, 22.5 ] ] ] } },
{ "type": "Feature", "properties": { "qtm": "303", "resolution": 3, "center_lat": 37.5, "center_lon": 65.677082819407815, "avg_edge_len": 3334579.9722870351, "cell_area": 4888151955777.7832, "cell_perimeter": 10003739.916861106 }, "geometry": { "type": "Polygon", "coordinates": [ [ [ 62.031248458223445, 22.5 ], [ 90.0, 45.0 ], [ 45.0, 45.0 ], [ 62.031248458223445, 22.5 ] ] ] } },
{ "type": "Feature", "properties": { "qtm": "310", "resolution": 3, "center_lat": 60.0, "center_lon": 45.0, "avg_edge_len": 3573641.2164832503, "cell_area": 5752503262204.3359, "cell_perimeter": 10720923.649449751 }, "geometry": { "type": "Polygon", "coordinates": [ [ [ 45.0, 45.0 ], [ 90.0, 67.5 ], [ 0.0, 67.5 ], [ 45.0, 45.0 ] ] ] } },
{ "type": "Feature", "properties": { "qtm": "311", "resolution": 3, "center_lat": 78.75, "center_lon": 45.0, "avg_edge_len": 2843040.0068593533, "cell_area": 3235870812910.4609, "cell_perimeter": 8529120.0205780603 }, "geometry": { "type": "Polygon", "coordinates": [ [ [ 0.0, 67.5 ], [ 90.0, 67.5 ], [ 90.0, 90.0 ], [ 0.0, 90.0 ], [ 0.0, 67.5 ] ] ] } },
{ "type": "Feature", "properties": { "qtm": "312", "resolution": 3, "center_lat": 52.5, "center_lon": 15.0, "avg_edge_len": 3204727.7746952102, "cell_area": 4302105220978.3906, "cell_perimeter": 9614183.3240856305 }, "geometry": { "type": "Polygon", "coordinates": [ [ [ 0.0, 45.0 ], [ 45.0, 45.0 ], [ 0.0, 67.5 ], [ 0.0, 45.0 ] ] ] } },
{ "type": "Feature", "properties": { "qtm": "313", "resolution": 3, "center_lat": 52.5, "center_lon": 75.0, "avg_edge_len": 3204727.7746952102, "cell_area": 4302105220978.3906, "cell_perimeter": 9614183.3240856305 }, "geometry": { "type": "Polygon", "coordinates": [ [ [ 45.0, 45.0 ], [ 90.0, 45.0 ], [ 90.0, 67.5 ], [ 45.0, 45.0 ] ] ] } },
{ "type": "Feature", "properties": { "qtm": "320", "resolution": 3, "center_lat": 15.0, "center_lon": 16.822917180592185, "avg_edge_len": 2972325.3456460028, "cell_area": 3719206450654.6533, "cell_perimeter": 8916976.0369380079 }, "geometry": { "type": "Polygon", "coordinates": [ [ [ 22.5, 0.0 ], [ 27.968751541776555, 22.5 ], [ 0.0, 22.5 ], [ 22.5, 0.0 ] ] ] } },
{ "type": "Feature", "properties": { "qtm": "321", "resolution": 3, "center_lat": 30.0, "center_lon": 9.3229171805921851, "avg_edge_len": 2977621.244450374, "cell_area": 3660484109152.4648, "cell_perimeter": 8932863.7333511226 }, "geometry": { "type": "Polygon", "coordinates": [ [ [ 0.0, 22.5 ], [ 27.968751541776555, 22.5 ], [ 0.0, 45.0 ], [ 0.0, 22.5 ] ] ] } },
{ "type": "Feature", "properties": { "qtm": "322", "resolution": 3, "center_lat": 7.5, "center_lon": 7.5, "avg_edge_len": 2826143.1934202197, "cell_area": 3197547469578.8218, "cell_perimeter": 8478429.5802606586 }, "geometry": { "type": "Polygon", "coordinates": [ [ [ 0.0, 0.0 ], [ 22.5, 0.0 ], [ 0.0, 22.5 ], [ 0.0, 0.0 ] ] ] } },
{ "type": "Feature", "properties": { "qtm": "323", "resolution": 3, "center_lat": 7.5, "center_lon": 31.822917180592185, "avg_edge_len": 2720825.8370741033, "cell_area": 3175454402634.0947, "cell_perimeter": 8162477.5112223104 }, "geometry": { "type": "Polygon", "coordinates": [ [ [ 22.5, 0.0 ], [ 45.0, 0.0 ], [ 27.968751541776555, 22.5 ], [ 22.5, 0.0 ] ] ] } },
{ "type": "Feature", "properties": { "qtm": "330", "resolution": 3, "center_lat": 15.0, "center_lon": 73.177082819407815, "avg_edge_len": 2972325.3456460028, "cell_area": 3719206450654.6533, "cell_perimeter": 8916976.0369380079 }, "geometry": { "type": "Polygon", "coordinates": [ [ [ 67.5, 0.0 ], [ 90.0, 22.5 ], [ 62.031248458223445, 22.5 ], [ 67.5, 0.0 ] ] ] } },
{ "type": "Feature", "properties": { "qtm": "331", "resolution": 3, "center_lat": 30.0, "center_lon": 80.677082819407815, "avg_edge_len": 2977621.244450374, "cell_area": 3660484109152.4648, "cell_perimeter": 8932863.7333511226 }, "geometry": { "type": "Polygon", "coordinates": [ [ [ 62.031248458223445, 22.5 ], [ 90.0, 22.5 ], [ 90.0, 45.0 ], [ 62.031248458223445, 22.5 ] ] ] } },
{ "type": "Feature", "properties": { "qtm": "332", "resolution": 3, "center_lat": 7.5, "center_lon": 58.177082819407815, "avg_edge_len": 2720825.8370741033, "cell_area": 3175454402634.0947, "cell_perimeter": 8162477.5112223104 }, "geometry": { "type": "Polygon", "coordinates": [ [ [ 45.0, 0.0 ], [ 67.5, 0.0 ], [ 62.031248458223445, 22.5 ], [ 45.0, 0.0 ] ] ] } },
{ "type": "Feature", "properties": { "qtm": "333", "resolution": 3, "center_lat": 7.5, "center_lon": 82.5, "avg_edge_len": 2826143.1934202197, "cell_area": 3197547469578.8218, "cell_perimeter": 8478429.5802606586 }, "geometry": { "type": "Polygon", "coordinates": [ [ [ 67.5, 0.0 ], [ 90.0, 0.0 ], [ 90.0, 22.5 ], [ 67.5, 0.0 ] ] ] } },
{ "type": "Feature", "properties": { "qtm": "400", "resolution": 3, "center_lat": 30.000000000000004, "center_lon": 135.0, "avg_edge_len": 3125039.7635980216, "cell_area": 4260019209434.8438, "cell_perimeter": 9375119.2907940652 }, "geometry": { "type": "Polygon", "coordinates": [ [ [ 117.968751541776555, 22.5 ], [ 152.031248458223445, 22.5 ], [ 135.0, 45.0 ], [ 117.968751541776555, 22.5 ] ] ] } },
{ "type": "Feature", "properties": { "qtm": "401", "resolution": 3, "center_lat": 15.000000000000002, "center_lon": 135.0, "avg_edge_len": 3231702.1407145076, "cell_area": 4623910213408.9971, "cell_perimeter": 9695106.4221435227 }, "geometry": { "type": "Polygon", "coordinates": [ [ [ 135.0, 0.0 ], [ 152.031248458223445, 22.5 ], [ 117.968751541776555, 22.5 ], [ 135.0, 0.0 ] ] ] } },
{ "type": "Feature", "properties": { "qtm": "402", "resolution": 3, "center_lat": 37.5, "center_lon": 114.3229171805922, "avg_edge_len": 3334579.9722870351, "cell_area": 4888151955777.7832, "cell_perimeter": 10003739.916861106 }, "geometry": { "type": "Polygon", "coordinates": [ [ [ 117.968751541776555, 22.5 ], [ 135.0, 45.0 ], [ 90.0, 45.0 ], [ 117.968751541776555, 22.5 ] ] ] } },
{ "type": "Feature", "properties": { "qtm": "403", "resolution": 3, "center_lat": 37.5, "center_lon": 155.67708281940781, "avg_edge_len": 3334579.9722870351, "cell_area": 4888151955777.7832, "cell_perimeter": 10003739.916861106 }, "geometry": { "type": "Polygon", "coordinates": [ [ [ 152.031248458223445, 22.5 ], [ 180.0, 45.0 ], [ 135.0, 45.0 ], [ 152.031248458223445, 22.5 ] ] ] } },
{ "type": "Feature", "properties": { "qtm": "410", "resolution": 3, "center_lat": 60.0, "center_lon": 135.0, "avg_edge_len": 3573641.2164832503, "cell_area": 5752503262204.3359, "cell_perimeter": 10720923.649449751 }, "geometry": { "type": "Polygon", "coordinates": [ [ [ 135.0, 45.0 ], [ 180.0, 67.5 ], [ 90.0, 67.5 ], [ 135.0, 45.0 ] ] ] } },
{ "type": "Feature", "properties": { "qtm": "411", "resolution": 3, "center_lat": 78.75, "center_lon": 135.0, "avg_edge_len": 2843040.0068593533, "cell_area": 3235870812910.4609, "cell_perimeter": 8529120.0205780603 }, "geometry": { "type": "Polygon", "coordinates": [ [ [ 90.0, 67.5 ], [ 180.0, 67.5 ], [ 180.0, 90.0 ], [ 90.0, 90.0 ], [ 90.0, 67.5 ] ] ] } },
{ "type": "Feature", "properties": { "qtm": "412", "resolution": 3, "center_lat": 52.5, "center_lon": 105.0, "avg_edge_len": 3204727.7746952102, "cell_area": 4302105220978.3906, "cell_perimeter": 9614183.3240856305 }, "geometry": { "type": "Polygon", "coordinates": [ [ [ 90.0, 45.0 ], [ 135.0, 45.0 ], [ 90.0, 67.5 ], [ 90.0, 45.0 ] ] ] } },
{ "type": "Feature", "properties": { "qtm": "413", "resolution": 3, "center_lat": 52.5, "center_lon": 165.0, "avg_edge_len": 3204727.7746952102, "cell_area": 4302105220978.3906, "cell_perimeter": 9614183.3240856305 }, "geometry": { "type": "Polygon", "coordinates": [ [ [ 135.0, 45.0 ], [ 180.0, 45.0 ], [ 180.0, 67.5 ], [ 135.0, 45.0 ] ] ] } },
{ "type": "Feature", "properties": { "qtm": "420", "resolution": 3, "center_lat": 15.0, "center_lon": 106.82291718059219, "avg_edge_len": 2972325.3456460028, "cell_area": 3719206450654.6533, "cell_perimeter": 8916976.0369380079 }, "geometry": { "type": "Polygon", "coordinates": [ [ [ 112.5, 0.0 ], [ 117.968751541776555, 22.5 ], [ 90.0, 22.5 ], [ 112.5, 0.0 ] ] ] } },
{ "type": "Feature", "properties": { "qtm": "421", "resolution": 3, "center_lat": 30.0, "center_lon": 99.322917180592185, "avg_edge_len": 2977621.244450374, "cell_area": 3660484109152.4648, "cell_perimeter": 8932863.7333511226 }, "geometry": { "type": "Polygon", "coordinates": [ [ [ 90.0, 22.5 ], [ 117.968751541776555, 22.5 ], [ 90.0, 45.0 ], [ 90.0, 22.5 ] ] ] } },
{ "type": "Feature", "properties": { "qtm": "422", "resolution": 3, "center_lat": 7.5, "center_lon": 97.5, "avg_edge_len": 2826143.1934202197, "cell_area": 3197547469578.8218, "cell_perimeter": 8478429.5802606586 }, "geometry": { "type": "Polygon", "coordinates": [ [ [ 90.0, 0.0 ], [ 112.5, 0.0 ], [ 90.0, 22.5 ], [ 90.0, 0.0 ] ] ] } },
{ "type": "Feature", "properties": { "qtm": "423", "resolution": 3, "center_lat": 7.5, "center_lon": 121.8229171805922, "avg_edge_len": 2720825.8370741033, "cell_area": 3175454402634.0947, "cell_perimeter": 8162477.5112223104 }, "geometry": { "type": "Polygon", "coordinates": [ [ [ 112.5, 0.0 ], [ 135.0, 0.0 ], [ 117.968751541776555, 22.5 ], [ 112.5, 0.0 ] ] ] } },
{ "type": "Feature", "properties": { "qtm": "430", "resolution": 3, "center_lat": 15.0, "center_lon": 163.17708281940781, "avg_edge_len": 2972325.3456460028, "cell_area": 3719206450654.6533, "cell_perimeter": 8916976.0369380079 }, "geometry": { "type": "Polygon", "coordinates": [ [ [ 157.5, 0.0 ], [ 180.0, 22.5 ], [ 152.031248458223445, 22.5 ], [ 157.5, 0.0 ] ] ] } },
{ "type": "Feature", "properties": { "qtm": "431", "resolution": 3, "center_lat": 30.0, "center_lon": 170.67708281940781, "avg_edge_len": 2977621.244450374, "cell_area": 3660484109152.4648, "cell_perimeter": 8932863.7333511226 }, "geometry": { "type": "Polygon", "coordinates": [ [ [ 152.031248458223445, 22.5 ], [ 180.0, 22.5 ], [ 180.0, 45.0 ], [ 152.031248458223445, 22.5 ] ] ] } },
{ "type": "Feature", "properties": { "qtm": "432", "resolution": 3, "center_lat": 7.5, "center_lon": 148.17708281940781, "avg_edge_len": 2720825.8370741033, "cell_area": 3175454402634.0947, "cell_perimeter": 8162477.5112223104 }, "geometry": { "type": "Polygon", "coordinates": [ [ [ 135.0, 0.0 ], [ 157.5, 0.0 ], [ 152.031248458223445, 22.5 ], [ 135.0, 0.0 ] ] ] } },
{ "type": "Feature", "properties": { "qtm": "433", "resolution": 3, "center_lat": 7.5, "center_lon": 172.5, "avg_edge_len": 2826143.1934202197, "cell_area": 3197547469578.8218, "cell_perimeter": 8478429.5802606586 }, "geometry": { "type": "Polygon", "coordinates": [ [ [ 157.5, 0.0 ], [ 180.0, 0.0 ], [ 180.0, 22.5 ], [ 157.5, 0.0 ] ] ] } },
{ "type": "Feature", "properties": { "qtm": "500", "resolution": 3, "center_lat": -30.000000000000004, "center_lon": -135.0, "avg_edge_len": 3125039.7635980216, "cell_area": 4260019209434.8438, "cell_perimeter": 9375119.2907940652 }, "geometry": { "type": "Polygon", "coordinates": [ [ [ -135.0, -45.0 ], [ -117.968751541776555, -22.5 ], [ -152.031248458223445, -22.5 ], [ -135.0, -45.0 ] ] ] } },
{ "type": "Feature", "properties": { "qtm": "501", "resolution": 3, "center_lat": -15.000000000000002, "center_lon": -135.0, "avg_edge_len": 3231702.1407145076, "cell_area": 4623910213408.9971, "cell_perimeter": 9695106.4221435227 }, "geometry": { "type": "Polygon", "coordinates": [ [ [ -152.031248458223445, -22.5 ], [ -117.968751541776555, -22.5 ], [ -135.0, 0.0 ], [ -152.031248458223445, -22.5 ] ] ] } },
{ "type": "Feature", "properties": { "qtm": "502", "resolution": 3, "center_lat": -37.5, "center_lon": -155.67708281940781, "avg_edge_len": 3334579.9722870351, "cell_area": 4888151955777.7832, "cell_perimeter": 10003739.916861106 }, "geometry": { "type": "Polygon", "coordinates": [ [ [ -180.0, -45.0 ], [ -135.0, -45.0 ], [ -152.031248458223445, -22.5 ], [ -180.0, -45.0 ] ] ] } },
{ "type": "Feature", "properties": { "qtm": "503", "resolution": 3, "center_lat": -37.5, "center_lon": -114.3229171805922, "avg_edge_len": 3334579.9722870351, "cell_area": 4888151955777.7832, "cell_perimeter": 10003739.916861106 }, "geometry": { "type": "Polygon", "coordinates": [ [ [ -135.0, -45.0 ], [ -90.0, -45.0 ], [ -117.968751541776555, -22.5 ], [ -135.0, -45.0 ] ] ] } },
{ "type": "Feature", "properties": { "qtm": "510", "resolution": 3, "center_lat": -60.0, "center_lon": -135.0, "avg_edge_len": 3573641.2164832503, "cell_area": 5752503262204.3359, "cell_perimeter": 10720923.649449751 }, "geometry": { "type": "Polygon", "coordinates": [ [ [ -180.0, -67.5 ], [ -90.0, -67.5 ], [ -135.0, -45.0 ], [ -180.0, -67.5 ] ] ] } },
{ "type": "Feature", "properties": { "qtm": "511", "resolution": 3, "center_lat": -78.75, "center_lon": -135.0, "avg_edge_len": 2843040.0068593533, "cell_area": 3235870812910.4609, "cell_perimeter": 8529120.0205780603 }, "geometry": { "type": "Polygon", "coordinates": [ [ [ -180.0, -90.0 ], [ -90.0, -90.0 ], [ -90.0, -67.5 ], [ -180.0, -67.5 ], [ -180.0, -90.0 ] ] ] } },
{ "type": "Feature", "properties": { "qtm": "512", "resolution": 3, "center_lat": -52.5, "center_lon": -165.0, "avg_edge_len": 3204727.7746952102, "cell_area": 4302105220978.3906, "cell_perimeter": 9614183.3240856305 }, "geometry": { "type": "Polygon", "coordinates": [ [ [ -180.0, -67.5 ], [ -135.0, -45.0 ], [ -180.0, -45.0 ], [ -180.0, -67.5 ] ] ] } },
{ "type": "Feature", "properties": { "qtm": "513", "resolution": 3, "center_lat": -52.5, "center_lon": -105.0, "avg_edge_len": 3204727.7746952102, "cell_area": 4302105220978.3906, "cell_perimeter": 9614183.3240856305 }, "geometry": { "type": "Polygon", "coordinates": [ [ [ -135.0, -45.0 ], [ -90.0, -67.5 ], [ -90.0, -45.0 ], [ -135.0, -45.0 ] ] ] } },
{ "type": "Feature", "properties": { "qtm": "520", "resolution": 3, "center_lat": -15.0, "center_lon": -163.17708281940781, "avg_edge_len": 2972325.3456460028, "cell_area": 3719206450654.6533, "cell_perimeter": 8916976.0369380079 }, "geometry": { "type": "Polygon", "coordinates": [ [ [ -180.0, -22.5 ], [ -152.031248458223445, -22.5 ], [ -157.5, 0.0 ], [ -180.0, -22.5 ] ] ] } },
{ "type": "Feature", "properties": { "qtm": "521", "resolution": 3, "center_lat": -30.0, "center_lon": -170.67708281940781, "avg_edge_len": 2977621.244450374, "cell_area": 3660484109152.4648, "cell_perimeter": 8932863.7333511226 }, "geometry": { "type": "Polygon", "coordinates": [ [ [ -180.0, -45.0 ], [ -152.031248458223445, -22.5 ], [ -180.0, -22.5 ], [ -180.0, -45.0 ] ] ] } },
{ "type": "Feature", "properties": { "qtm": "522", "resolution": 3, "center_lat": -7.5, "center_lon": -172.5, "avg_edge_len": 2826143.1934202197, "cell_area": 3197547469578.8218, "cell_perimeter": 8478429.5802606586 }, "geometry": { "type": "Polygon", "coordinates": [ [ [ -180.0, -22.5 ], [ -157.5, 0.0 ], [ -180.0, 0.0 ], [ -180.0, -22.5 ] ] ] } },
{ "type": "Feature", "properties": { "qtm": "523", "resolution": 3, "center_lat": -7.5, "center_lon": -148.17708281940781, "avg_edge_len": 2720825.8370741033, "cell_area": 3175454402634.0947, "cell_perimeter": 8162477.5112223104 }, "geometry": { "type": "Polygon", "coordinates": [ [ [ -152.031248458223445, -22.5 ], [ -135.0, 0.0 ], [ -157.5, 0.0 ], [ -152.031248458223445, -22.5 ] ] ] } },
{ "type": "Feature", "properties": { "qtm": "530", "resolution": 3, "center_lat": -15.0, "center_lon": -106.82291718059219, "avg_edge_len": 2972325.3456460028, "cell_area": 3719206450654.6533, "cell_perimeter": 8916976.0369380079 }, "geometry": { "type": "Polygon", "coordinates": [ [ [ -112.5, 0.0 ], [ -117.968751541776555, -22.5 ], [ -90.0, -22.5 ], [ -112.5, 0.0 ] ] ] } },
{ "type": "Feature", "properties": { "qtm": "531", "resolution": 3, "center_lat": -7.5, "center_lon": -121.8229171805922, "avg_edge_len": 2720825.8370741033, "cell_area": 3175454402634.0947, "cell_perimeter": 8162477.5112223104 }, "geometry": { "type": "Polygon", "coordinates": [ [ [ -135.0, 0.0 ], [ -117.968751541776555, -22.5 ], [ -112.5, 0.0 ], [ -135.0, 0.0 ] ] ] } },
{ "type": "Feature", "properties": { "qtm": "532", "resolution": 3, "center_lat": -7.5, "center_lon": -97.5, "avg_edge_len": 2826143.1934202197, "cell_area": 3197547469578.8218, "cell_perimeter": 8478429.5802606586 }, "geometry": { "type": "Polygon", "coordinates": [ [ [ -112.5, 0.0 ], [ -90.0, -22.5 ], [ -90.0, 0.0 ], [ -112.5, 0.0 ] ] ] } },
{ "type": "Feature", "properties": { "qtm": "533", "resolution": 3, "center_lat": -30.0, "center_lon": -99.322917180592185, "avg_edge_len": 2977621.244450374, "cell_area": 3660484109152.4648, "cell_perimeter": 8932863.7333511226 }, "geometry": { "type": "Polygon", "coordinates": [ [ [ -117.968751541776555, -22.5 ], [ -90.0, -45.0 ], [ -90.0, -22.5 ], [ -117.968751541776555, -22.5 ] ] ] } },
{ "type": "Feature", "properties": { "qtm": "600", "resolution": 3, "center_lat": -30.000000000000004, "center_lon": -44.999999999999993, "avg_edge_len": 3125039.7635980216, "cell_area": 4260019209434.8438, "cell_perimeter": 9375119.2907940652 }, "geometry": { "type": "Polygon", "coordinates": [ [ [ -45.0, -45.0 ], [ -27.968751541776555, -22.5 ], [ -62.031248458223445, -22.5 ], [ -45.0, -45.0 ] ] ] } },
{ "type": "Feature", "properties": { "qtm": "601", "resolution": 3, "center_lat": -15.000000000000002, "center_lon": -44.999999999999993, "avg_edge_len": 3231702.1407145076, "cell_area": 4623910213408.9971, "cell_perimeter": 9695106.4221435227 }, "geometry": { "type": "Polygon", "coordinates": [ [ [ -62.031248458223445, -22.5 ], [ -27.968751541776555, -22.5 ], [ -45.0, 0.0 ], [ -62.031248458223445, -22.5 ] ] ] } },
{ "type": "Feature", "properties": { "qtm": "602", "resolution": 3, "center_lat": -37.5, "center_lon": -65.677082819407815, "avg_edge_len": 3334579.9722870351, "cell_area": 4888151955777.7832, "cell_perimeter": 10003739.916861106 }, "geometry": { "type": "Polygon", "coordinates": [ [ [ -90.0, -45.0 ], [ -45.0, -45.0 ], [ -62.031248458223445, -22.5 ], [ -90.0, -45.0 ] ] ] } },
{ "type": "Feature", "properties": { "qtm": "603", "resolution": 3, "center_lat": -37.5, "center_lon": -24.322917180592185, "avg_edge_len": 3334579.9722870351, "cell_area": 4888151955777.7832, "cell_perimeter": 10003739.916861106 }, "geometry": { "type": "Polygon", "coordinates": [ [ [ -45.0, -45.0 ], [ 0.0, -45.0 ], [ -27.968751541776555, -22.5 ], [ -45.0, -45.0 ] ] ] } },
{ "type": "Feature", "properties": { "qtm": "610", "resolution": 3, "center_lat": -60.0, "center_lon": -45.0, "avg_edge_len": 3573641.2164832503, "cell_area": 5752503262204.3359, "cell_perimeter": 10720923.649449751 }, "geometry": { "type": "Polygon", "coordinates": [ [ [ -90.0, -67.5 ], [ 0.0, -67.5 ], [ -45.0, -45.0 ], [ -90.0, -67.5 ] ] ] } },
{ "type": "Feature", "properties": { "qtm": "611", "resolution": 3, "center_lat": -78.75, "center_lon": -45.0, "avg_edge_len": 2843040.0068593533, "cell_area": 3235870812910.4609, "cell_perimeter": 8529120.0205780603 }, "geometry": { "type": "Polygon", "coordinates": [ [ [ -90.0, -90.0 ], [ 0.0, -90.0 ], [ 0.0, -67.5 ], [ -90.0, -67.5 ], [ -90.0, -90.0 ] ] ] } },
{ "type": "Feature", "properties": { "qtm": "612", "resolution": 3, "center_lat": -52.5, "center_lon": -75.0, "avg_edge_len": 3204727.7746952102, "cell_area": 4302105220978.3906, "cell_perimeter": 9614183.3240856305 }, "geometry": { "type": "Polygon", "coordinates": [ [ [ -90.0, -67.5 ], [ -45.0, -45.0 ], [ -90.0, -45.0 ], [ -90.0, -67.5 ] ] ] } },
{ "type": "Feature", "properties": { "qtm": "613", "resolution": 3, "center_lat": -52.5, "center_lon": -15.0, "avg_edge_len": 3204727.7746952102, "cell_area": 4302105220978.3906, "cell_perimeter": 9614183.3240856305 }, "geometry": { "type": "Polygon", "coordinates": [ [ [ -45.0, -45.0 ], [ 0.0, -67.5 ], [ 0.0, -45.0 ], [ -45.0, -45.0 ] ] ] } },
{ "type": "Feature", "properties": { "qtm": "620", "resolution": 3, "center_lat": -15.0, "center_lon": -73.177082819407815, "avg_edge_len": 2972325.3456460028, "cell_area": 3719206450654.6533, "cell_perimeter": 8916976.0369380079 }, "geometry": { "type": "Polygon", "coordinates": [ [ [ -90.0, -22.5 ], [ -62.031248458223445, -22.5 ], [ -67.5, 0.0 ], [ -90.0, -22.5 ] ] ] } },
{ "type": "Feature", "properties": { "qtm": "621", "resolution": 3, "center_lat": -30.0, "center_lon": -80.677082819407815, "avg_edge_len": 2977621.244450374, "cell_area": 3660484109152.4648, "cell_perimeter": 8932863.7333511226 }, "geometry": { "type": "Polygon", "coordinates": [ [ [ -90.0, -45.0 ], [ -62.031248458223445, -22.5 ], [ -90.0, -22.5 ], [ -90.0, -45.0 ] ] ] } },
{ "type": "Feature", "properties": { "qtm": "622", "resolution": 3, "center_lat": -7.5, "center_lon": -82.5, "avg_edge_len": 2826143.1934202197, "cell_area": 3197547469578.8218, "cell_perimeter": 8478429.5802606586 }, "geometry": { "type": "Polygon", "coordinates": [ [ [ -90.0, -22.5 ], [ -67.5, 0.0 ], [ -90.0, 0.0 ], [ -90.0, -22.5 ] ] ] } },
{ "type": "Feature", "properties": { "qtm": "623", "resolution": 3, "center_lat": -7.5, "center_lon": -58.177082819407815, "avg_edge_len": 2720825.8370741033, "cell_area": 3175454402634.0947, "cell_perimeter": 8162477.5112223104 }, "geometry": { "type": "Polygon", "coordinates": [ [ [ -62.031248458223445, -22.5 ], [ -45.0, 0.0 ], [ -67.5, 0.0 ], [ -62.031248458223445, -22.5 ] ] ] } },
{ "type": "Feature", "properties": { "qtm": "630", "resolution": 3, "center_lat": -15.0, "center_lon": -16.822917180592185, "avg_edge_len": 2972325.3456460028, "cell_area": 3719206450654.6533, "cell_perimeter": 8916976.0369380079 }, "geometry": { "type": "Polygon", "coordinates": [ [ [ -22.5, 0.0 ], [ -27.968751541776555, -22.5 ], [ 0.0, -22.5 ], [ -22.5, 0.0 ] ] ] } },
{ "type": "Feature", "properties": { "qtm": "631", "resolution": 3, "center_lat": -7.5, "center_lon": -31.822917180592185, "avg_edge_len": 2720825.8370741033, "cell_area": 3175454402634.0947, "cell_perimeter": 8162477.5112223104 }, "geometry": { "type": "Polygon", "coordinates": [ [ [ -45.0, 0.0 ], [ -27.968751541776555, -22.5 ], [ -22.5, 0.0 ], [ -45.0, 0.0 ] ] ] } },
{ "type": "Feature", "properties": { "qtm": "632", "resolution": 3, "center_lat": -7.5, "center_lon": -7.5, "avg_edge_len": 2826143.1934202197, "cell_area": 3197547469578.8218, "cell_perimeter": 8478429.5802606586 }, "geometry": { "type": "Polygon", "coordinates": [ [ [ -22.5, 0.0 ], [ 0.0, -22.5 ], [ 0.0, 0.0 ], [ -22.5, 0.0 ] ] ] } },
{ "type": "Feature", "properties": { "qtm": "633", "resolution": 3, "center_lat": -30.0, "center_lon": -9.3229171805921851, "avg_edge_len": 2977621.244450374, "cell_area": 3660484109152.4648, "cell_perimeter": 8932863.7333511226 }, "geometry": { "type": "Polygon", "coordinates": [ [ [ -27.968751541776555, -22.5 ], [ 0.0, -45.0 ], [ 0.0, -22.5 ], [ -27.968751541776555, -22.5 ] ] ] } },
{ "type": "Feature", "properties": { "qtm": "700", "resolution": 3, "center_lat": -30.000000000000004, "center_lon": 44.999999999999993, "avg_edge_len": 3125039.7635980216, "cell_area": 4260019209434.8438, "cell_perimeter": 9375119.2907940652 }, "geometry": { "type": "Polygon", "coordinates": [ [ [ 45.0, -45.0 ], [ 62.031248458223445, -22.5 ], [ 27.968751541776555, -22.5 ], [ 45.0, -45.0 ] ] ] } },
{ "type": "Feature", "properties": { "qtm": "701", "resolution": 3, "center_lat": -15.000000000000002, "center_lon": 44.999999999999993, "avg_edge_len": 3231702.1407145076, "cell_area": 4623910213408.9971, "cell_perimeter": 9695106.4221435227 }, "geometry": { "type": "Polygon", "coordinates": [ [ [ 27.968751541776555, -22.5 ], [ 62.031248458223445, -22.5 ], [ 45.0, 0.0 ], [ 27.968751541776555, -22.5 ] ] ] } },
{ "type": "Feature", "properties": { "qtm": "702", "resolution": 3, "center_lat": -37.5, "center_lon": 24.322917180592185, "avg_edge_len": 3334579.9722870351, "cell_area": 4888151955777.7832, "cell_perimeter": 10003739.916861106 }, "geometry": { "type": "Polygon", "coordinates": [ [ [ 0.0, -45.0 ], [ 45.0, -45.0 ], [ 27.968751541776555, -22.5 ], [ 0.0, -45.0 ] ] ] } },
{ "type": "Feature", "properties": { "qtm": "703", "resolution": 3, "center_lat": -37.5, "center_lon": 65.677082819407815, "avg_edge_len": 3334579.9722870351, "cell_area": 4888151955777.7832, "cell_perimeter": 10003739.916861106 }, "geometry": { "type": "Polygon", "coordinates": [ [ [ 45.0, -45.0 ], [ 90.0, -45.0 ], [ 62.031248458223445, -22.5 ], [ 45.0, -45.0 ] ] ] } },
{ "type": "Feature", "properties": { "qtm": "710", "resolution": 3, "center_lat": -60.0, "center_lon": 45.0, "avg_edge_len": 3573641.2164832503, "cell_area": 5752503262204.3359, "cell_perimeter": 10720923.649449751 }, "geometry": { "type": "Polygon", "coordinates": [ [ [ 0.0, -67.5 ], [ 90.0, -67.5 ], [ 45.0, -45.0 ], [ 0.0, -67.5 ] ] ] } },
{ "type": "Feature", "properties": { "qtm": "711", "resolution": 3, "center_lat": -78.75, "center_lon": 45.0, "avg_edge_len": 2843040.0068593533, "cell_area": 3235870812910.4609, "cell_perimeter": 8529120.0205780603 }, "geometry": { "type": "Polygon", "coordinates": [ [ [ 0.0, -90.0 ], [ 90.0, -90.0 ], [ 90.0, -67.5 ], [ 0.0, -67.5 ], [ 0.0, -90.0 ] ] ] } },
{ "type": "Feature", "properties": { "qtm": "712", "resolution": 3, "center_lat": -52.5, "center_lon": 15.0, "avg_edge_len": 3204727.7746952102, "cell_area": 4302105220978.3906, "cell_perimeter": 9614183.3240856305 }, "geometry": { "type": "Polygon", "coordinates": [ [ [ 0.0, -67.5 ], [ 45.0, -45.0 ], [ 0.0, -45.0 ], [ 0.0, -67.5 ] ] ] } },
{ "type": "Feature", "properties": { "qtm": "713", "resolution": 3, "center_lat": -52.5, "center_lon": 75.0, "avg_edge_len": 3204727.7746952102, "cell_area": 4302105220978.3906, "cell_perimeter": 9614183.3240856305 }, "geometry": { "type": "Polygon", "coordinates": [ [ [ 45.0, -45.0 ], [ 90.0, -67.5 ], [ 90.0, -45.0 ], [ 45.0, -45.0 ] ] ] } },
{ "type": "Feature", "properties": { "qtm": "720", "resolution": 3, "center_lat": -15.0, "center_lon": 16.822917180592185, "avg_edge_len": 2972325.3456460028, "cell_area": 3719206450654.6533, "cell_perimeter": 8916976.0369380079 }, "geometry": { "type": "Polygon", "coordinates": [ [ [ 0.0, -22.5 ], [ 27.968751541776555, -22.5 ], [ 22.5, 0.0 ], [ 0.0, -22.5 ] ] ] } },
{ "type": "Feature", "properties": { "qtm": "721", "resolution": 3, "center_lat": -30.0, "center_lon": 9.3229171805921851, "avg_edge_len": 2977621.244450374, "cell_area": 3660484109152.4648, "cell_perimeter": 8932863.7333511226 }, "geometry": { "type": "Polygon", "coordinates": [ [ [ 0.0, -45.0 ], [ 27.968751541776555, -22.5 ], [ 0.0, -22.5 ], [ 0.0, -45.0 ] ] ] } },
{ "type": "Feature", "properties": { "qtm": "722", "resolution": 3, "center_lat": -7.5, "center_lon": 7.5, "avg_edge_len": 2826143.1934202197, "cell_area": 3197547469578.8218, "cell_perimeter": 8478429.5802606586 }, "geometry": { "type": "Polygon", "coordinates": [ [ [ 0.0, -22.5 ], [ 22.5, 0.0 ], [ 0.0, 0.0 ], [ 0.0, -22.5 ] ] ] } },
{ "type": "Feature", "properties": { "qtm": "723", "resolution": 3, "center_lat": -7.5, "center_lon": 31.822917180592185, "avg_edge_len": 2720825.8370741033, "cell_area": 3175454402634.0947, "cell_perimeter": 8162477.5112223104 }, "geometry": { "type": "Polygon", "coordinates": [ [ [ 27.968751541776555, -22.5 ], [ 45.0, 0.0 ], [ 22.5, 0.0 ], [ 27.968751541776555, -22.5 ] ] ] } },
{ "type": "Feature", "properties": { "qtm": "730", "resolution": 3, "center_lat": -15.0, "center_lon": 73.177082819407815, "avg_edge_len": 2972325.3456460028, "cell_area": 3719206450654.6533, "cell_perimeter": 8916976.0369380079 }, "geometry": { "type": "Polygon", "coordinates": [ [ [ 67.5, 0.0 ], [ 62.031248458223445, -22.5 ], [ 90.0, -22.5 ], [ 67.5, 0.0 ] ] ] } },
{ "type": "Feature", "properties": { "qtm": "731", "resolution": 3, "center_lat": -7.5, "center_lon": 58.177082819407815, "avg_edge_len": 2720825.8370741033, "cell_area": 3175454402634.0947, "cell_perimeter": 8162477.5112223104 }, "geometry": { "type": "Polygon", "coordinates": [ [ [ 45.0, 0.0 ], [ 62.031248458223445, -22.5 ], [ 67.5, 0.0 ], [ 45.0, 0.0 ] ] ] } },
{ "type": "Feature", "properties": { "qtm": "732", "resolution": 3, "center_lat": -7.5, "center_lon": 82.5, "avg_edge_len": 2826143.1934202197, "cell_area": 3197547469578.8218, "cell_perimeter": 8478429.5802606586 }, "geometry": { "type": "Polygon", "coordinates": [ [ [ 67.5, 0.0 ], [ 90.0, -22.5 ], [ 90.0, 0.0 ], [ 67.5, 0.0 ] ] ] } },
{ "type": "Feature", "properties": { "qtm": "733", "resolution": 3, "center_lat": -30.0, "center_lon": 80.677082819407815, "avg_edge_len": 2977621.244450374, "cell_area": 3660484109152.4648, "cell_perimeter": 8932863.7333511226 }, "geometry": { "type": "Polygon", "coordinates": [ [ [ 62.031248458223445, -22.5 ], [ 90.0, -45.0 ], [ 90.0, -22.5 ], [ 62.031248458223445, -22.5 ] ] ] } },
{ "type": "Feature", "properties": { "qtm": "800", "resolution": 3, "center_lat": -30.000000000000004, "center_lon": 135.0, "avg_edge_len": 3125039.7635980216, "cell_area": 4260019209434.8438, "cell_perimeter": 9375119.2907940652 }, "geometry": { "type": "Polygon", "coordinates": [ [ [ 135.0, -45.0 ], [ 152.031248458223445, -22.5 ], [ 117.968751541776555, -22.5 ], [ 135.0, -45.0 ] ] ] } },
{ "type": "Feature", "properties": { "qtm": "801", "resolution": 3, "center_lat": -15.000000000000002, "center_lon": 135.0, "avg_edge_len": 3231702.1407145076, "cell_area": 4623910213408.9971, "cell_perimeter": 9695106.4221435227 }, "geometry": { "type": "Polygon", "coordinates": [ [ [ 117.968751541776555, -22.5 ], [ 152.031248458223445, -22.5 ], [ 135.0, 0.0 ], [ 117.968751541776555, -22.5 ] ] ] } },
{ "type": "Feature", "properties": { "qtm": "802", "resolution": 3, "center_lat": -37.5, "center_lon": 114.3229171805922, "avg_edge_len": 3334579.9722870351, "cell_area": 4888151955777.7832, "cell_perimeter": 10003739.916861106 }, "geometry": { "type": "Polygon", "coordinates": [ [ [ 90.0, -45.0 ], [ 135.0, -45.0 ], [ 117.968751541776555, -22.5 ], [ 90.0, -45.0 ] ] ] } },
{ "type": "Feature", "properties": { "qtm": "803", "resolution": 3, "center_lat": -37.5, "center_lon": 155.67708281940781, "avg_edge_len": 3334579.9722870351, "cell_area": 4888151955777.7832, "cell_perimeter": 10003739.916861106 }, "geometry": { "type": "Polygon", "coordinates": [ [ [ 135.0, -45.0 ], [ 180.0, -45.0 ], [ 152.031248458223445, -22.5 ], [ 135.0, -45.0 ] ] ] } },
{ "type": "Feature", "properties": { "qtm": "810", "resolution": 3, "center_lat": -60.0, "center_lon": 135.0, "avg_edge_len": 3573641.2164832503, "cell_area": 5752503262204.3359, "cell_perimeter": 10720923.649449751 }, "geometry": { "type": "Polygon", "coordinates": [ [ [ 90.0, -67.5 ], [ 180.0, -67.5 ], [ 135.0, -45.0 ], [ 90.0, -67.5 ] ] ] } },
{ "type": "Feature", "properties": { "qtm": "811", "resolution": 3, "center_lat": -78.75, "center_lon": 135.0, "avg_edge_len": 2843040.0068593533, "cell_area": 3235870812910.4609, "cell_perimeter": 8529120.0205780603 }, "geometry": { "type": "Polygon", "coordinates": [ [ [ 90.0, -90.0 ], [ 180.0, -90.0 ], [ 180.0, -67.5 ], [ 90.0, -67.5 ], [ 90.0, -90.0 ] ] ] } },
{ "type": "Feature", "properties": { "qtm": "812", "resolution": 3, "center_lat": -52.5, "center_lon": 105.0, "avg_edge_len": 3204727.7746952102, "cell_area": 4302105220978.3906, "cell_perimeter": 9614183.3240856305 }, "geometry": { "type": "Polygon", "coordinates": [ [ [ 90.0, -67.5 ], [ 135.0, -45.0 ], [ 90.0, -45.0 ], [ 90.0, -67.5 ] ] ] } },
{ "type": "Feature", "properties": { "qtm": "813", "resolution": 3, "center_lat": -52.5, "center_lon": 165.0, "avg_edge_len": 3204727.7746952102, "cell_area": 4302105220978.3906, "cell_perimeter": 9614183.3240856305 }, "geometry": { "type": "Polygon", "coordinates": [ [ [ 135.0, -45.0 ], [ 180.0, -67.5 ], [ 180.0, -45.0 ], [ 135.0, -45.0 ] ] ] } },
{ "type": "Feature", "properties": { "qtm": "820", "resolution": 3, "center_lat": -15.0, "center_lon": 106.82291718059219, "avg_edge_len": 2972325.3456460028, "cell_area": 3719206450654.6533, "cell_perimeter": 8916976.0369380079 }, "geometry": { "type": "Polygon", "coordinates": [ [ [ 90.0, -22.5 ], [ 117.968751541776555, -22.5 ], [ 112.5, 0.0 ], [ 90.0, -22.5 ] ] ] } },
{ "type": "Feature", "properties": { "qtm": "821", "resolution": 3, "center_lat": -30.0, "center_lon": 99.322917180592185, "avg_edge_len": 2977621.244450374, "cell_area": 3660484109152.4648, "cell_perimeter": 8932863.7333511226 }, "geometry": { "type": "Polygon", "coordinates": [ [ [ 90.0, -45.0 ], [ 117.968751541776555, -22.5 ], [ 90.0, -22.5 ], [ 90.0, -45.0 ] ] ] } },
{ "type": "Feature", "properties": { "qtm": "822", "resolution": 3, "center_lat": -7.5, "center_lon": 97.5, "avg_edge_len": 2826143.1934202197, "cell_area": 3197547469578.8218, "cell_perimeter": 8478429.5802606586 }, "geometry": { "type": "Polygon", "coordinates": [ [ [ 90.0, -22.5 ], [ 112.5, 0.0 ], [ 90.0, 0.0 ], [ 90.0, -22.5 ] ] ] } },
{ "type": "Feature", "properties": { "qtm": "823", "resolution": 3, "center_lat": -7.5, "center_lon": 121.8229171805922, "avg_edge_len": 2720825.8370741033, "cell_area": 3175454402634.0947, "cell_perimeter": 8162477.5112223104 }, "geometry": { "type": "Polygon", "coordinates": [ [ [ 117.968751541776555, -22.5 ], [ 135.0, 0.0 ], [ 112.5, 0.0 ], [ 117.968751541776555, -22.5 ] ] ] } },
{ "type": "Feature", "properties": { "qtm": "830", "resolution": 3, "center_lat": -15.0, "center_lon": 163.17708281940781, "avg_edge_len": 2972325.3456460028, "cell_area": 3719206450654.6533, "cell_perimeter": 8916976.0369380079 }, "geometry": { "type": "Polygon", "coordinates": [ [ [ 157.5, 0.0 ], [ 152.031248458223445, -22.5 ], [ 180.0, -22.5 ], [ 157.5, 0.0 ] ] ] } },
{ "type": "Feature", "properties": { "qtm": "831", "resolution": 3, "center_lat": -7.5, "center_lon": 148.17708281940781, "avg_edge_len": 2720825.8370741033, "cell_area": 3175454402634.0947, "cell_perimeter": 8162477.5112223104 }, "geometry": { "type": "Polygon", "coordinates": [ [ [ 135.0, 0.0 ], [ 152.031248458223445, -22.5 ], [ 157.5, 0.0 ], [ 135.0, 0.0 ] ] ] } },
{ "type": "Feature", "properties": { "qtm": "832", "resolution": 3, "center_lat": -7.5, "center_lon": 172.5, "avg_edge_len": 2826143.1934202197, "cell_area": 3197547469578.8218, "cell_perimeter": 8478429.5802606586 }, "geometry": { "type": "Polygon", "coordinates": [ [ [ 157.5, 0.0 ], [ 180.0, -22.5 ], [ 180.0, 0.0 ], [ 157.5, 0.0 ] ] ] } },
{ "type": "Feature", "properties": { "qtm": "833", "resolution": 3, "center_lat": -30.0, "center_lon": 170.67708281940781, "avg_edge_len": 2977621.244450374, "cell_area": 3660484109152.4648, "cell_perimeter": 8932863.7333511226 }, "geometry": { "type": "Polygon", "coordinates": [ [ [ 152.031248458223445, -22.5 ], [ 180.0, -45.0 ], [ 180.0, -22.5 ], [ 152.031248458223445, -22.5 ] ] ] } }
]
}
