{
"type": "FeatureCollection",
"name": "superfund_0",
"features": [
{ "type": "Feature", "properties": { "global_id": "10", "ipq": 0.673, "pentagon": 1 }, "geometry": { "type": "Polygon", "coordinates": [ [ [ -23.605937059891986, 70.5004973106591 ], [ 46.105937059891986, 70.5004973106591 ], [ 39.166152615315802, 48.752923261632304 ], [ 11.25, 39.343671660502288 ], [ -16.666152617098803, 48.752923261582843 ], [ -23.605937059891986, 70.5004973106591 ] ] ] } },
{ "type": "Feature", "properties": { "global_id": "11", "ipq": 0.204, "pentagon": 1 }, "geometry": { "type": "Polygon", "coordinates": [ [ [ -140.833847385199363, 48.752923255284472 ], [ -168.75, 39.343671657670534 ], [ 163.333847385541418, 48.752923256439253 ], [ 156.394062939334759, 70.500497311529458 ], [ -133.894062941071212, 70.500497310505537 ], [ -140.833847385199363, 48.752923255284472 ] ] ] } },
{ "type": "Feature", "properties": { "global_id": "12", "ipq": 0.006 }, "geometry": { "type": "Polygon", "coordinates": [ [ [ -78.749999999982492, 69.094842552902293 ], [ -133.894062941071212, 70.500497310505537 ], [ 156.394062939334759, 70.500497311529458 ], [ 101.249999999982492, 69.094842552902293 ], [ 46.105937059891986, 70.5004973106591 ], [ -23.605937059891986, 70.5004973106591 ], [ -78.749999999982492, 69.094842552902293 ] ] ] } },
{ "type": "Feature", "properties": { "global_id": "13", "ipq": 0.879 }, "geometry": { "type": "Polygon", "coordinates": [ [ [ -130.979822067553641, 17.979329772223831 ], [ -152.547259575996804, 10.997778889064975 ], [ -168.75, 20.90515744810174 ], [ -168.75, 39.343671657670534 ], [ -140.833847385199363, 48.752923255284472 ], [ -123.750000001506194, 35.264389680172599 ], [ -130.979822067553641, 17.979329772223831 ] ] ] } },
{ "type": "Feature", "properties": { "global_id": "14", "ipq": 0.794 }, "geometry": { "type": "Polygon", "coordinates": [ [ [ -101.070094601220518, 35.632653540153875 ], [ -123.750000001506194, 35.264389680172599 ], [ -140.833847385199363, 48.752923255284472 ], [ -133.894062941071212, 70.500497310505537 ], [ -78.749999999982492, 69.094842552902293 ], [ -78.749999998102737, 50.656328343890713 ], [ -101.070094601220518, 35.632653540153875 ] ] ] } },
{ "type": "Feature", "properties": { "global_id": "15", "ipq": 0.849, "pentagon": 1 }, "geometry": { "type": "Polygon", "coordinates": [ [ [ -67.309092027127477, 15.89721100155502 ], [ -90.190907974167871, 15.897211004846977 ], [ -101.070094601220518, 35.632653540153875 ], [ -78.749999998102737, 50.656328343890713 ], [ -56.429905401159857, 35.63265354452615 ], [ -67.309092027127477, 15.89721100155502 ] ] ] } },
{ "type": "Feature", "properties": { "global_id": "16", "ipq": 0.794 }, "geometry": { "type": "Polygon", "coordinates": [ [ [ -33.749999999543114, 35.264389685039362 ], [ -56.429905401159857, 35.63265354452615 ], [ -78.749999998102737, 50.656328343890713 ], [ -78.749999999982492, 69.094842552902293 ], [ -23.605937059891986, 70.5004973106591 ], [ -16.666152615315806, 48.752923261632304 ], [ -33.749999999543114, 35.264389685039362 ] ] ] } },
{ "type": "Feature", "properties": { "global_id": "17", "ipq": 0.901 }, "geometry": { "type": "Polygon", "coordinates": [ [ [ -67.309092025832143, -15.897211004846982 ], [ -90.190907972872523, -15.897211001555025 ], [ -99.655157447052574, 0.000000000927928 ], [ -90.190907974167871, 15.897211004846977 ], [ -67.309092027127477, 15.89721100155502 ], [ -57.844842552947426, -0.000000000927932 ], [ -67.309092025832143, -15.897211004846982 ] ] ] } },
{ "type": "Feature", "properties": { "global_id": "18", "ipq": 0.902 }, "geometry": { "type": "Polygon", "coordinates": [ [ [ -39.406328343012099, -0.000000000751863 ], [ -57.844842552947426, -0.000000000927932 ], [ -67.309092027127477, 15.89721100155502 ], [ -56.429905401159857, 35.63265354452615 ], [ -33.749999999543114, 35.264389685039362 ], [ -26.520177931740037, 17.979329778149772 ], [ -39.406328343012099, -0.000000000751863 ] ] ] } },
{ "type": "Feature", "properties": { "global_id": "19", "ipq": 0.865, "pentagon": 1 }, "geometry": { "type": "Polygon", "coordinates": [ [ [ -4.952740424003197, -10.997778889064982 ], [ -26.520177932446359, -17.979329772223839 ], [ -39.406328343012099, -0.000000000751863 ], [ -26.520177931740037, 17.979329778149772 ], [ -4.952740424511854, 10.997778890660468 ], [ -4.952740424003197, -10.997778889064982 ] ] ] } },
{ "type": "Feature", "properties": { "global_id": "20", "ipq": 0.879 }, "geometry": { "type": "Polygon", "coordinates": [ [ [ 11.25, 20.905157450933491 ], [ -4.952740424511854, 10.997778890660468 ], [ -26.520177931740037, 17.979329778149772 ], [ -33.749999999543114, 35.264389685039362 ], [ -16.666152615315806, 48.752923261632304 ], [ 11.25, 39.343671660502288 ], [ 11.25, 20.905157450933491 ] ] ] } },
{ "type": "Feature", "properties": { "global_id": "21", "ipq": 0.879 }, "geometry": { "type": "Polygon", "coordinates": [ [ [ 11.25, -39.343671657670541 ], [ -16.666152614800652, -48.752923255284479 ], [ -33.749999998493813, -35.264389680172599 ], [ -26.520177932446359, -17.979329772223839 ], [ -4.952740424003197, -10.997778889064982 ], [ 11.25, -20.905157448101747 ], [ 11.25, -39.343671657670541 ] ] ] } },
{ "type": "Feature", "properties": { "global_id": "22", "ipq": 0.903 }, "geometry": { "type": "Polygon", "coordinates": [ [ [ 27.452740424358293, -10.9977788879412 ], [ 11.25, -20.905157448101747 ], [ -4.952740424003197, -10.997778889064982 ], [ -4.952740424511854, 10.997778890660468 ], [ 11.25, 20.905157450933491 ], [ 27.452740424156758, 10.99777889178425 ], [ 27.452740424358293, -10.9977788879412 ] ] ] } },
{ "type": "Feature", "properties": { "global_id": "23", "ipq": 0.865, "pentagon": 1 }, "geometry": { "type": "Polygon", "coordinates": [ [ [ 61.906328343935854, -0.00000000148061 ], [ 49.020177932446359, -17.979329772223839 ], [ 27.452740424358293, -10.9977788879412 ], [ 27.452740424156758, 10.99777889178425 ], [ 49.020177932149117, 17.979329777039371 ], [ 61.906328343935854, -0.00000000148061 ] ] ] } },
{ "type": "Feature", "properties": { "global_id": "24", "ipq": 0.879 }, "geometry": { "type": "Polygon", "coordinates": [ [ [ 56.249999999543114, 35.264389685039362 ], [ 49.020177932149117, 17.979329777039371 ], [ 27.452740424156758, 10.99777889178425 ], [ 11.25, 20.905157450933491 ], [ 11.25, 39.343671660502288 ], [ 39.166152615315802, 48.752923261632304 ], [ 56.249999999543114, 35.264389685039362 ] ] ] } },
{ "type": "Feature", "properties": { "global_id": "25", "ipq": 0.902 }, "geometry": { "type": "Polygon", "coordinates": [ [ [ 89.809092025832143, -15.897211004846982 ], [ 78.929905397562138, -35.632653539517158 ], [ 56.249999998493813, -35.264389680172599 ], [ 49.020177932446359, -17.979329772223839 ], [ 61.906328343935854, -0.00000000148061 ], [ 80.344842552947426, -0.000000000927932 ], [ 89.809092025832143, -15.897211004846982 ] ] ] } },
{ "type": "Feature", "properties": { "global_id": "26", "ipq": 0.902 }, "geometry": { "type": "Polygon", "coordinates": [ [ [ 89.809092026979542, 15.897211002722988 ], [ 80.344842552947426, -0.000000000927932 ], [ 61.906328343935854, -0.00000000148061 ], [ 49.020177932149117, 17.979329777039371 ], [ 56.249999999543114, 35.264389685039362 ], [ 78.929905400114606, 35.63265354534019 ], [ 89.809092026979542, 15.897211002722988 ] ] ] } },
{ "type": "Feature", "properties": { "global_id": "27", "ipq": 0.849, "pentagon": 1 }, "geometry": { "type": "Polygon", "coordinates": [ [ [ 123.570094602437877, 35.63265353951715 ], [ 112.690907974167871, 15.897211004846977 ], [ 89.809092026979542, 15.897211002722988 ], [ 78.929905400114606, 35.63265354534019 ], [ 101.249999999252239, 50.656328342966965 ], [ 123.570094602437877, 35.63265353951715 ] ] ] } },
{ "type": "Feature", "properties": { "global_id": "28", "ipq": 0.794 }, "geometry": { "type": "Polygon", "coordinates": [ [ [ 101.249999999982492, 69.094842552902293 ], [ 101.249999999252239, 50.656328342966965 ], [ 78.929905400114606, 35.63265354534019 ], [ 56.249999999543114, 35.264389685039362 ], [ 39.166152615315802, 48.752923261632304 ], [ 46.105937059891986, 70.5004973106591 ], [ 101.249999999982492, 69.094842552902293 ] ] ] } },
{ "type": "Feature", "properties": { "global_id": "29", "ipq": 0.902 }, "geometry": { "type": "Polygon", "coordinates": [ [ [ 153.479822067553641, 17.979329772223831 ], [ 140.593671656064146, 0.000000001480606 ], [ 122.155157447052574, 0.000000000927928 ], [ 112.690907974167871, 15.897211004846977 ], [ 123.570094602437877, 35.63265353951715 ], [ 146.25000000150618, 35.264389680172599 ], [ 153.479822067553641, 17.979329772223831 ] ] ] } },
{ "type": "Feature", "properties": { "global_id": "30", "ipq": 0.794 }, "geometry": { "type": "Polygon", "coordinates": [ [ [ 163.333847385541418, 48.752923256439253 ], [ 146.25000000150618, 35.264389680172599 ], [ 123.570094602437877, 35.63265353951715 ], [ 101.249999999252239, 50.656328342966965 ], [ 101.249999999982492, 69.094842552902293 ], [ 156.394062939334759, 70.500497311529458 ], [ 163.333847385541418, 48.752923256439253 ] ] ] } },
{ "type": "Feature", "properties": { "global_id": "31", "ipq": 0.865, "pentagon": 1 }, "geometry": { "type": "Polygon", "coordinates": [ [ [ -130.979822068259978, -17.979329778149776 ], [ -152.547259575488141, -10.99777889066047 ], [ -152.547259575996804, 10.997778889064975 ], [ -130.979822067553641, 17.979329772223831 ], [ -118.093671656987908, 0.000000000751859 ], [ -130.979822068259978, -17.979329778149776 ] ] ] } },
{ "type": "Feature", "properties": { "global_id": "32", "ipq": 0.902 }, "geometry": { "type": "Polygon", "coordinates": [ [ [ -99.655157447052574, 0.000000000927928 ], [ -118.093671656987908, 0.000000000751859 ], [ -130.979822067553641, 17.979329772223831 ], [ -123.750000001506194, 35.264389680172599 ], [ -101.070094601220518, 35.632653540153875 ], [ -90.190907974167871, 15.897211004846977 ], [ -99.655157447052574, 0.000000000927928 ] ] ] } },
{ "type": "Feature", "properties": { "global_id": "33", "ipq": 0.879 }, "geometry": { "type": "Polygon", "coordinates": [ [ [ -140.833847384684191, -48.752923261632304 ], [ -168.75, -39.343671660502288 ], [ -168.75, -20.905157450933494 ], [ -152.547259575488141, -10.99777889066047 ], [ -130.979822068259978, -17.979329778149776 ], [ -123.750000000456893, -35.264389685039362 ], [ -140.833847384684191, -48.752923261632304 ] ] ] } },
{ "type": "Feature", "properties": { "global_id": "34", "ipq": 0.902 }, "geometry": { "type": "Polygon", "coordinates": [ [ [ -101.070094598840143, -35.632653544526157 ], [ -123.750000000456893, -35.264389685039362 ], [ -130.979822068259978, -17.979329778149776 ], [ -118.093671656987908, 0.000000000751859 ], [ -99.655157447052574, 0.000000000927928 ], [ -90.190907972872523, -15.897211001555025 ], [ -101.070094598840143, -35.632653544526157 ] ] ] } },
{ "type": "Feature", "properties": { "global_id": "35", "ipq": 0.849, "pentagon": 1 }, "geometry": { "type": "Polygon", "coordinates": [ [ [ -78.750000001897263, -50.656328343890721 ], [ -101.070094598840143, -35.632653544526157 ], [ -90.190907972872523, -15.897211001555025 ], [ -67.309092025832143, -15.897211004846982 ], [ -56.429905398779489, -35.632653540153882 ], [ -78.750000001897263, -50.656328343890721 ] ] ] } },
{ "type": "Feature", "properties": { "global_id": "36", "ipq": 0.902 }, "geometry": { "type": "Polygon", "coordinates": [ [ [ -33.749999998493813, -35.264389680172599 ], [ -56.429905398779489, -35.632653540153882 ], [ -67.309092025832143, -15.897211004846982 ], [ -57.844842552947426, -0.000000000927932 ], [ -39.406328343012099, -0.000000000751863 ], [ -26.520177932446359, -17.979329772223839 ], [ -33.749999998493813, -35.264389680172599 ] ] ] } },
{ "type": "Feature", "properties": { "global_id": "37", "ipq": 0.794 }, "geometry": { "type": "Polygon", "coordinates": [ [ [ -133.894062940108029, -70.5004973106591 ], [ -140.833847384684191, -48.752923261632304 ], [ -123.750000000456893, -35.264389685039362 ], [ -101.070094598840143, -35.632653544526157 ], [ -78.750000001897263, -50.656328343890721 ], [ -78.750000000017522, -69.094842552902293 ], [ -133.894062940108029, -70.5004973106591 ] ] ] } },
{ "type": "Feature", "properties": { "global_id": "38", "ipq": 0.794 }, "geometry": { "type": "Polygon", "coordinates": [ [ [ -23.605937058928788, -70.500497310505537 ], [ -78.750000000017522, -69.094842552902293 ], [ -78.750000001897263, -50.656328343890721 ], [ -56.429905398779489, -35.632653540153882 ], [ -33.749999998493813, -35.264389680172599 ], [ -16.666152614800652, -48.752923255284479 ], [ -23.605937058928788, -70.500497310505537 ] ] ] } },
{ "type": "Feature", "properties": { "global_id": "39", "ipq": 0.673, "pentagon": 1 }, "geometry": { "type": "Polygon", "coordinates": [ [ [ 46.105937060665234, -70.500497311529458 ], [ -23.605937058928788, -70.500497310505537 ], [ -16.666152614800652, -48.752923255284479 ], [ 11.25, -39.343671657670541 ], [ 39.166152614458575, -48.75292325643926 ], [ 46.105937060665234, -70.500497311529458 ] ] ] } },
{ "type": "Feature", "properties": { "global_id": "40", "ipq": 0.879 }, "geometry": { "type": "Polygon", "coordinates": [ [ [ 56.249999998493813, -35.264389680172599 ], [ 39.166152614458575, -48.75292325643926 ], [ 11.25, -39.343671657670541 ], [ 11.25, -20.905157448101747 ], [ 27.452740424358293, -10.9977788879412 ], [ 49.020177932446359, -17.979329772223839 ], [ 56.249999998493813, -35.264389680172599 ] ] ] } },
{ "type": "Feature", "properties": { "global_id": "41", "ipq": 0.006 }, "geometry": { "type": "Polygon", "coordinates": [ [ [ 156.394062940108029, -70.5004973106591 ], [ -133.894062940108029, -70.5004973106591 ], [ -78.750000000017522, -69.094842552902293 ], [ -23.605937058928788, -70.500497310505537 ], [ 46.105937060665234, -70.500497311529458 ], [ 101.250000000017522, -69.094842552902293 ], [ 156.394062940108029, -70.5004973106591 ] ] ] } },
{ "type": "Feature", "properties": { "global_id": "42", "ipq": 0.794 }, "geometry": { "type": "Polygon", "coordinates": [ [ [ 101.250000000747761, -50.656328342966965 ], [ 101.250000000017522, -69.094842552902293 ], [ 46.105937060665234, -70.500497311529458 ], [ 39.166152614458575, -48.75292325643926 ], [ 56.249999998493813, -35.264389680172599 ], [ 78.929905397562138, -35.632653539517158 ], [ 101.250000000747761, -50.656328342966965 ] ] ] } },
{ "type": "Feature", "properties": { "global_id": "43", "ipq": 0.849, "pentagon": 1 }, "geometry": { "type": "Polygon", "coordinates": [ [ [ 123.570094599885394, -35.632653545340197 ], [ 101.250000000747761, -50.656328342966965 ], [ 78.929905397562138, -35.632653539517158 ], [ 89.809092025832143, -15.897211004846982 ], [ 112.690907973020458, -15.897211002722992 ], [ 123.570094599885394, -35.632653545340197 ] ] ] } },
{ "type": "Feature", "properties": { "global_id": "44", "ipq": 0.901, "pentagon": 1 }, "geometry": { "type": "Polygon", "coordinates": [ [ [ 122.155157447052574, 0.000000000927928 ], [ 112.690907973020458, -15.897211002722992 ], [ 89.809092025832143, -15.897211004846982 ], [ 80.344842552947426, -0.000000000927932 ], [ 89.809092026979542, 15.897211002722988 ], [ 112.690907974167871, 15.897211004846977 ], [ 122.155157447052574, 0.000000000927928 ] ] ] } },
{ "type": "Feature", "properties": { "global_id": "45", "ipq": 0.794 }, "geometry": { "type": "Polygon", "coordinates": [ [ [ 163.333847384684191, -48.752923261632304 ], [ 156.394062940108029, -70.5004973106591 ], [ 101.250000000017522, -69.094842552902293 ], [ 101.250000000747761, -50.656328342966965 ], [ 123.570094599885394, -35.632653545340197 ], [ 146.250000000456879, -35.264389685039362 ], [ 163.333847384684191, -48.752923261632304 ] ] ] } },
{ "type": "Feature", "properties": { "global_id": "46", "ipq": 0.902 }, "geometry": { "type": "Polygon", "coordinates": [ [ [ 153.479822067850876, -17.979329777039375 ], [ 146.250000000456879, -35.264389685039362 ], [ 123.570094599885394, -35.632653545340197 ], [ 112.690907973020458, -15.897211002722992 ], [ 122.155157447052574, 0.000000000927928 ], [ 140.593671656064146, 0.000000001480606 ], [ 153.479822067850876, -17.979329777039375 ] ] ] } },
{ "type": "Feature", "properties": { "global_id": "47", "ipq": 0.865 }, "geometry": { "type": "Polygon", "coordinates": [ [ [ 175.047259575843242, -10.997778891784254 ], [ 153.479822067850876, -17.979329777039375 ], [ 140.593671656064146, 0.000000001480606 ], [ 153.479822067553641, 17.979329772223831 ], [ 175.047259575641704, 10.997778887941193 ], [ 175.047259575843242, -10.997778891784254 ] ] ] } },
{ "type": "Feature", "properties": { "global_id": "48", "ipq": 0.195, "pentagon": 1 }, "geometry": { "type": "Polygon", "coordinates": [ [ [ -168.75, 20.90515744810174 ], [ 175.047259575641704, 10.997778887941193 ], [ 153.479822067553641, 17.979329772223831 ], [ 146.25000000150618, 35.264389680172599 ], [ 163.333847385541418, 48.752923256439253 ], [ -168.75, 39.343671657670534 ], [ -168.75, 20.90515744810174 ] ] ] } },
{ "type": "Feature", "properties": { "global_id": "49", "ipq": 0.195, "pentagon": 1 }, "geometry": { "type": "Polygon", "coordinates": [ [ [ -168.75, -39.343671660502288 ], [ 163.333847384684191, -48.752923261632304 ], [ 146.250000000456879, -35.264389685039362 ], [ 153.479822067850876, -17.979329777039375 ], [ 175.047259575843242, -10.997778891784254 ], [ -168.75, -20.905157450933494 ], [ -168.75, -39.343671660502288 ] ] ] } },
{ "type": "Feature", "properties": { "global_id": "50", "ipq": 0.222, "pentagon": 1 }, "geometry": { "type": "Polygon", "coordinates": [ [ [ -152.547259575488141, -10.99777889066047 ], [ -168.75, -20.905157450933494 ], [ 175.047259575843242, -10.997778891784254 ], [ 175.047259575641704, 10.997778887941193 ], [ -168.75, 20.90515744810174 ], [ -152.547259575996804, 10.997778889064975 ], [ -152.547259575488141, -10.99777889066047 ] ] ] } },
{ "type": "Feature", "properties": { "global_id": "51", "ipq": 0.204, "pentagon": 1 }, "geometry": { "type": "Polygon", "coordinates": [ [ [ 163.333847384684191, -48.752923261632304 ], [ -168.75, -39.343671660502288 ], [ -140.833847384684191, -48.752923261632304 ], [ -133.894062940108029, -70.5004973106591 ], [ 156.394062936720644, -70.500497310333742 ], [ 163.333847384684191, -48.752923261632304 ] ] ] } }
]
}
