{
"type": "FeatureCollection",
"name": "superfund_0_pentagon",
"crs": { "type": "name", "properties": { "name": "urn:ogc:def:crs:OGC:1.3:CRS84" } },
"features": [
{ "type": "Feature", "properties": { "global_id": "10", "ipq": 0.673, "pentagon": 1 }, "geometry": { "type": "Polygon", "coordinates": [ [ [ -23.605937059891986, 70.5004973106591 ], [ 46.105937059891986, 70.5004973106591 ], [ 39.166152615315802, 48.752923261632304 ], [ 11.25, 39.343671660502288 ], [ -16.666152617098803, 48.752923261582843 ], [ -23.605937059891986, 70.5004973106591 ] ] ] } },
{ "type": "Feature", "properties": { "global_id": "11", "ipq": 0.204, "pentagon": 1 }, "geometry": { "type": "Polygon", "coordinates": [ [ [ -140.833847385199363, 48.752923255284472 ], [ -168.75, 39.343671657670534 ], [ 163.333847385541418, 48.752923256439253 ], [ 156.394062939334759, 70.500497311529458 ], [ -133.894062941071212, 70.500497310505537 ], [ -140.833847385199363, 48.752923255284472 ] ] ] } },
{ "type": "Feature", "properties": { "global_id": "15", "ipq": 0.849, "pentagon": 1 }, "geometry": { "type": "Polygon", "coordinates": [ [ [ -67.309092027127477, 15.89721100155502 ], [ -90.190907974167871, 15.897211004846977 ], [ -101.070094601220518, 35.632653540153875 ], [ -78.749999998102737, 50.656328343890713 ], [ -56.429905401159857, 35.63265354452615 ], [ -67.309092027127477, 15.89721100155502 ] ] ] } },
{ "type": "Feature", "properties": { "global_id": "19", "ipq": 0.865, "pentagon": 1 }, "geometry": { "type": "Polygon", "coordinates": [ [ [ -4.952740424003197, -10.997778889064982 ], [ -26.520177932446359, -17.979329772223839 ], [ -39.406328343012099, -0.000000000751863 ], [ -26.520177931740037, 17.979329778149772 ], [ -4.952740424511854, 10.997778890660468 ], [ -4.952740424003197, -10.997778889064982 ] ] ] } },
{ "type": "Feature", "properties": { "global_id": "23", "ipq": 0.865, "pentagon": 1 }, "geometry": { "type": "Polygon", "coordinates": [ [ [ 61.906328343935854, -0.00000000148061 ], [ 49.020177932446359, -17.979329772223839 ], [ 27.452740424358293, -10.9977788879412 ], [ 27.452740424156758, 10.99777889178425 ], [ 49.020177932149117, 17.979329777039371 ], [ 61.906328343935854, -0.00000000148061 ] ] ] } },
{ "type": "Feature", "properties": { "global_id": "27", "ipq": 0.849, "pentagon": 1 }, "geometry": { "type": "Polygon", "coordinates": [ [ [ 123.570094602437877, 35.63265353951715 ], [ 112.690907974167871, 15.897211004846977 ], [ 89.809092026979542, 15.897211002722988 ], [ 78.929905400114606, 35.63265354534019 ], [ 101.249999999252239, 50.656328342966965 ], [ 123.570094602437877, 35.63265353951715 ] ] ] } },
{ "type": "Feature", "properties": { "global_id": "31", "ipq": 0.865, "pentagon": 1 }, "geometry": { "type": "Polygon", "coordinates": [ [ [ -130.979822068259978, -17.979329778149776 ], [ -152.547259575488141, -10.99777889066047 ], [ -152.547259575996804, 10.997778889064975 ], [ -130.979822067553641, 17.979329772223831 ], [ -118.093671656987908, 0.000000000751859 ], [ -130.979822068259978, -17.979329778149776 ] ] ] } },
{ "type": "Feature", "properties": { "global_id": "35", "ipq": 0.849, "pentagon": 1 }, "geometry": { "type": "Polygon", "coordinates": [ [ [ -78.750000001897263, -50.656328343890721 ], [ -101.070094598840143, -35.632653544526157 ], [ -90.190907972872523, -15.897211001555025 ], [ -67.309092025832143, -15.897211004846982 ], [ -56.429905398779489, -35.632653540153882 ], [ -78.750000001897263, -50.656328343890721 ] ] ] } },
{ "type": "Feature", "properties": { "global_id": "39", "ipq": 0.673, "pentagon": 1 }, "geometry": { "type": "Polygon", "coordinates": [ [ [ 46.105937060665234, -70.500497311529458 ], [ -23.605937058928788, -70.500497310505537 ], [ -16.666152614800652, -48.752923255284479 ], [ 11.25, -39.343671657670541 ], [ 39.166152614458575, -48.75292325643926 ], [ 46.105937060665234, -70.500497311529458 ] ] ] } },
{ "type": "Feature", "properties": { "global_id": "43", "ipq": 0.849, "pentagon": 1 }, "geometry": { "type": "Polygon", "coordinates": [ [ [ 123.570094599885394, -35.632653545340197 ], [ 101.250000000747761, -50.656328342966965 ], [ 78.929905397562138, -35.632653539517158 ], [ 89.809092025832143, -15.897211004846982 ], [ 112.690907973020458, -15.897211002722992 ], [ 123.570094599885394, -35.632653545340197 ] ] ] } },
{ "type": "Feature", "properties": { "global_id": "51", "ipq": 0.204, "pentagon": 1 }, "geometry": { "type": "Polygon", "coordinates": [ [ [ 163.333847384684191, -48.752923261632304 ], [ -168.75, -39.343671660502288 ], [ -140.833847384684191, -48.752923261632304 ], [ -133.894062940108029, -70.5004973106591 ], [ 156.394062936720644, -70.500497310333742 ], [ 163.333847384684191, -48.752923261632304 ] ] ] } },
{ "type": "Feature", "properties": { "global_id": "47", "ipq": 0.865, "pentagon": null }, "geometry": { "type": "Polygon", "coordinates": [ [ [ 175.047259575843242, -10.997778891784254 ], [ 153.479822067850876, -17.979329777039375 ], [ 140.593671656064146, 0.000000001480606 ], [ 153.479822067553641, 17.979329772223831 ], [ 175.047259575641704, 10.997778887941193 ], [ 175.047259575843242, -10.997778891784254 ] ] ] } }
]
}
