{
"type": "FeatureCollection",
"name": "antimeridian2",
"crs": { "type": "name", "properties": { "name": "urn:ogc:def:crs:OGC:1.3:CRS84" } },
"features": [
{ "type": "Feature", "properties": { "name": "180 Antimeridian", "description": "The line of longitude at 180 degrees, opposite to the Prime Meridian" }, "geometry": { "type": "LineString", "coordinates": [ [ 180.0, 39.999885110294052 ], [ 180.0, -90.0 ] ] } },
{ "type": "Feature", "properties": { "name": "180 Antimeridian", "description": "The line of longitude at 180 degrees, opposite to the Prime Meridian" }, "geometry": { "type": "LineString", "coordinates": [ [ 180.0, 90.0 ], [ 180.0, 50.000802004269389 ] ] } }
]
}
