{
"type": "FeatureCollection",
"name": "polygon_split",
"crs": { "type": "name", "properties": { "name": "urn:ogc:def:crs:OGC:1.3:CRS84" } },
"features": [
{ "type": "Feature", "properties": { "name": "balanced" }, "geometry": { "type": "MultiPolygon", "coordinates": [ [ [ [ 180.0, 50.0 ], [ 150.0, 50.0 ], [ 150.0, 40.0 ], [ 180.0, 40.0 ], [ 180.0, 50.0 ] ] ], [ [ [ -180.0, 40.0 ], [ -179.875169836956502, 40.0 ], [ -160.0, 40.0 ], [ -160.0, 50.0 ], [ -179.875169836956502, 50.0 ], [ -180.0, 50.0 ], [ -180.0, 40.0 ] ] ] ] } }
]
}
