{
"type": "FeatureCollection",
"name": "hilbert_order4",
"crs": { "type": "name", "properties": { "name": "urn:ogc:def:crs:OGC:1.3:CRS84" } },
"features": [
{ "type": "Feature", "properties": { "order": 4 }, "geometry": { "type": "LineString", "coordinates": [ [ -180.0, 85.051128779806604 ], [ -157.5, 85.051128779806604 ], [ -157.5, 82.676284978349031 ], [ -180.0, 82.676284978349031 ], [ -180.0, 79.171334640819452 ], [ -180.0, 74.019543311502261 ], [ -157.5, 74.019543311502261 ], [ -157.5, 79.171334640819452 ], [ -135.0, 79.171334640819452 ], [ -135.0, 74.019543311502261 ], [ -112.5, 74.019543311502261 ], [ -112.5, 79.171334640819452 ], [ -112.5, 82.676284978349031 ], [ -135.0, 82.676284978349031 ], [ -135.0, 85.051128779806604 ], [ -112.5, 85.051128779806604 ], [ -90.0, 85.051128779806604 ], [ -90.0, 82.676284978349031 ], [ -67.5, 82.676284978349031 ], [ -67.5, 85.051128779806604 ], [ -45.0, 85.051128779806604 ], [ -22.5, 85.051128779806604 ], [ -22.5, 82.676284978349031 ], [ -45.0, 82.676284978349031 ], [ -45.0, 79.171334640819452 ], [ -22.5, 79.171334640819452 ], [ -22.5, 74.019543311502261 ], [ -45.0, 74.019543311502261 ], [ -67.5, 74.019543311502261 ], [ -67.5, 79.171334640819452 ], [ -90.0, 79.171334640819452 ], [ -90.0, 74.019543311502261 ], [ -90.0, 66.513260443111861 ], [ -90.0, 55.776573018667698 ], [ -67.5, 55.776573018667698 ], [ -67.5, 66.513260443111861 ], [ -45.0, 66.513260443111861 ], [ -22.5, 66.513260443111861 ], [ -22.5, 55.776573018667698 ], [ -45.0, 55.776573018667698 ], [ -45.0, 40.979898069620127 ], [ -22.5, 40.979898069620127 ], [ -22.5, 21.943045533438177 ], [ -45.0, 21.943045533438177 ], [ -67.5, 21.943045533438177 ], [ -67.5, 40.979898069620127 ], [ -90.0, 40.979898069620127 ], [ -90.0, 21.943045533438177 ], [ -112.5, 21.943045533438177 ], [ -135.0, 21.943045533438177 ], [ -135.0, 40.979898069620127 ], [ -112.5, 40.979898069620127 ], [ -112.5, 55.776573018667698 ], [ -112.5, 66.513260443111861 ], [ -135.0, 66.513260443111861 ], [ -135.0, 55.776573018667698 ], [ -157.5, 55.776573018667698 ], [ -157.5, 66.513260443111861 ], [ -180.0, 66.513260443111861 ], [ -180.0, 55.776573018667698 ], [ -180.0, 40.979898069620127 ], [ -157.5, 40.979898069620127 ], [ -157.5, 21.943045533438177 ], [ -180.0, 21.943045533438177 ], [ -180.0, 0.0 ], [ -180.0, -21.943045533438177 ], [ -157.5, -21.943045533438177 ], [ -157.5, 0.0 ], [ -135.0, 0.0 ], [ -112.5, 0.0 ], [ -112.5, -21.943045533438177 ], [ -135.0, -21.943045533438177 ], [ -135.0, -40.979898069620127 ], [ -112.5, -40.979898069620127 ], [ -112.5, -55.776573018667698 ], [ -135.0, -55.776573018667698 ], [ -157.5, -55.776573018667698 ], [ -157.5, -40.979898069620127 ], [ -180.0, -40.979898069620127 ], [ -180.0, -55.776573018667698 ], [ -180.0, -66.513260443111861 ], [ -157.5, -66.513260443111861 ], [ -157.5, -74.019543311502261 ], [ -180.0, -74.019543311502261 ], [ -180.0, -79.171334640819452 ], [ -180.0, -82.676284978349031 ], [ -157.5, -82.676284978349031 ], [ -157.5, -79.171334640819452 ], [ -135.0, -79.171334640819452 ], [ -135.0, -82.676284978349031 ], [ -112.5, -82.676284978349031 ], [ -112.5, -79.171334640819452 ], [ -112.5, -74.019543311502261 ], [ -135.0, -74.019543311502261 ], [ -135.0, -66.513260443111861 ], [ -112.5, -66.513260443111861 ], [ -90.0, -66.513260443111861 ], [ -67.5, -66.513260443111861 ], [ -67.5, -74.019543311502261 ], [ -90.0, -74.019543311502261 ], [ -90.0, -79.171334640819452 ], [ -90.0, -82.676284978349031 ], [ -67.5, -82.676284978349031 ], [ -67.5, -79.171334640819452 ], [ -45.0, -79.171334640819452 ], [ -45.0, -82.676284978349031 ], [ -22.5, -82.676284978349031 ], [ -22.5, -79.171334640819452 ], [ -22.5, -74.019543311502261 ], [ -45.0, -74.019543311502261 ], [ -45.0, -66.513260443111861 ], [ -22.5, -66.513260443111861 ], [ -22.5, -55.776573018667698 ], [ -22.5, -40.979898069620127 ], [ -45.0, -40.979898069620127 ], [ -45.0, -55.776573018667698 ], [ -67.5, -55.776573018667698 ], [ -90.0, -55.776573018667698 ], [ -90.0, -40.979898069620127 ], [ -67.5, -40.979898069620127 ], [ -67.5, -21.943045533438177 ], [ -90.0, -21.943045533438177 ], [ -90.0, 0.0 ], [ -67.5, 0.0 ], [ -45.0, 0.0 ], [ -45.0, -21.943045533438177 ], [ -22.5, -21.943045533438177 ], [ -22.5, 0.0 ], [ 0.0, 0.0 ], [ 0.0, -21.943045533438177 ], [ 22.5, -21.943045533438177 ], [ 22.5, 0.0 ], [ 45.0, 0.0 ], [ 67.5, 0.0 ], [ 67.5, -21.943045533438177 ], [ 45.0, -21.943045533438177 ], [ 45.0, -40.979898069620127 ], [ 67.5, -40.979898069620127 ], [ 67.5, -55.776573018667698 ], [ 45.0, -55.776573018667698 ], [ 22.5, -55.776573018667698 ], [ 22.5, -40.979898069620127 ], [ 0.0, -40.979898069620127 ], [ 0.0, -55.776573018667698 ], [ 0.0, -66.513260443111861 ], [ 22.5, -66.513260443111861 ], [ 22.5, -74.019543311502261 ], [ 0.0, -74.019543311502261 ], [ 0.0, -79.171334640819452 ], [ 0.0, -82.676284978349031 ], [ 22.5, -82.676284978349031 ], [ 22.5, -79.171334640819452 ], [ 45.0, -79.171334640819452 ], [ 45.0, -82.676284978349031 ], [ 67.5, -82.676284978349031 ], [ 67.5, -79.171334640819452 ], [ 67.5, -74.019543311502261 ], [ 45.0, -74.019543311502261 ], [ 45.0, -66.513260443111861 ], [ 67.5, -66.513260443111861 ], [ 90.0, -66.513260443111861 ], [ 112.5, -66.513260443111861 ], [ 112.5, -74.019543311502261 ], [ 90.0, -74.019543311502261 ], [ 90.0, -79.171334640819452 ], [ 90.0, -82.676284978349031 ], [ 112.5, -82.676284978349031 ], [ 112.5, -79.171334640819452 ], [ 135.0, -79.171334640819452 ], [ 135.0, -82.676284978349031 ], [ 157.5, -82.676284978349031 ], [ 157.5, -79.171334640819452 ], [ 157.5, -74.019543311502261 ], [ 135.0, -74.019543311502261 ], [ 135.0, -66.513260443111861 ], [ 157.5, -66.513260443111861 ], [ 157.5, -55.776573018667698 ], [ 157.5, -40.979898069620127 ], [ 135.0, -40.979898069620127 ], [ 135.0, -55.776573018667698 ], [ 112.5, -55.776573018667698 ], [ 90.0, -55.776573018667698 ], [ 90.0, -40.979898069620127 ], [ 112.5, -40.979898069620127 ], [ 112.5, -21.943045533438177 ], [ 90.0, -21.943045533438177 ], [ 90.0, 0.0 ], [ 112.5, 0.0 ], [ 135.0, 0.0 ], [ 135.0, -21.943045533438177 ], [ 157.5, -21.943045533438177 ], [ 157.5, 0.0 ], [ 157.5, 21.943045533438177 ], [ 135.0, 21.943045533438177 ], [ 135.0, 40.979898069620127 ], [ 157.5, 40.979898069620127 ], [ 157.5, 55.776573018667698 ], [ 157.5, 66.513260443111861 ], [ 135.0, 66.513260443111861 ], [ 135.0, 55.776573018667698 ], [ 112.5, 55.776573018667698 ], [ 112.5, 66.513260443111861 ], [ 90.0, 66.513260443111861 ], [ 90.0, 55.776573018667698 ], [ 90.0, 40.979898069620127 ], [ 112.5, 40.979898069620127 ], [ 112.5, 21.943045533438177 ], [ 90.0, 21.943045533438177 ], [ 67.5, 21.943045533438177 ], [ 67.5, 40.979898069620127 ], [ 45.0, 40.979898069620127 ], [ 45.0, 21.943045533438177 ], [ 22.5, 21.943045533438177 ], [ 0.0, 21.943045533438177 ], [ 0.0, 40.979898069620127 ], [ 22.5, 40.979898069620127 ], [ 22.5, 55.776573018667698 ], [ 0.0, 55.776573018667698 ], [ 0.0, 66.513260443111861 ], [ 22.5, 66.513260443111861 ], [ 45.0, 66.513260443111861 ], [ 45.0, 55.776573018667698 ], [ 67.5, 55.776573018667698 ], [ 67.5, 66.513260443111861 ], [ 67.5, 74.019543311502261 ], [ 67.5, 79.171334640819452 ], [ 45.0, 79.171334640819452 ], [ 45.0, 74.019543311502261 ], [ 22.5, 74.019543311502261 ], [ 0.0, 74.019543311502261 ], [ 0.0, 79.171334640819452 ], [ 22.5, 79.171334640819452 ], [ 22.5, 82.676284978349031 ], [ 0.0, 82.676284978349031 ], [ 0.0, 85.051128779806604 ], [ 22.5, 85.051128779806604 ], [ 45.0, 85.051128779806604 ], [ 45.0, 82.676284978349031 ], [ 67.5, 82.676284978349031 ], [ 67.5, 85.051128779806604 ], [ 90.0, 85.051128779806604 ], [ 112.5, 85.051128779806604 ], [ 112.5, 82.676284978349031 ], [ 90.0, 82.676284978349031 ], [ 90.0, 79.171334640819452 ], [ 90.0, 74.019543311502261 ], [ 112.5, 74.019543311502261 ], [ 112.5, 79.171334640819452 ], [ 135.0, 79.171334640819452 ], [ 135.0, 74.019543311502261 ], [ 157.5, 74.019543311502261 ], [ 157.5, 79.171334640819452 ], [ 157.5, 82.676284978349031 ], [ 135.0, 82.676284978349031 ], [ 135.0, 85.051128779806604 ], [ 157.5, 85.051128779806604 ] ] } }
]
}
